BP CODE,NTW #,PROVIDER NAME,REGION,CITY,DISTRICT,TYPE,NTW 1,NTW 2,NTW 3,NTW 4,NTW 5,NTW 6,NTW 7,NTW 8,NTW 9,NTW 10,TEL,FAX,المدنة,المنطقة,اسم مقدم الخدمة
390,1,KING FAHAD NATIONAL GUARD HOSP (RIYADH),CENTRAL,RIYADH,KASHMALAN,HOSPITAL,√,−,−,−,−,−,−,−,−,−,011-8028787,011-2521752,الراض,الوسطى,مستشفى الملك فھد (الحرس الوطنى)
5447,1,KING FAHAD MEDICAL CITY,CENTRAL,RIYADH,ALDHBAB,HOSPITAL,√,−,−,−,−,−,−,−,−,−,011-2889999,011-2889999,الراض,الوسطى,مدنة الملك فھد الطبة
5451,1,KING FAISAL SPECIALIZED HOSPITAL,CENTRAL,RIYADH,LABAN,HOSPITAL,√,−,−,−,−,−,−,−,−,−,011-4427407,011-4427407,الراض,الوسطى,مستشفى الملك فصل التخصصي ومركز ابحاث
5453,1,KING ABDULLAH HOSPITAL - NOURAH UNIVERSITY,CENTRAL,RIYADH,NARJES,HOSPITAL,√,−,−,−,−,−,−,−,−,−,011-8203344,011-8246333,الراض,الوسطى,مستشفى الملك عبداللھ - جامعة امرة نورة
5470,1,PRINCE SULTAN MEDICAL CITY,CENTRAL,RIYADH,SULAYMANIYAH,HOSPITAL,√,−,−,−,−,−,−,−,−,−,011-4777714,011-4777714,الراض,الوسطى,مدنة امر سلطان الطبة العسكرة
5515,1,PRINCE SULTAN CENTER FOR CARDIAC DISEASE,CENTRAL,RIYADH,SULAYMANIYAH,HOSPITAL,√,−,−,−,−,−,−,−,−,−,011-4783000,011-4783000,الراض,الوسطى,مركز امر سلطان مراض وجراحة القلب
148,2,DR SULIMAN AL HABIB MED. GROUP (OLAYA),CENTRAL,RIYADH,AL OLAYA,HOSPITAL,√,√,−,−,−,−,−,−,−,−,011-4622224,011-2167988,الراض,الوسطى,مركز الدكتور سلمان الحبب الطبي (العلا)
1498,2,DR SULIMAN AL HABIB HOSPITAL (ARRYAN),CENTRAL,RIYADH,AL RAYAN,HOSPITAL,√,√,−,−,−,−,−,−,−,−,011-4909999,011-4904444,الراض,الوسطى,مستشفى الدكتور سلمان الحبب (الران)
2259,2,DR SULIMAN AL HABIB HOSPITAL (TAKHSSUSI),CENTRAL,RIYADH,AL TAKHSSUSI,HOSPITAL,√,√,−,−,−,−,−,−,−,−,011-2833333,011-2833335,الراض,الوسطى,مستشفى الدكتور سلمان الحبب (التخصصي)
2727,2,DR SULIMAN AL HABIB HOSPITAL (MATERNITY),CENTRAL,RIYADH,AL OLAYA,HOSPITAL,√,√,−,−,−,−,−,−,−,−,011-4622224,011-4646549,الراض,الوسطى,مستشفى الدكتور سلمان الحبب للنساء والودة
4255,2,DR SULIMAN AL HABIB HOSPITAL (SUWAIDI),CENTRAL,RIYADH,AL SUWAIDI,HOSPITAL,√,√,−,−,−,−,−,−,−,−,011-4754444,011-4754991,الراض,الوسطى,مستشفى الدكتور سلمان الحبب ( السودي )
3,2,DALLAH HOSPITAL - ALNAKHEEL,CENTRAL,RIYADH,AL NAKHEEL,HOSPITAL,√,√,−,−,−,−,−,−,−,−,920012222,011-4702761,الراض,الوسطى,مستشفى دلھ - النخل
4566,2,FAMILY CARE HOSPITAL,CENTRAL,RIYADH,AL NADWAA,HOSPITAL,√,√,−,−,−,−,−,−,−,−,011-2454444,011-2465642,الراض,الوسطى,مستشفى عناة العائلة
3928,2,AL HAMMADI HOSPITAL AL SUWAIDI,CENTRAL,RIYADH,SUWEDI,HOSPITAL,√,√,−,−,−,−,−,−,−,−,011-4250000,011-4253333,الراض,الوسطى,مستشفى الحمادي - السودي
5182,2,AL HAMMADI HOSPITAL AL NUZHA,CENTRAL,RIYADH,NOZHA,HOSPITAL,√,√,−,−,−,−,−,−,−,−,011-4837777,011-4185555,الراض,الوسطى,مستشفى الحمادي - النزھھ
625,2,SAUDI GERMAN HOSPITAL (RIYADH),CENTRAL,RIYADH,SAHAFA,HOSPITAL,√,√,−,−,−,−,−,−,−,−,011-4873000,011-4871429,الراض,الوسطى,مستشفى السعودي الماني
5520,2,SIGAL DENTAL CLINICS,CENTRAL,RIYADH,OLAYA,CENTER,√,√,−,−,−,−,−,−,−,−,011-4648060,011-4648060,الراض,الوسطى,مجمع عادات سجال
5531,2,SIGAL DENTAL CLINICS -1,CENTRAL,RIYADH,OLAYA,CENTER,√,√,−,−,−,−,−,−,−,−,011-4648060,011-4648060,الراض,الوسطى,مجمع عادات سجال طب اسنان 1
1676,4,SAUDI BRITISH HOSPITAL,CENTRAL,RIYADH,AL OLAYA,HOSPITAL,√,√,√,√,−,−,−,−,−,−,011-2463666,011-2012532,الراض,الوسطى,مستشفى السعودي البرطاني
1120,4,AL MAS DENTAL CENTER,CENTRAL,RIYADH,AL HAMRA,CENTER,√,√,√,√,−,−,−,−,−,−,011-2487888,011-2485402,الراض,الوسطى,مجمع عادات واحة الماس لطب اسنان
2823,4,ABDULAZIZ AL AJAJI DENTAL CENTER,CENTRAL,RIYADH,AL MALAZ,CENTER,√,√,√,√,−,−,−,−,−,−,011-4774700,011-4764345,الراض,الوسطى,مجمع عادات عبدالعزز العجاجي لطب اسنان
4483,4,KING SALMAN HOSPITAL,CENTRAL,RIYADH,AL BADIYAH,HOSPITAL,√,√,√,√,R,R,R,R,R,R,011-4311100,011-4366264,الراض,الوسطى,مستشفى الملك سلمان
4491,4,KING SAUD MEDICAL CITY,CENTRAL,RIYADH,ALSHUMAISI,HOSPITAL,√,√,√,√,−,−,−,−,−,−,011-4335555,011-4356253,الراض,الوسطى,مدنة الملك سعود الطبة
4492,4,PRINCE MOHMMED BIN ABDULAZIZ HOSPITAL,CENTRAL,RIYADH,AL RAWABI,HOSPITAL,√,√,√,√,−,−,−,−,−,−,011-2616666,011-2617777,الراض,الوسطى,مستشفى امر محمد بن عبدالعزز
4485,4,AL EMAN GENERAL HOSPITAL,CENTRAL,RIYADH,KHANSHALILAH,HOSPITAL,√,√,√,√,−,−,−,−,−,−,011-4471912,011-4471913,الراض,الوسطى,مستشفى امان العام
4486,4,AL YAMAMAH G. HOSPITAL,CENTRAL,RIYADH,AL SALAM,HOSPITAL,√,√,√,√,−,−,−,−,−,−,011-4914444,011-4915132,الراض,الوسطى,مستشفى المامھ
4654,4,IMAM ABDULRAHMAN AL FAISAL HOSPITAL,CENTRAL,RIYADH,AL SHIFA,HOSPITAL,√,√,√,√,−,−,−,−,−,−,011-2615555,011-4217969,الراض,الوسطى,مستشفى عبدالرحمن الفصل بالراض
5038,4,KING KHALID EYE SPECIALIST HOSPITAL - RIYADH,CENTRAL,RIYADH,UMM AL HAMMAM,HOSPITAL,√,√,√,√,−,−,−,−,−,−,011-4821234,011-4821200,الراض,الوسطى,مستشفى الملك خالد التخصصي للعون
4655,4,AL AMAL HOSPITAL - MOH,CENTRAL,RIYADH,AL KHUZAMA,HOSPITAL,√,√,√,√,−,−,−,−,−,−,011-4804548,011-4804640,الراض,الوسطى,مجمع امل للصحة النفسة
5034,4,SPECIALIZED DENTAL CENTER IN EAST RIYADH (MOH),CENTRAL,RIYADH,ASHBILYA,HOSPITAL,√,√,√,√,−,−,−,−,−,−,011-2482698,011-2482698,الراض,الوسطى,مركز طب اسنان بشرق الراض ( وزارة الصحة )
5330,4,DALLAH HOSPITAL - NAMAR,CENTRAL,RIYADH,NAMAR,HOSPITAL,√,√,√,√,−,−,−,−,−,−,011-8275555,011-8274750,الراض,الوسطى,شركة مستشفى دلھ نمار الصحة
4,4,RIYADH CARE HOSPITAL,CENTRAL,RIYADH,RAYAN,HOSPITAL,√,√,√,√,−,−,−,−,−,−,011-4933000,011-4935980,الراض,الوسطى,مستشفى رعاة الراض
10,4,CARE NATIONAL HOSPITAL,CENTRAL,RIYADH,AL MALAZ,HOSPITAL,√,√,√,√,−,−,−,−,−,−,011-4761211,011-4760830,الراض,الوسطى,مستشفى رعاة الوطني (الراض الوطني سابقا)
665,4,ENT MEDICAL CENTER (RAMA CLINIC),CENTRAL,RIYADH,MAZAR,CENTER,√,√,√,√,−,−,−,−,−,−,011-4802229,011-4803635,الراض,الوسطى,المركز الطبي لنف واذن  والحنجرة
3820,4,DAWALI CLINICS,CENTRAL,RIYADH,MAROOJ,CENTER,√,√,√,√,−,−,−,−,−,−,920004306,011-4941768,الراض,الوسطى,مجمع عادات دوالي
2327,4,DEMAS MEDICAL CLINIC & DIALYSIS CENTERS,CENTRAL,RIYADH,RABEA,CENTER,√,√,√,√,−,−,−,−,−,−,920023008,011-2759426,الراض,الوسطى,مجمع دماس الطبي
5427,4,ALFARAN MEDICAL CENTER,CENTRAL,RIYADH,SALAHUDDIN,CENTER,√,√,√,√,−,−,−,−,−,−,011-4565153,011-4531477,الراض,الوسطى,مركز الفاران الطبي
1004,4,MALEEN DENTAL CONSULTANT CENTER,CENTRAL,RIYADH,RAHMANIYAH,CENTER,√,√,√,√,−,−,−,−,−,−,011-2055577,011-2050609,الراض,الوسطى,مركز مالن استشارة لطب اسنان
3925,4,LASTING SMILE DENTEL CLINICS,CENTRAL,RIYADH,OLAYA,CENTER,√,√,√,√,−,−,−,−,−,−,011-4640216,011-4640354,الراض,الوسطى,مجمع عادات البسمة الدائمة لطب اسنان
4697,4,SAVVY CLINIC COMPANY,CENTRAL,RIYADH,WAROD,CENTER,√,√,√,√,−,−,−,−,−,−,011-4603322,011-2153777,الراض,الوسطى,مجمع عادات سافي الطبة
5208,4,HALA ROSE DENTAL CENTER,CENTRAL,RIYADH,NAHDAH,CENTER,√,√,√,√,−,−,−,−,−,−,011-4222213,011-4222213,الراض,الوسطى,مجمع عادات ھ روز الطبي
4699,4,GAMA DENTAL CENTER,CENTRAL,RIYADH,SALAHULDIN,CENTER,√,√,√,√,−,−,−,−,−,−,011-4542929,011-4569563,الراض,الوسطى,مجمع عادات جاما لطب اسنان
696,4,PEARL DENTAL AND DERMA CLINCS,CENTRAL,RIYADH,EZDHAR,CENTER,√,√,√,√,−,−,−,−,−,−,011-2632424,011-2696731,الراض,الوسطى,مجمع عادات برل لطب اسنان و الجلدة
1333,4,ALLIED DIAGNOSTICS,CENTRAL,RIYADH,ALANDALUS,CENTER,√,√,√,√,−,−,−,−,−,−,011-4942996,011-4942996,الراض,الوسطى,مركز المتحالف لشعھ
1090,4,ITLALAT PANORAMA CLINICS DENTAL,CENTRAL,RIYADH,SULIMANYAH,CENTER,√,√,√,√,−,−,−,−,−,−,011-2162999,011-2932922,الراض,الوسطى,مستوصف اطت بانوراما لطب اسنان
1125,4,OMAR AL AJAJI DENTAL & DERMA CENTER,CENTRAL,RIYADH,RIYADH,CENTER,√,√,√,√,−,−,−,−,−,−,011-4644495,011-4620986,الراض,الوسطى,مجمع عادات الدكتور عمر العجاجي لطب اسنان والجلدة والتجمل
4006,4,DR. GHASSAN N. PHAROAN DENTAL CENTER,CENTRAL,RIYADH,AL OLAYA,CENTER,√,√,√,√,−,−,−,−,−,−,011-4403536,011-4416364,الراض,الوسطى,الدكتور غسان نجب فرعون لطب اسنان
2824,4,DAR MIRAL DENTAL COMPLEX,CENTRAL,RIYADH,AL OLAYA,CENTER,√,√,√,√,−,−,−,−,−,−,011-4620444,011-4661078,الراض,الوسطى,مجمع دار مرال لطب اسنان
5542,4,MIRAL DENTAL COMPLEX 2,CENTRAL,RIYADH,AL MALQA,CENTER,√,√,√,√,−,−,−,−,−,−,011-4252723,-,الراض,الوسطى,مجمع مرال الطبي 2
5428,4,LANA OPTICAL CENTER,CENTRAL,RIYADH,TAKHASUSI,CENTER,√,√,√,√,−,−,−,−,−,−,011-2751111,011-2810009,الراض,الوسطى,مركز بصرات نھ
5478,4,SEVEN MEDICAL REHABILITATION CENTER,CENTRAL,RIYADH,NAHDHAH,CENTER,√,√,√,√,−,−,−,−,−,−,011-2000415,011-2000416,الراض,الوسطى,مركز سبعة للتاھل الطبي واطراف اصطناعة
702,4,KINGDOM HOSPITAL,CENTRAL,RIYADH,ALRABIE,HOSPITAL,√,√,√,√,−,−,−,−,−,−,011-2751111,011-2750026,الراض,الوسطى,مستشفى المملكة
518,4,SPECIALIZED MEDICAL CENTER HOSPITAL,CENTRAL,RIYADH,AL OLAYA,HOSPITAL,√,√,√,√,−,−,−,−,−,−,011-4343800,011-4611353,الراض,الوسطى,مستشفى المركز التخصصي الطبي
5426,4,SPECIALIZED MEDICAL CENTER HOSPITAL - 2,CENTRAL,RIYADH,KING FAISAL,HOSPITAL,√,√,√,√,−,−,−,−,−,−,011-4700700,011-4160300,الراض,الوسطى,مستشفى المركز التخصصي الطبي - 2
3467,4,AL MOUWASAT HOSPITAL - RIYADH,CENTRAL,RIYADH,GHURNATA,HOSPITAL,√,√,√,√,−,−,−,−,−,−,011-4130000,011-4110011,الراض,الوسطى,مستشفى المواساة للخدمات الطبة - الراض
2276,6,SANAD HOSPITAL,CENTRAL,RIYADH,AL HAMRA,HOSPITAL,√,√,√,√,√,√,R,R,R,R,011-4569658,011-2407888,الراض,الوسطى,مستشفى سند ( احمد ابانمي سابقا)
2,6,DR AL MISHARI HOSPITAL,CENTRAL,RIYADH,AL OLAYA,HOSPITAL,√,√,√,√,√,√,−,−,−,−,011-4657700,011-4625040,الراض,الوسطى,مستشفى المشاري
356,6,ELITE MEDICAL DOCTORS CO. HOSPITAL,CENTRAL,RIYADH,AL OLAYA,HOSPITAL,√,√,√,√,√,√,R,R,R,R,011-4616777,011-2173865,الراض,الوسطى,مستشفى مركز النخبھ الطبي
1366,6,AL JAZEERA HOSPITAL,CENTRAL,RIYADH,AL NASEEM,HOSPITAL,√,√,√,√,√,√,R,R,R,R,011-2331290,011-2099799,الراض,الوسطى,مستشفى الجزرة
708,6,AL HAYAT NATIONAL HOSPITAL - INMA GROUP,CENTRAL,RIYADH,AL RABWAH,HOSPITAL,√,√,√,√,√,√,R,R,R,R,011-4455555,011-4455061,الراض,الوسطى,مستشفى الحاة الوطني - مجموعة انماء
694,10,DAR ARAB MEDICAL CLINIC,CENTRAL,RIYADH,AL OLAYA,CLINIC,√,√,√,√,√,√,√,√,√,√,011-4160011,011-4651231,الراض,الوسطى,مستوصف دار العرب
1112,6,BAREQ AL IBTSAMA DENTAL CLINIC,CENTRAL,RIYADH,AL NASEEM,CENTER,√,√,√,√,√,√,−,−,−,−,011-2338010,011-2383128,الراض,الوسطى,مركز برق ابتسامة لطب اسنان
1862,6,32 DENTAL,CENTRAL,RIYADH,AL MORSALAT,CENTER,√,√,√,√,√,√,−,−,−,−,011-2071620,011-2071620,الراض,الوسطى,32 لسنان
12,4,CONSULTING CLINICS,CENTRAL,RIYADH,AL OLAYA,CLINIC,√,√,√,√,−,−,−,−,−,−,011-4659100,011-4631129,الراض,الوسطى,العادات استشارة
3509,6,DENT DENTAL CLINIC,CENTRAL,RIYADH,KING FAHAD,CENTER,√,√,√,√,√,√,−,−,−,−,011-2108833,011-4508383,الراض,الوسطى,مجمع عادات دنت الطبي -4- الراض
3507,10,DR BASSAM AL-HEMSI MEDICAL CENTER,CENTRAL,RIYADH,AL MURABAA,CLINIC,√,√,√,√,√,√,√,√,√,√,011-2476500,011-4335011,الراض,الوسطى,مركز الدكتور بسام الحمصي الطبي
3510,6,BROS DENTAL CLINIC,CENTRAL,RIYADH,AL WAROOD,CENTER,√,√,√,√,√,√,−,−,−,−,011-4555843,011-2253746,الراض,الوسطى,مجمع عادات بروز لطب اسنان
1,6,OLAYA MEDICAL COMPLEX,CENTRAL,RIYADH,AL SULAYMANIYH,CLINIC,√,√,√,√,√,√,−,−,−,−,011-4645501,011-4642889,الراض,الوسطى,مجمع العلا الطبي
5432,6,TADAW MEDICAL COMPLEX AND DAY SURGERY CENTER,CENTRAL,RIYADH,SHUHADA,CENTER,√,√,√,√,√,√,−,−,−,−,920013392,011-4622006,الراض,الوسطى,مجمع تداو الطبي ومركز جراحة الوم الواحد
1809,6,THE EYE CONSULTANTS (RIYADH),CENTRAL,RIYADH,AL OLAYA,CENTER,√,√,√,√,√,√,−,−,−,−,011-4616161,011-4615678,الراض,الوسطى,استشارون للعون
569,6,DIMA DENTAL CENTER,CENTRAL,RIYADH,AL OLAYA,CENTER,√,√,√,√,√,√,−,−,−,−,011-4661200,011-4661201,الراض,الوسطى,مركز دمة لطب اسنان
919,6,AL RIDWAN DENTAL CENTER,CENTRAL,RIYADH,AL MALAZ,CENTER,√,√,√,√,√,√,−,−,−,−,011-4743441,011-4727489,الراض,الوسطى,مجمع الرضوان لطب اسنان
1224,6,SAFAD DENTAL CENTER,CENTRAL,RIYADH,JUBRAH,CENTER,√,√,√,√,√,√,−,−,−,−,011-4115001,011-4547880,الراض,الوسطى,مجمع صفد لطب اسنان
1694,6,PRETTY SMILE DENTAL CLINICS,CENTRAL,RIYADH,AL WADI,CENTER,√,√,√,√,√,√,−,−,−,−,011-2243333,011-2243644,الراض,الوسطى,عادات ابتسامة الجملة لطب اسنان
629,6,IBTSAMATAC  DENTAL POLYCLINIC,CENTRAL,RIYADH,AL NASEEM,CENTER,√,√,√,√,√,√,−,−,−,−,011-2329905,011-2391123,الراض,الوسطى,مجمع مركز ابتسامتك لطب اسنان
721,6,AL WAROOD MEDICAL CENTER,CENTRAL,RIYADH,AL WAROOD,CLINIC,√,√,√,√,√,√,−,−,−,−,011-4703355,011-4703377,الراض,الوسطى,مركز الورود الطبي
2312,10,MAROOM RIYADH MEDICAL CENTER (DAR ALMUAFAT PREV.),CENTRAL,RIYADH,AL RAED,CLINIC,√,√,√,√,√,√,√,√,√,√,920003314,011-2814196,الراض,الوسطى,مجمع عادات مروم الراض الطبي - 1 دار المعافاة سابقا
2453,10,WAHAT ATTADAWY CENTER,CENTRAL,RIYADH,AL NAFEL,CLINIC,√,√,√,√,√,√,√,√,√,√,011-2744433,011-2108373,الراض,الوسطى,مستوصف واحة التداوي
677,10,AL MAWIYAH CLINIC GROUP -1 (NASEEM),CENTRAL,RIYADH,AL NASEEM,CLINIC,√,√,√,√,√,√,√,√,√,√,011-2314444,011-2305503,الراض,الوسطى,مجمع عادات المئوة -النسم - 1
2409,6,FAMILY SERVICE POLYCLINIC,CENTRAL,RIYADH,AL HAZM,CLINIC,√,√,√,√,√,√,−,−,−,−,011-2716188,011-2716488,الراض,الوسطى,مجمع عادات اسرة الطبي
2352,6,DAVITA LEHBI CARE,CENTRAL,RIYADH,ALMURSALAT,CENTER,√,√,√,√,√,√,−,−,−,−,011-2811205,011-2812988,الراض,الوسطى,مركز الدكتور علي اللھبي لغسل الكلى
2055,6,LOLOUAT AL AAJ DENTAL CLINICS,CENTRAL,RIYADH,TWEEQ,CENTER,√,√,√,√,√,√,−,−,−,−,011-2477301,011-2477041,الراض,الوسطى,شركة مجمع لؤلؤة العاج لطب اسنان
965,6,AL MOMIYAS MEDICAL COMPLEX,CENTRAL,RIYADH,AL RAWDA,CENTER,√,√,√,√,√,√,−,−,−,−,011-2089090,011-2088622,الراض,الوسطى,مجمع مشفى الممز(السن الممز سابقا)
1996,6,NATIONAL BLOOD & CANCER CENTER,CENTRAL,RIYADH,AL SULAYMANIYH,CENTER,√,√,√,√,√,√,−,−,−,−,011-2881155,011-2881155,الراض,الوسطى,مجمع عادات المركز الوطني مراض الدم واورام
1394,6,BIN RUSHD MEDICAL CENTER CO,CENTRAL,RIYADH,AL OLAYA,CENTER,√,√,√,√,√,√,−,−,−,−,920000181,011-4649901,الراض,الوسطى,شركة مركز ابن رشد الطبة
3898,6,BIN RUSHD OPHTHALMIC CENTER -2,CENTRAL,RIYADH,AL SUWAIDI,CENTER,√,√,√,√,√,√,−,−,−,−,920000181,011-4494414,الراض,الوسطى,مركز بن رشد التخصصي للعون 2
5365,6,BIN RUSHD OPHTHALMIC CENTER -3,CENTRAL,RIYADH,AL SUWAIDI,CENTER,√,√,√,√,√,√,−,−,−,−,920000181,011-4649901,الراض,الوسطى,مركز بن رشد لطب وجراحة العون - 3
3413,6,AL BADRI MEDICAL POLYCLINIC,CENTRAL,RIYADH,AL MASEEF,CLINIC,√,√,√,√,√,√,−,−,−,−,920022708,011-2691154,الراض,الوسطى,مجمع عادات البدري الطبي
5544,6,RAFA MEDICAL CARE,CENTRAL,RIYADH,AL AREDH,CLINIC,√,√,√,√,√,√,−,−,−,−,920005405,011-2318555,الراض,الوسطى,مجمع رعاة رفا الطبي
4673,10,RAFA MEDICAL COMPLEX,CENTRAL,RIYADH,AL MUNESYAH,CLINIC,√,√,√,√,√,√,√,√,√,√,920005405,011-2318555,الراض,الوسطى,مجمع رفا الطبي
4564,6,INTEGRATED TREATMENT CENTER,CENTRAL,RIYADH,AL MALAZ,CENTER,√,√,√,√,√,√,−,−,−,−,011-4784446,011-4784446,الراض,الوسطى,مركز عجي المتكامل للعج الطبعي
3755,6,KENTAL DENTAL CENTER 2,CENTRAL,RIYADH,AL NOZHA,CENTER,√,√,√,√,√,√,−,−,−,−,011-4567070,011-4568959,الراض,الوسطى,مركز كنتال لطب اسنان  2
5340,6,THE CONSULTANTS OPTICAL,CENTRAL,RIYADH,AL OLAYA,CENTER,√,√,√,√,√,√,−,−,−,−,011-2791986,011-2791986,الراض,الوسطى,استشارون للبصرات
2413,6,RENAD OPTICAL (ALSHEFFA),CENTRAL,RIYADH,ALSHEFFA,CENTER,√,√,√,√,√,√,−,−,−,−,011-2063444,011-2063444,الراض,الوسطى,رناد للبصرات (فرع الشفا)
3976,8,RAWAT ELEOWN OPTICALS,CENTRAL,RIYADH,AL MANSURAH,CENTER,√,√,√,√,√,√,√,√,−,−,011-4466469,011-4466469,الراض,الوسطى,بصرات روعة العون - المنصورة
3977,8,RAWAT ELEOWN OPTICALS,CENTRAL,RIYADH,AL RABWAH,CENTER,√,√,√,√,√,√,√,√,−,−,011-2088806,011-4243944,الراض,الوسطى,بصرات روعة العون - الربوة
3978,8,RAWAT ELEOWN OPTICALS,CENTRAL,RIYADH,AL SALAM,CENTER,√,√,√,√,√,√,√,√,−,−,011-2333578,011-2333578,الراض,الوسطى,بصرات روعة العون - السم
3979,8,RAWAT ELEOWN OPTICALS,CENTRAL,RIYADH,AZIZIYA DISTRICT,CENTER,√,√,√,√,√,√,√,√,−,−,011-4956510,011-4956510,الراض,الوسطى,بصرات روعة العون - العززة
3980,8,RAWAT ELEOWN OPTICALS,CENTRAL,RIYADH,AZIZIYA DISTRICT,CENTER,√,√,√,√,√,√,√,√,−,−,011-4383075,011-4383075,الراض,الوسطى,بصرات روعة العون - العززة 3
3981,8,RAWAT ELEOWN OPTICALS,CENTRAL,RIYADH,BDER,CENTER,√,√,√,√,√,√,√,√,−,−,011-4214506,011-4214506,الراض,الوسطى,بصرات روعة العون - بدر
3982,8,RAWAT ELEOWN OPTICALS,CENTRAL,RIYADH,AZIZIYA DISTRICT,CENTER,√,√,√,√,√,√,√,√,−,−,011-4384464,011-4384464,الراض,الوسطى,بصرات روعة العون - العززة
3983,8,RAWAT ELEOWN OPTICALS,CENTRAL,RIYADH,WADI LABAN,CENTER,√,√,√,√,√,√,√,√,−,−,011-4243944,011-4326594,الراض,الوسطى,بصرات روعة العون - وادي لبن
3984,8,RAWAT ELEOWN OPTICALS,CENTRAL,RIYADH,SHUBRA,CENTER,√,√,√,√,√,√,√,√,−,−,011-4244585,011-4244585,الراض,الوسطى,بصرات روعة العون - شبرا
3985,8,RAWAT ELEOWN OPTICALS,CENTRAL,RIYADH,AL SHIFA,CENTER,√,√,√,√,√,√,√,√,−,−,011-4231587,011-4231587,الراض,الوسطى,بصرات روعة العون - الشفا
3986,8,RAWAT ELEOWN OPTICALS,CENTRAL,RIYADH,AL MASEEF,CENTER,√,√,√,√,√,√,√,√,−,−,011-2637118,011-2637118,الراض,الوسطى,بصرات روعة العون - المصف
2277,6,ZARKA EL YAMAMA OPTICS (KING FAHAD ROAD),CENTRAL,RIYADH,ALMAZAR,CENTER,√,√,√,√,√,√,−,−,−,−,011-4646689,011-4664599,الراض,الوسطى,مركز زرقاء المامة (الملك فھد)
2278,6,ZARKA EL YAMAMA OPTICS (TAKHASUSI ROAD),CENTRAL,RIYADH,AL TAKHASUSI,CENTER,√,√,√,√,√,√,−,−,−,−,011-4833553,011-4664599,الراض,الوسطى,مركز زرقاء المامة (التخصصي)
2279,6,ZARKA EL YAMAMA OPTICS (OURUBA ROAD),CENTRAL,RIYADH,OLAYA,CENTER,√,√,√,√,√,√,−,−,−,−,011-4656310,011-4664599,الراض,الوسطى,مركز زرقاء المامة (لعروبة)
5171,6,MAJID OPTICAL CENTER,CENTRAL,RIYADH,IRQA,CENTER,√,√,√,√,√,√,−,−,−,−,011-4614824,011-4659275,الراض,الوسطى,مؤسسة ماجد للنظارات
1001,6,SMILE WORLD SPECIALIST DENTAL CENTER,CENTRAL,RIYADH,GHURNATA,CENTER,√,√,√,√,√,√,−,−,−,−,011-2788588,011-2770121,الراض,الوسطى,مجمع عادات عالم ابتسامھ لطب اسنان
563,6,NAHJ AL TAKWA DENTAL DISPENSARY,CENTRAL,RIYADH,AL RAWDA,CENTER,√,√,√,√,√,√,−,−,−,−,011-2485341,011-2485358,الراض,الوسطى,مجمع عادات نھج التقوى لطب اسنان
2814,6,C.U OPTICS - ALJAZEERA MALL,CENTRAL,RIYADH,AL SULAYMANIYH,CENTER,√,√,√,√,√,√,−,−,−,−,011-4611485,012-6606675,الراض,الوسطى,سي و للبصرات - اسواق الجزرة مول
2816,6,C.U OPTICS - ALJAZEERA MARKETS 2(MANSOURA),CENTRAL,RIYADH,AL MANSURAH,CENTER,√,√,√,√,√,√,−,−,−,−,011-4483754,012-6606675,الراض,الوسطى,سي و للبصرات - اسواق الجزرة2(لمنصورة)
2849,6,CLASS OPTICAL - AL AZIZIA,CENTRAL,RIYADH,ALAZIZIA,CENTER,√,√,√,√,√,√,−,−,−,−,011-2401038,011-2401054,الراض,الوسطى,مركز الراقة للنظارات - العززة
2149,6,NEW ERA OPTICS,CENTRAL,RIYADH,OLAYA,CENTER,√,√,√,√,√,√,−,−,−,−,011-4611391,011-4191831,الراض,الوسطى,مركز العصر الجدد للنظارات
1559,6,NOUR AL MADAR FOR OPTICAL,CENTRAL,RIYADH,MALAZ DISTRICT,CENTER,√,√,√,√,√,√,−,−,−,−,011-4790600,011-4790600,الراض,الوسطى,مركز نور المدار للبصرات
3729,6,AL MADINA HEARING & OPTICALS CENTER,CENTRAL,RIYADH,OLAYA,CENTER,√,√,√,√,√,√,−,−,−,−,011-4040695,011-4065261,الراض,الوسطى,مركز المدنة للسمعات والبصرات
32,6,OBEID SPECIALISED HOSPITAL (RIYADH),CENTRAL,RIYADH,AL MALAZ,HOSPITAL,√,√,√,√,√,√,R,R,R,R,011-4767222,011-2065783,الراض,الوسطى,مستشفى عبد التخصصي
30,8,GREEN CRESCENT HOSPITAL,CENTRAL,RIYADH,AL OLAYA,HOSPITAL,√,√,√,√,√,√,√,√,R,R,011-4644434,011-4647082,الراض,الوسطى,مستشفى الھل اخضر
1044,8,RABIA HOSPITAL,CENTRAL,RIYADH,AL ISKAN,HOSPITAL,√,√,√,√,√,√,√,√,R,R,011-4999000,011-4999996,الراض,الوسطى,مستشفى الرابة
833,8,AL AZHAR HOSPITAL,CENTRAL,RIYADH,AL NASEEM,HOSPITAL,√,√,√,√,√,√,√,√,R,R,011-2366788,011-2366703,الراض,الوسطى,مستشفى ازھار
738,8,AL JAFEL INTERNATIONAL HOSPITAL,CENTRAL,RIYADH,AL BADIYAH,HOSPITAL,√,√,√,√,√,√,√,√,R,R,011-4322222,011-4300443,الراض,الوسطى,مستشفى الجافل الدولي
17,8,DAR AL SHEFA HOSPITAL,CENTRAL,RIYADH,AL KHAZZAN,HOSPITAL,√,√,√,√,√,√,√,√,R,R,011-4012029,011-4038343,الراض,الوسطى,مستشفى دار الشفاء
653,8,AL FALAH INTERNATIONAL HOSPITAL,CENTRAL,RIYADH,GHUBAIRA,HOSPITAL,√,√,√,√,√,√,√,√,R,R,011-4463737,011-2044346,الراض,الوسطى,مستشفى الفح الدولي
1369,10,SHOBRA MEDICAL CLINIC,CENTRAL,RIYADH,SHOBRA,CLINIC,√,√,√,√,√,√,√,√,√,√,011-4483608,011-4483608,الراض,الوسطى,مجمع عادات شبرا الطبي
4254,10,DHAKA MEDICAL CENTER,CENTRAL,RIYADH,AL FOTA,CLINIC,√,√,√,√,√,√,√,√,√,√,011-2144765,011-2144765,الراض,الوسطى,مجمع عادات دكھ الطبي
176,10,MALAZ MEDICAL COMPLEX,CENTRAL,RIYADH,AL MALAZ,CLINIC,√,√,√,√,√,√,√,√,√,√,011-4771515,011-4765391,الراض,الوسطى,مجمع عادات شركة الملز الطبة
327,10,FACTORIS  POLYCLINIC,CENTRAL,RIYADH,INDUSTRIAL,CLINIC,√,√,√,√,√,√,√,√,√,√,011-2652130,011-2651297,الراض,الوسطى,مجمع عادات المصانع الطبة
693,8,MADAAR AL SHEFA DENTAL POLYCLINIC,CENTRAL,RIYADH,AL QUDS,CENTER,√,√,√,√,√,√,√,√,−,−,011-2086177,011-2086185,الراض,الوسطى,مجمع عادات مدار الشفاء لطب اسنان (الروضة )
1950,8,MADAAR AL SHEFA DENTAL POLYCLINIC (BADER),CENTRAL,RIYADH,BADAR,CENTER,√,√,√,√,√,√,√,√,−,−,011-4234400,011-2086185,الراض,الوسطى,مركز مدار الشفاء لطب اسنان (حي بدر)
2046,6,AL ABRAG DENTAL CENTER,CENTRAL,RIYADH,AL SUWAIDI,CENTER,√,√,√,√,√,√,−,−,−,−,011-4246101,011-2670228,الراض,الوسطى,مركز ابراج لطب اسنان
2044,6,AL HAKIM POLYCLINIC,CENTRAL,RIYADH,AL ERAJA,CLINIC,√,√,√,√,√,√,−,−,−,−,011-4304747,011-2478840,الراض,الوسطى,مستوصف الحكم الطبي
2045,6,AL HAKIM DENTAL POLYCLINIC,CENTRAL,RIYADH,AL ERAJA,CENTER,√,√,√,√,√,√,−,−,−,−,011-2475516,011-2478840,الراض,الوسطى,مجمع عادات الحكم لطب اسنان
2047,6,AL NAKHEEL 1 TOP DENTAL POLYCLINIC,CENTRAL,RIYADH,AL SUWAIDI,CENTER,√,√,√,√,√,√,−,−,−,−,011-4181178,011-2478840,الراض,الوسطى,مجمع عادات قمة النخل لطب اسنان - 1
2048,6,AL FARABI TOP DENTAL CLINICS -2,CENTRAL,RIYADH,AL AQEEQ,CENTER,√,√,√,√,√,√,−,−,−,−,011-4852295,011-2478840,الراض,الوسطى,مجمع قمة الفارابي لطب اسنان - 2
2050,6,BASMAT ALFARABI DENTAL CLINIC 2 (RAM DENTAL 12),CENTRAL,RIYADH,AL AZIZIYAH,CENTER,√,√,√,√,√,√,−,−,−,−,011-4959485,011-2478840,الراض,الوسطى,مجمع بسمة الفارابي لطب اسنان -2
2051,6,BASMAT AL FARABI DENTAL CLINICS - 3,CENTRAL,RIYADH,AL WADI,CENTER,√,√,√,√,√,√,−,−,−,−,011-2105017,011-4959486,الراض,الوسطى,بسمة الفارابي لطب اسنان - 3
2165,6,BASMAT AL FARABI DENTAL CLINICS - 5,CENTRAL,RIYADH,AL BADIYAH,CENTER,√,√,√,√,√,√,−,−,−,−,011-2475372,011-2475372,الراض,الوسطى,بسمة الفارابي لطب اسنان - 5
2166,6,BASMAT AL FARABI DENTAL CLINICS - 4,CENTRAL,RIYADH,AL NASEEM,CENTER,√,√,√,√,√,√,−,−,−,−,011-2098183,011-2270525,الراض,الوسطى,بسمة الفارابي لطب اسنان - 4
2042,6,AL FARABI DENTAL POLYCLINIC,CENTRAL,RIYADH,AL BADIYAH,CENTER,√,√,√,√,√,√,−,−,−,−,011-4255987,011-4318081,الراض,الوسطى,مجمع عادات الفارابي لطب اسنان
3563,6,AL FARABI TOP DENTAL CLINICS - 3,CENTRAL,RIYADH,AL MANSURAH,CENTER,√,√,√,√,√,√,−,−,−,−,011-4278555,011-2478840,الراض,الوسطى,مجمع عادات قمة الفارابي لطب اسنان - 3
3505,6,AL FARABI OPTICAL CENTER (A),CENTRAL,RIYADH,ZUHRAT ALBADEA DISTRICT,CENTER,√,√,√,√,√,√,−,−,−,−,011-4302063,011-2478840,الراض,الوسطى,مركز الفارابي للنظارات فئة (أ)
1801,6,BASMAT AL FARABI MEDICAL COMPLEX (AL MAWIYAH CLINICS -5 PREV.),CENTRAL,RIYADH,AL SULAYMANIYH,CLINIC,√,√,√,√,√,√,−,−,−,−,011-4311644,011-4311732,الراض,الوسطى,مجمع بسمة الفارابي الطبي (عادات المئوھ سابقا)
4851,6,PANORAMA ALFARABI DENTAL CLINICS,CENTRAL,RIYADH,AL AZIZYAH,CLINIC,√,√,√,√,√,√,−,−,−,−,011-2300412,011-2300427,الراض,الوسطى,مجمع عادات بانوراما الفارابي لطب اسنان
4852,6,ZAHRAT ALFARABI DENTAL CENTER,CENTRAL,RIYADH,AL KHALEJ,CLINIC,√,√,√,√,√,√,−,−,−,−,011-4953322,011-4950022,الراض,الوسطى,مجمع عادات زھرة الفارابي لطب اسنان
2043,6,AL ANDALUS DENTAL POLYCLINIC,CENTRAL,RIYADH,AL ERAJA,CENTER,√,√,√,√,√,√,−,−,−,−,011-4318077,011-2478840,الراض,الوسطى,مجمع اندلس لطب اسنان
5507,6,LULUA ALFARABI DENTAL COMPLEX,CENTRAL,RIYADH,LABAN,CENTER,√,√,√,√,√,√,−,−,−,−,920008358,920008358,الراض,الوسطى,مجمع لؤلؤة الفرابي لطب اسنان
2416,8,ABAD SPECIALIZED CLINICS,CENTRAL,RIYADH,AL SULAYMANIYH,CLINIC,√,√,√,√,√,√,√,√,−,−,011-2016677,011-2016868,الراض,الوسطى,مجمع اباد التخصصي
2037,8,AL WATTAN MEDICAL CENTER (RIYADH),CENTRAL,RIYADH,AL RAWABI,CLINIC,√,√,√,√,√,√,√,√,−,−,011-4964439,011-4964439,الراض,الوسطى,مجمع الوطن الطبي 2
609,8,AL WATTAN CLINIC,CENTRAL,RIYADH,MANFOUHA,CLINIC,√,√,√,√,√,√,√,√,−,−,011-4588444,011-4581913,الراض,الوسطى,مجمع الوطن الطبي 1
527,8,SHOAA MEDICAL CLINIC,CENTRAL,RIYADH,AL WAROOD,CLINIC,√,√,√,√,√,√,√,√,−,−,011-4563777,011-2052613,الراض,الوسطى,مجمع شعاع الطبي
1229,8,AL KHAZAN DENTAL CENTER,CENTRAL,RIYADH,AL SHUMAISI,CENTER,√,√,√,√,√,√,√,√,−,−,011-4040446,011-2766002,الراض,الوسطى,مجمع عادات الخزان لطب اسنان
980,10,AL KHAZAN MEDICAL CLINIC,CENTRAL,RIYADH,ALISHA,CLINIC,√,√,√,√,√,√,√,√,√,√,011-4355252,011-4355887,الراض,الوسطى,مستوصف الخزان الطبي
5368,10,AL KHAZAN MEDICAL POLYCLINIC - 2,CENTRAL,RIYADH,AL MARWAH,CLINIC,√,√,√,√,√,√,√,√,√,√,011-2713118,011-4218101,الراض,الوسطى,مجمع عادات الخزان الطبي - 2
3824,10,AL SAHAFA MEDICAL,CENTRAL,RIYADH,SAHAFA,CLINIC,√,√,√,√,√,√,√,√,√,√,920022717,011-2345540,الراض,الوسطى,مجمع عادات الصحافة الطبي
5161,8,ADWAA AL-ALAMI MEDICAL COMPLEX - MAROUJ,CENTRAL,RIYADH,AL MUROOJ,CENTER,√,√,√,√,√,√,√,√,−,−,011-4501149,011-4555974,الراض,الوسطى,مجمع عادات اضواء العالمي - المروج
1372,8,FAHAD DENTAL CENTER -1,CENTRAL,RIYADH,UTAIGA,CENTER,√,√,√,√,√,√,√,√,−,−,011-4597123,011-4597115,الراض,الوسطى,مجمع فھد لطب اسنان - 1
1791,8,FAHAD DENTAL CENTER -2,CENTRAL,RIYADH,RIYADH,CENTER,√,√,√,√,√,√,√,√,−,−,011-4612424,011-4627646,الراض,الوسطى,مجمع فھد لطب اسنان - 2
713,10,OLAYA CENTER COMPLEX,CENTRAL,RIYADH,AL OLAYA,CLINIC,√,√,√,√,√,√,√,√,√,√,011-4632691,011-4626318,الراض,الوسطى,مجمع مركز عادات العلا
1300,8,RASEEL MEDICAL CENTER,CENTRAL,RIYADH,AL MANSURAH,CLINIC,√,√,√,√,√,√,√,√,−,−,011-2047700,011-2044242,الراض,الوسطى,مجمع مركز رسل الطبي
2077,10,SHAZA MEDICAL CLINIC,CENTRAL,RIYADH,ALRAWABI,CLINIC,√,√,√,√,√,√,√,√,√,√,011-4917788,011-4965643,الراض,الوسطى,مجمع شذا الطبي العام
33,8,PEARL'S SMILE MEDICAL CENTRE (DR HIJAZY),CENTRAL,RIYADH,SULIMANYAH,CLINIC,√,√,√,√,√,√,√,√,−,−,011-4646334,011-4645675,الراض,الوسطى,مجمع عادات بسمة اللؤلؤ الطبي
234,6,AL ALAM POLYCLINIC,CENTRAL,RIYADH,AL RAWDA,CLINIC,√,√,√,√,√,√,−,−,−,−,011-2783330,011-2491187,الراض,الوسطى,مجمع عادات العلم الطبي
2151,8,MERAS - 4 MEDICAL COMPANY (SMILE EXPERTS PREV.),CENTRAL,RIYADH,AL BADIYAH,CENTER,√,√,√,√,√,√,√,√,−,−,011-4311188,011-4302215,الراض,الوسطى,شركة مراس اربعة الطبة (خبراء البسمة لطب اسنان سابقا)
2472,10,AL MASHFA MEDICAL CENTER,CENTRAL,RIYADH,AL QUDS,CLINIC,√,√,√,√,√,√,√,√,√,√,011-2088585,011-4453929,الراض,الوسطى,مجمع عادات المشفى الطبي
1692,8,DAWAAK MEDICAL CENTER,CENTRAL,RIYADH,AL FAYHA,CLINIC,√,√,√,√,√,√,√,√,−,−,011-2446677,011-4712010,الراض,الوسطى,مجمع عادات دوائك الطبي
31,8,MODERN MEDICAL COMPLEX,CENTRAL,RIYADH,AL RABWAH,CLINIC,√,√,√,√,√,√,√,√,−,−,011-4918003,011-4933115,الراض,الوسطى,مجمع عادات الطبي الحدث
1021,8,SUN CITYS POLYCLINIC,CENTRAL,RIYADH,AL BATHA,CLINIC,√,√,√,√,√,√,√,√,−,−,011-4068882,011-4068885,الراض,الوسطى,مجمع عادات شمس المدن
3511,8,ROAYA EYE CENTER,CENTRAL,RIYADH,AL OLAYA,CENTER,√,√,√,√,√,√,√,√,−,−,920007606,011-2154119,الراض,الوسطى,مركز رؤة لطب العون
5032,8,AL RAED CONSULTANT MEDICAL CENTER,CENTRAL,RIYADH,AL RAHMANIYAH,CENTER,√,√,√,√,√,√,√,√,−,−,920033560,011-2374525,الراض,الوسطى,مركز الرائد استشاري الطبي
3173,8,PIONEERS SPECIALIST MED CENTER,CENTRAL,RIYADH,AL AZIZIYAH,CLINIC,√,√,√,√,√,√,√,√,−,−,011-2130011,011-4957888,الراض,الوسطى,مركز الرواد التخصصي الطبي
1009,8,FEDAD SPECIALIST CLINIC DENTISTRY,CENTRAL,RIYADH,ALTAWOON,CENTER,√,√,√,√,√,√,√,√,−,−,011-2253440,011-2254333,الراض,الوسطى,مجمع عادات فداد لطب اسنان
251,4,AL MAWED CENTER (RIYADH),CENTRAL,RIYADH,AL WAROOD,CLINIC,√,√,√,√,−,−,−,−,−,−,011-4531714,011-2053193,الراض,الوسطى,مجمع عادات الموعد
375,8,CONSULTANT RADIOLOGIST (RIYADH),CENTRAL,RIYADH,AL OLAYA,CENTER,√,√,√,√,√,√,√,√,−,−,011-4612266,011-4629923,الراض,الوسطى,استشارون لشعة
5444,8,WORLD OF AUTISM,CENTRAL,RIYADH,ALWAHA,CENTER,√,√,√,√,√,√,√,√,−,−,011-2110675,011-2110675,الراض,الوسطى,مركز عالم التوحد للنطق والسمع
255,10,AL JAZEERA MEDICAL CLINIC,CENTRAL,RIYADH,ALNASEEM,CLINIC,√,√,√,√,√,√,√,√,√,√,011-2331290,011-2307118,الراض,الوسطى,مجمع الجزرة الطبي
270,10,HERAA MEDICAL CLINIC,CENTRAL,RIYADH,AL SUWAIDI,CLINIC,√,√,√,√,√,√,√,√,√,√,011-4390040,011-4393508,الراض,الوسطى,مجمع حراء الطبي
1119,8,ADWAA AL-ALAMI MEDICAL COMPLEX ( AL SHAMAEL PREV.),CENTRAL,RIYADH,AL SUWAIDI,CLINIC,√,√,√,√,√,√,√,√,−,−,011-4286923,011-4244757,الراض,الوسطى,مجمع اضواء العالمي الطبي الشمائل سابقا
14,10,AL BUSTAN CLINIC,CENTRAL,RIYADH,UTAIGA,CLINIC,√,√,√,√,√,√,√,√,√,√,011-4582140,011-4582227,الراض,الوسطى,مستوصف البستان الطبي
266,8,MEDICAL WORLD COMPLEX,CENTRAL,RIYADH,AL MALAZ,CLINIC,√,√,√,√,√,√,√,√,−,−,011-4731313,011-4731496,الراض,الوسطى,مجمع عادات عالم الطب
827,8,FAMILY SMILE COMPLEX,CENTRAL,RIYADH,AL MASEEF,CLINIC,√,√,√,√,√,√,√,√,−,−,011-4569729,011-4568009,الراض,الوسطى,مجمع ابتسامة العائلة
1018,10,MOTAMAYZOON MEDICAL CENTER,CENTRAL,RIYADH,ALNASEEM,CLINIC,√,√,√,√,√,√,√,√,√,√,011-2303434,011-2301414,الراض,الوسطى,مجمع عادات اطباء المتمزون الطبي
1590,8,AL SALAMAH CLINIC,CENTRAL,RIYADH,AL SHUMAISI,CLINIC,√,√,√,√,√,√,√,√,−,−,011-4118492,011-4119011,الراض,الوسطى,مجمع السمة الطبي
1204,8,DORRAT ARAM CLINIC,CENTRAL,RIYADH,AL RAYAN,CLINIC,√,√,√,√,√,√,√,√,−,−,011-2044405,011-2044407,الراض,الوسطى,مجمع  ارام الطبي
2141,8,AL AZHAR OPTICALS,CENTRAL,RIYADH,ALNASEEM,CENTER,√,√,√,√,√,√,√,√,−,−,011-2096004,011-2096004,الراض,الوسطى,مركز ازھار للبصرات
2271,10,OSRAT AL MAJD MEDICAL CENTER,CENTRAL,RIYADH,AL BADIYAH,CLINIC,√,√,√,√,√,√,√,√,√,√,011-4182000,011-4181448,الراض,الوسطى,مجمع اسرة المجد
2182,10,CMAI MEDICAL CENTER,CENTRAL,RIYADH,AL FALAH,CLINIC,√,√,√,√,√,√,√,√,√,√,011-2005333,011-2005444,الراض,الوسطى,مجمع مركز سماي الطبي
899,10,NOZHA MEDICAL CENTER,CENTRAL,RIYADH,AL NOZHA,CLINIC,√,√,√,√,√,√,√,√,√,√,011-4554400,011-2630654,الراض,الوسطى,مجمع النزھة الطبي
1230,10,AL AREDH CLINIC,CENTRAL,RIYADH,ALISHA,CLINIC,√,√,√,√,√,√,√,√,√,√,011-4359460,011-4356044,الراض,الوسطى,مجمع العارض الطبي
1699,9,AL SHOROQ POLYCLINIC,CENTRAL,RIYADH,AL KHALEEJ,CLINIC,√,√,√,√,√,√,√,√,√,−,011-2339494,011-2339595,الراض,الوسطى,مجمع عادات طب الشروق الطبي
3666,10,AL WASAJ MEDICAL COMPLEX,CENTRAL,RIYADH,AL AZIZIYAH,CLINIC,√,√,√,√,√,√,√,√,√,√,920009131,011-4151515,الراض,الوسطى,مجمع الوسج الطبي
3553,10,AL BELAD MEDICAL CLINIC,CENTRAL,RIYADH,MANFOUHA,CLINIC,√,√,√,√,√,√,√,√,√,√,011-4511895,011-4511898,الراض,الوسطى,مجمع البد الطبي
5170,10,SALAMATK MEDICAL COMPLEX,CENTRAL,RIYADH,AL NADWAH,CLINIC,√,√,√,√,√,√,√,√,√,√,011-2269733,011-2269744,الراض,الوسطى,مجمع سمتك الطبي - الراض
1162,8,AL BARAKAT OPTICAL CENTER,CENTRAL,RIYADH,ALMALAZ,CENTER,√,√,√,√,√,√,√,√,−,−,011-4722677,011-4777127,الراض,الوسطى,مركز البركات للبصرات
5353,8,AL BARAKAT HEARING AID CENTER,CENTRAL,RIYADH,AL MALAZ,CENTER,√,√,√,√,√,√,√,√,−,−,011-4777127,011-4769105,الراض,الوسطى,مركز البركات للعناة السمعة
5164,8,MUGLA OPTICAL COMPANY,CENTRAL,RIYADH,AL RAWDHAH,CENTER,√,√,√,√,√,√,√,√,−,−,011-2222299,011-2456858,الراض,الوسطى,شركة مقلة للبصرات
1301,8,DORAT AL MAHA OPTIC,CENTRAL,RIYADH,MALAZ DISTRICT,CENTER,√,√,√,√,√,√,√,√,−,−,011-4778718,011-4791495,الراض,الوسطى,مركز درة المھا للبصرات (الملز)
2180,8,DORAT AL MAHA OPTIC (ALSHMASI),CENTRAL,RIYADH,ALSHMASI,CENTER,√,√,√,√,√,√,√,√,−,−,011-2876858,011-2876858,الراض,الوسطى,مركز درة المھا للنظارات (الشمسي)
3642,8,DAR AL QASR OPTICAL CENTER 1,CENTRAL,RIYADH,ishbelya,CENTER,√,√,√,√,√,√,√,√,−,−,011-4983059,011-2378640,الراض,الوسطى,مركز دار القصر للبصرات 1
3643,8,DAR AL QASR OPTICAL CENTER 2,CENTRAL,RIYADH,ALRAWDHAH,CENTER,√,√,√,√,√,√,√,√,−,−,011-4983059,011-2378640,الراض,الوسطى,مركز دار القصر للبصرات 2
3644,8,DAR AL QASR OPTICAL CENTER 3,CENTRAL,RIYADH,QORTOBA,CENTER,√,√,√,√,√,√,√,√,−,−,011-4983059,011-2378640,الراض,الوسطى,مركز دار القصر للبصرات 3
3646,8,DAR AL QASR OPTICAL CENTER 4,CENTRAL,RIYADH,ALKALEJ,CENTER,√,√,√,√,√,√,√,√,−,−,011-4983059,011-2378640,الراض,الوسطى,مركز دار القصر للبصرات 4
3713,8,DAR AL QASR OPTICAL CENTER 5,CENTRAL,RIYADH,ALKALEJ,CENTER,√,√,√,√,√,√,√,√,−,−,011-4983059,011-2378640,الراض,الوسطى,مركز دار القصر للبصرات - 5
3645,8,DAR AL QASR OPTICAL CENTER 6,CENTRAL,RIYADH,THHARAT ALBDEA,CENTER,√,√,√,√,√,√,√,√,−,−,011-4983059,011-2378640,الراض,الوسطى,مركز دار القصر للبصرات 6
3714,8,DAR AL QASR OPTICAL CENTER 7,CENTRAL,RIYADH,ALKALEJ,CENTER,√,√,√,√,√,√,√,√,−,−,011-4983059,011-2378640,الراض,الوسطى,مركز دار القصر للبصرات - 7
2456,8,HAKEEM EYOUN (RAWDAH),CENTRAL,RIYADH,RAWDAH,CENTER,√,√,√,√,√,√,√,√,−,−,011-2097089,011-4942483,الراض,الوسطى,مركز حكم عون للبصرات (الروضة)
2458,8,HAKEEM EYOUN (YARMOK),CENTRAL,RIYADH,YARMOK,CENTER,√,√,√,√,√,√,√,√,−,−,011-2457512,011-4942483,الراض,الوسطى,مركزحكم عون للبصرات (الرموك)
2459,8,HAKEEM EYOUN (EL SAHAAFA),CENTRAL,RIYADH,SAHAAFA,CENTER,√,√,√,√,√,√,√,√,−,−,011-4873611,011-4942483,الراض,الوسطى,مركز حكم عون للبصرات (حي الصحافة)
3641,8,AYWN ALGAD OPTICAL CENTER,CENTRAL,RIYADH,ALNAHDHAH,CENTER,√,√,√,√,√,√,√,√,−,−,011-4983059,011-2378640,الراض,الوسطى,مركز عون الغد للبصرات
3998,4,AL DAWAA MEDICAL SERVICES CO.,CENTRAL,RIYADH,QURTUBA,PHARMACY,√,√,√,√,−,−,−,−,−,−,013-8677776,013-8670201,الراض,الوسطى,مجموعة صدلات الدواء
1005,10,ADWAA DORET AL ALAMI POLYCLINIC (RAWDA),CENTRAL,RIYADH,KING FAISAL,CLINIC,√,√,√,√,√,√,√,√,√,√,011-2481400,011-2482991,الراض,الوسطى,مجمع اضواء درة العالمي الطبي
274,10,ADWAA AL ALAMI POLYCLINIC (AZIZIA),CENTRAL,RIYADH,ALAZIZIA,CLINIC,√,√,√,√,√,√,√,√,√,√,011-4954563,011-2130845,الراض,الوسطى,مجمع عادات اضواء العالمي الطبي
616,8,AL OSRAH MEDICAL COMPLEX-1 (BADIEA),CENTRAL,RIYADH,AL BADIYAH,CLINIC,√,√,√,√,√,√,√,√,−,−,011-4262233,011-4241376,الراض,الوسطى,مجمع طب اسرة الطبي ( البدعھ )
5299,10,TOP MEDICINE MEDICAL COMPLEX,CENTRAL,RIYADH,WADI LABAN,CLINIC,√,√,√,√,√,√,√,√,√,√,011-4320099,011-4320088,الراض,الوسطى,مجمع قمة الطب الطبي
5312,8,RIVER OF HEALTH MEDICAL CENTER,CENTRAL,RIYADH,AL NADWAH,CLINIC,√,√,√,√,√,√,√,√,−,−,011-2692080,011-2023373,الراض,الوسطى,مجمع عادات نھر الصحة الطبي
5326,10,RENAL MEDICAL COMPLEX,CENTRAL,RIYADH,QURTUBA,CLINIC,√,√,√,√,√,√,√,√,√,√,011-4444446,011-4941659,الراض,الوسطى,مجمع رنال الطبي
5440,10,ATLAS INTERNATIONAL MEDICAL COMPLEX,CENTRAL,RIYADH,ALMUNISIYA,CLINIC,√,√,√,√,√,√,√,√,√,√,920010107,-,الراض,الوسطى,مجمع اطلس الدولي الطبي
5339,10,ADWAA ALALAMI MEDICAL COMPLEX - AQEEQ,CENTRAL,RIYADH,AQEEQ,CLINIC,√,√,√,√,√,√,√,√,√,√,011-8131835,011-8131835,الراض,الوسطى,مجمع عادات اضواء العالمي الطبي - العقق
5480,10,ALALAMI MEDICAL COMPLEX,CENTRAL,RIYADH,ALMANSOURAH,CLINIC,√,√,√,√,√,√,√,√,√,√,011-4111379,011-4111379,الراض,الوسطى,مجمع العالمي الطبي
5481,8,ADWAA ALALAMI MEDICAL COMPLEX,CENTRAL,RIYADH,ALDAR ALBYDA,CLINIC,√,√,√,√,√,√,√,√,−,−,011-2634887,011-2634887,الراض,الوسطى,مجمع اضواء العالمي الطبي
5363,9,ALGHAD MEDICAL SPECIALIZED CO. COMPLEX,CENTRAL,RIYADH,LABAN,CLINIC,√,√,√,√,√,√,√,√,√,−,011-2155551,011-4550317,الراض,الوسطى,مجمع عادات شركة الغد المتخصصة الطبي
1160,9,NOON MEDICAL COMPANY -2,CENTRAL,RIYADH,UMM AL HAMMAM,CLINIC,√,√,√,√,√,√,√,√,√,−,011-4822198,011-4823391,الراض,الوسطى,شركة نون الطبة - 2
4390,9,NOON MEDICAL COMPANY -1,CENTRAL,RIYADH,AL KHALIDIA,CLINIC,√,√,√,√,√,√,√,√,√,−,011-4822198,011-4823391,الراض,الوسطى,مجمع عادات شركة نون الطبة - 1
1110,9,AL BARRAK MEDICAL CENTER,CENTRAL,RIYADH,TWEEQ,CLINIC,√,√,√,√,√,√,√,√,√,−,011-2620407,011-2620493,الراض,الوسطى,مجمع البراك الطبي
3821,9,JARIR MEDICAL CENTER,CENTRAL,RIYADH,AL MALAZ,CLINIC,√,√,√,√,√,√,√,√,√,−,011-4777471,011-4781441,الراض,الوسطى,مركز جرر الطبي
673,10,AL RAYAN NATIONAL CLINIC,CENTRAL,RIYADH,AL RAYAN,CLINIC,√,√,√,√,√,√,√,√,√,√,011-4038896,011-4026152,الراض,الوسطى,مجمع الران اھلي
2412,10,HETTEN MEDICAL CLINIC,CENTRAL,RIYADH,AL AQEEQ,CLINIC,√,√,√,√,√,√,√,√,√,√,011-4855111,011-4896515,الراض,الوسطى,مجمع حطن الطبي
3215,9,AL KHALEEJY DENTAL CLINIC - 1,CENTRAL,RIYADH,SHOBRA,CENTER,√,√,√,√,√,√,√,√,√,−,011-4266095,011-4494720,الراض,الوسطى,مجمع عادات الخلجي لطب اسنان
3217,10,AL KHALEEJY MEDICAL CLINIC - SHOBRA,CENTRAL,RIYADH,SHOBRA,CLINIC,√,√,√,√,√,√,√,√,√,√,011-4261126,011-4283474,الراض,الوسطى,مجمع عادات الخلجي الطبي حي شبرا
1225,10,AL KHALEEJY MEDICAL GROUP,CENTRAL,RIYADH,AL SHIFA,CLINIC,√,√,√,√,√,√,√,√,√,√,011-2813334,011-2812002,الراض,الوسطى,مجمع الخلجي الطبي 1
3218,10,AL KHALEEJY MEDICAL CLINIC - SHIFA,CENTRAL,RIYADH,AL SHIFA,CLINIC,√,√,√,√,√,√,√,√,√,√,011-2970779,011-4227837,الراض,الوسطى,مجمع عادات الخلجي الطبي بالشفاء
1135,9,RAWDAT ALAQSA MEDICAL COMPLEX,CENTRAL,RIYADH,AL RAWDA,CLINIC,√,√,√,√,√,√,√,√,√,−,011-4938919,011-4939342,الراض,الوسطى,مجمع عادات روضة اقصى
1845,9,RAWDAT ALAQSA MEDICAL COMPLEX-2,CENTRAL,RIYADH,AL IZDIHAR,CLINIC,√,√,√,√,√,√,√,√,√,−,011-4536060,011-4536803,الراض,الوسطى,مجمع روضة اقصى -2
4393,9,ABAS MEDICAL CENTER 3,CENTRAL,RIYADH,AL HAMRA,CLINIC,√,√,√,√,√,√,√,√,√,−,011-2776277,011-2776277,الراض,الوسطى,مجمع عادات اباس الطبي 3
4392,9,ABAS MEDICAL CENTER 4,CENTRAL,RIYADH,AL JAZIRAH,CLINIC,√,√,√,√,√,√,√,√,√,−,011-2444714,011-2410913,الراض,الوسطى,مجمع عادات ركن اباس الطبي 4
4395,9,ABAS DENTAL CENTER,CENTRAL,RIYADH,AL HAMRA,CENTER,√,√,√,√,√,√,√,√,√,−,011-2776277,011-2776277,الراض,الوسطى,مجمع عادات اباس لطب اسنان
4396,9,ABAS MEDICAL CENTER 2,CENTRAL,RIYADH,AL QUDS,CENTER,√,√,√,√,√,√,√,√,√,−,011-2444714,011-2410913,الراض,الوسطى,مجمع عادات اباس الطبي 2
1222,6,HOW MEDICAL CENTERS GROUP (MAROOJ),CENTRAL,RIYADH,AL MUROOJ,CLINIC,√,√,√,√,√,√,−,−,−,−,011-4509444,011-2690065,الراض,الوسطى,مركز ھاو الطبي - المروج
2025,6,HOW MEDICAL CENTERS GROUP (NASEEM),CENTRAL,RIYADH,AL NASEEM,CLINIC,√,√,√,√,√,√,−,−,−,−,011-2356111,011-2302736,الراض,الوسطى,مجمع عادات ھاو الطبي (النسم )
1159,6,AL HAYAT NATIONAL POLYCLINIC -1,CENTRAL,RIYADH,ESHBELIYA,CLINIC,√,√,√,√,√,√,−,−,−,−,011-2789333,011-2444728,الراض,الوسطى,مجمع عادات الحاة اھلي -1
1335,6,AL HAYAT NATIONAL POLYCLINIC -2,CENTRAL,RIYADH,ALNAFL,CLINIC,√,√,√,√,√,√,−,−,−,−,011-2741810,011-2741866,الراض,الوسطى,مجمع عادات الحاة  -2
651,6,AL HAYAT NATIONAL CLINIC,CENTRAL,RIYADH,AL FAYHA,CLINIC,√,√,√,√,√,√,−,−,−,−,011-2444111,011-2444728,الراض,الوسطى,مجمع عادات مستوصف الحاة اھلي
2193,6,AL HAYAT NATIONAL CLINIC (AL NAZEEM),CENTRAL,RIYADH,AL NADHEEM,CLINIC,√,√,√,√,√,√,−,−,−,−,011-2460254,011-2460193,الراض,الوسطى,مجمع عادات الحاة اھلي (النظم)
3506,9,RAMZ AL- MASA EST OPTICAL 1,CENTRAL,RIYADH,BADIYAH DISTRICT,CENTER,√,√,√,√,√,√,√,√,√,−,0 502155943,011-2867474,الراض,الوسطى,مؤسسة رمز الماسھ للبصرات (1)
2656,9,ROWAT AL MAHA OPTICALS,CENTRAL,RIYADH,OLAYA,CENTER,√,√,√,√,√,√,√,√,√,−,011-2305402,011-2374525,الراض,الوسطى,مؤسسة روعة المھا للبصرات
2711,9,RAWAAT AL MAHA OPTICALS - ALSHIFA 4,CENTRAL,RIYADH,ALSHIFA,CENTER,√,√,√,√,√,√,√,√,√,−,011-2711563,011-2374525,الراض,الوسطى,روعة المھا للبصرات -الشفاء 4
2712,9,RAWAAT AL MAHA OPTICALS - ALWOROD,CENTRAL,RIYADH,AL WAROOD,CENTER,√,√,√,√,√,√,√,√,√,−,011-4195759,011-2374525,الراض,الوسطى,روعة المھا للبصرات -الورود
2667,9,RAWAAT AL MAHA OPTICALS - ALRAYYAN,CENTRAL,RIYADH,AL RAYAN,CENTER,√,√,√,√,√,√,√,√,√,−,011-4937112,011-2374525,الراض,الوسطى,روعة المھا للبصرات -الران
2655,9,RAWAAT AL MAHA OPTICALS - ALNASEEM4,CENTRAL,RIYADH,AL NASEEM,CENTER,√,√,√,√,√,√,√,√,√,−,011-2366359,011-2374525,الراض,الوسطى,روعة المھا للبصرات -النسم 4
1000,9,RAWAAT AL MAHA OPTICALS - ALNASEEM - 5,CENTRAL,RIYADH,AL NASEEM,CENTER,√,√,√,√,√,√,√,√,√,−,011-2336517,011-2374525,الراض,الوسطى,روعة المھا للبصرات -النسم 5
2660,9,RAWAAT AL MAHA OPTICALS - ALNADWAH,CENTRAL,RIYADH,AL NADWAH,CENTER,√,√,√,√,√,√,√,√,√,−,011-2463201,011-2374525,الراض,الوسطى,روعة المھا للبصرات -حي الندوة
2664,9,RAWAAT AL MAHA OPTICALS - GERNATA 1,CENTRAL,RIYADH,GHARANATA,CENTER,√,√,√,√,√,√,√,√,√,−,011-2484769,011-2374525,الراض,الوسطى,روعة المھا للبصرات -غرناطة 1
2668,9,RAWAAT AL MAHA OPTICALS - ALSALAM,CENTRAL,RIYADH,AL SALAM,CENTER,√,√,√,√,√,√,√,√,√,−,011-4965630,011-2374525,الراض,الوسطى,روعة المھا للبصرات -السم
2671,9,RAWAAT AL MAHA OPTICALS - ALNAHDA 1,CENTRAL,RIYADH,AL NAHDHA,CENTER,√,√,√,√,√,√,√,√,√,−,011-2271035,011-2374525,الراض,الوسطى,روعة المھا للبصرات -النھضة 1
2672,9,RAWAAT AL MAHA OPTICALS - ALNAHDA 2,CENTRAL,RIYADH,AL NAHDHA,CENTER,√,√,√,√,√,√,√,√,√,−,011-2275949,011-2374525,الراض,الوسطى,روعة المھا للبصرات -النھضة 2
2675,9,RAWAAT AL MAHA OPTICALS - ALWADI,CENTRAL,RIYADH,AL WADI,CENTER,√,√,√,√,√,√,√,√,√,−,011-2758330,011-2374525,الراض,الوسطى,روعة المھا للبصرات -الوادي
2676,9,RAWAAT AL MAHA OPTICALS - ALMALAZ 1,CENTRAL,RIYADH,AL MALAZ,CENTER,√,√,√,√,√,√,√,√,√,−,011-2068986,011-2374525,الراض,الوسطى,روعة المھا للبصرات -الملز 1
2677,9,RAWAAT AL MAHA OPTICALS - ALMALAZ 2,CENTRAL,RIYADH,AL MALAZ,CENTER,√,√,√,√,√,√,√,√,√,−,011-4744846,011-2374525,الراض,الوسطى,روعة المھا للبصرات -الملز 2
2679,9,RAWAAT AL MAHA OPTICALS - AL BADYAA 1,CENTRAL,RIYADH,AL BADIAH,CENTER,√,√,√,√,√,√,√,√,√,−,011-4241469,011-2374525,الراض,الوسطى,روعة المھا للبصرات -البدعة 1
2683,9,RAWAAT AL MAHA OPTICALS - AL ARAIHA 1,CENTRAL,RIYADH,AL AERYIJAE,CENTER,√,√,√,√,√,√,√,√,√,−,011-4369105,011-2374525,الراض,الوسطى,روعة المھا للبصرات -العرجاء 1
2685,9,RAWAAT AL MAHA OPTICALS - WADI LABAN1,CENTRAL,RIYADH,WADI LABAN,CENTER,√,√,√,√,√,√,√,√,√,−,011-4320580,011-2374525,الراض,الوسطى,روعة المھا للبصرات -وادي لبن 1
2688,9,RAWAAT AL MAHA OPTICALS - GHUBAIRAH,CENTRAL,RIYADH,GHOBARA,CENTER,√,√,√,√,√,√,√,√,√,−,011-4466279,011-2374525,الراض,الوسطى,روعة المھا للبصرات -غبراء
2691,9,RAWAAT AL MAHA OPTICALS - AL DAR AL BAYDA 1,CENTRAL,RIYADH,ALDAR ALBYDA,CENTER,√,√,√,√,√,√,√,√,√,−,011-2138488,011-2374525,الراض,الوسطى,روعة المھا للبصرات -الدارالبضاء 1
2694,9,RAWAAT AL MAHA OPTICALS - ATIGHA 1,CENTRAL,RIYADH,OTYAQA,CENTER,√,√,√,√,√,√,√,√,√,−,011-2900365,011-2374525,الراض,الوسطى,روعة المھا للبصرات -عتقة 1
2696,9,RAWAAT AL MAHA OPTICALS - SHOBRA,CENTRAL,RIYADH,AL SWEDI,CENTER,√,√,√,√,√,√,√,√,√,−,011-4269391,011-2374525,الراض,الوسطى,روعة المھا للبصرات -شبرا
2698,9,RAWAAT AL MAHA OPTICALS - AL RAED,CENTRAL,RIYADH,AL RAED,CENTER,√,√,√,√,√,√,√,√,√,−,011-4820462,011-2374525,الراض,الوسطى,روعة المھا للبصرات -الرائد
2703,9,RAWAAT AL MAHA OPTICALS - AL MOROGE,CENTRAL,RIYADH,AL MOROGE,CENTER,√,√,√,√,√,√,√,√,√,−,011-4562286,011-2374525,الراض,الوسطى,روعة المھا للبصرات -المروج
2704,9,RAWAAT AL MAHA OPTICALS - AL AQEQ,CENTRAL,RIYADH,AL AQEEQ,CENTER,√,√,√,√,√,√,√,√,√,−,011-4894746,011-2374525,الراض,الوسطى,روعة المھا للبصرات -العقق
2708,9,RAWAAT AL MAHA OPTICALS - AL SHIFA 1,CENTRAL,RIYADH,AL SHIFA,CENTER,√,√,√,√,√,√,√,√,√,−,011-2982667,011-2374525,الراض,الوسطى,روعة المھا للبصرات -الشفاء 1
2709,9,RAWAAT AL MAHA OPTICALS - AL SHIFA 2,CENTRAL,RIYADH,AL SHIFA,CENTER,√,√,√,√,√,√,√,√,√,−,011-4235447,011-2374525,الراض,الوسطى,روعة المھا للبصرات -الشفاء 2
564,10,OMAR AL AJAJI MEDICAL (MALAZ),CENTRAL,RIYADH,AL MALAZ,CLINIC,√,√,√,√,√,√,√,√,√,√,011-4741122,011-2655515,الراض,الوسطى,مركز عمر العجاجي الطبي
1812,10,OMAR ALAJAJI MEDICAL CENTER (2ND INDUSTRI),CENTRAL,RIYADH,INDUSTRIAL,CLINIC,√,√,√,√,√,√,√,√,√,√,011-2655525,011-2655515,الراض,الوسطى,مجمع عمر العجاجي الطبي ( الصناعة)
731,10,RATHAWIA MEDICAL SPECIALIZED CENTER,CENTRAL,RIYADH,AL OLAYA,CLINIC,√,√,√,√,√,√,√,√,√,√,011-4163322,011-4632638,الراض,الوسطى,مركز الرثوة التخصصي
316,10,AL AZIZIAH MEDICAL CENTER,CENTRAL,RIYADH,AL AZIZIYAH,CLINIC,√,√,√,√,√,√,√,√,√,√,011-4955865,011-4382180,الراض,الوسطى,مجمع العززة الطبي اھلي
862,9,OMM AL HAMAM POLYCLINIC,CENTRAL,RIYADH,UMM AL HAMMAM,CLINIC,√,√,√,√,√,√,√,√,√,−,011-4806348,011-4835062,الراض,الوسطى,مجمع عادات ام الحمام الطبي
1080,10,MANARAT MEDICAL CENTER,CENTRAL,RIYADH,AL KHALIDIA,CLINIC,√,√,√,√,√,√,√,√,√,√,011-4954878,011-4954878,الراض,الوسطى,مجمع منارات الطب
565,10,DAR AL SHEFA POLYCLINIC,CENTRAL,RIYADH,AL MANAKH,CLINIC,√,√,√,√,√,√,√,√,√,√,011-4989220,011-4989220,الراض,الوسطى,مجمع عادات دار الشفاء الطبي
36,9,AL EMAN MEDICAL CLINIC,CENTRAL,RIYADH,MANFOUHA,CLINIC,√,√,√,√,√,√,√,√,√,−,011-4585940,011-4394281,الراض,الوسطى,مجمع عادات امان الطبي
19,10,HIKMA POLYCLINIC (INT. SOCIETY CO.),CENTRAL,RIYADH,AL SALHIYA,CLINIC,√,√,√,√,√,√,√,√,√,√,011-4461804,011-4462844,الراض,الوسطى,مجمع الحكمة (شركة المجتمع)
27,10,KHALDIYAH POLYCLINIC (INT. SOCIETY CO.),CENTRAL,RIYADH,AL KHALIDIA,CLINIC,√,√,√,√,√,√,√,√,√,√,011-4787070,011-2044269,الراض,الوسطى,مستوصف الخالدة (شركة المجتمع)
18,10,RIYADH CLINICS MEDICAL COMPLEX,CENTRAL,RIYADH,AL MALAZ,CLINIC,√,√,√,√,√,√,√,√,√,√,011-4787070,011-4722007,الراض,الوسطى,مجمع عادات الراض
671,10,SAFA MAKKAH POLY CLINIC 1,CENTRAL,RIYADH,AL BATHA,CLINIC,√,√,√,√,√,√,√,√,√,√,011-4036111,011-2766253,الراض,الوسطى,مجمع عادات صفا مكھ -1
745,9,SAFA MAKKAH POLYCLINIC -2,CENTRAL,RIYADH,AL KHAZZAN,CLINIC,√,√,√,√,√,√,√,√,√,−,011-4040188,011-4044544,الراض,الوسطى,مجمع عادات صفا مكھ -2
752,9,SAFA MAKKHAH POLY CLINIC (HARA),CENTRAL,RIYADH,ALWAZARAT,CLINIC,√,√,√,√,√,√,√,√,√,−,011-4012128,011-4057048,الراض,الوسطى,مجمع عادات صفا مكھ -3  (الوزارات)
1977,10,MOHAMMED S. BADRUDDIN POLYCLINIC (GORABI),CENTRAL,RIYADH,AL BATHA,CLINIC,√,√,√,√,√,√,√,√,√,√,011-4026874,011-4026874,الراض,الوسطى,مستوصف بدر الدن الطبي (الغرابي)
1126,10,ZAHRAT AL AMAL COMPLEX - 1,CENTRAL,RIYADH,AL BADIYAH,CLINIC,√,√,√,√,√,√,√,√,√,√,011-4318343,011-4361206,الراض,الوسطى,مجمع زھرة امل الطبي - 1
3219,10,ZAHRAT AL AMAL COMPLEX - 2,CENTRAL,RIYADH,AL ERAJA,CLINIC,√,√,√,√,√,√,√,√,√,√,011-4319988,011-4361206,الراض,الوسطى,مجمع زھرة امل الطبي - 2
1241,10,FARAIDY NATIONAL CLINIC,CENTRAL,RIYADH,AL NASEEM,CLINIC,√,√,√,√,√,√,√,√,√,√,011-2367696,011-4508064,الراض,الوسطى,مجمع الفرائضي الطبي
1244,10,AL MASEEF MEDICAL COMPLEX,CENTRAL,RIYADH,AL MASEEF,CLINIC,√,√,√,√,√,√,√,√,√,√,011-2690606,011-2693634,الراض,الوسطى,مجمع عادات المصف الطبي
652,10,SENYMAR MEDICAL CENTER,CENTRAL,RIYADH,AL NASEEM,CLINIC,√,√,√,√,√,√,√,√,√,√,011-2356320,011-2356319,الراض,الوسطى,مستوصف سنمار الطبي
1245,10,QASR AL RAYED MEDICAL COMPLEX,CENTRAL,RIYADH,AL NASEEM,CLINIC,√,√,√,√,√,√,√,√,√,√,011-4508064,011-4508064,الراض,الوسطى,مجمع عادات قصر الرائد الطبي الشامل
529,10,AL NAHDAH MEDICAL CENTER,CENTRAL,RIYADH,AL IZDIHAR,CLINIC,√,√,√,√,√,√,√,√,√,√,011-2690606,011-2693634,الراض,الوسطى,مجمع عادات النھضة الطبي
216,10,AL FAIHA MEDICAL COMPLEX,CENTRAL,RIYADH,AL NASEEM,CLINIC,√,√,√,√,√,√,√,√,√,√,011-2329513,011-2329701,الراض,الوسطى,مجموعھ شركة الفحاء للخدمات الطبة (الراض)
621,10,GAMAR AL OROBA MEDICAL COMPLEX -1,CENTRAL,RIYADH,ALSHIFA,CLINIC,√,√,√,√,√,√,√,√,√,√,011-4221414,011-4211031,الراض,الوسطى,مجمع عادات قمر العروبھ الطبي -1
2029,9,AL ABEER MEDICAL COMPLEX (RYADH),CENTRAL,RIYADH,AL SHUMAISI,CLINIC,√,√,√,√,√,√,√,√,√,−,011-4132428,011-4135747,الراض,الوسطى,مجمع عادات شركة العبر العالمة (الشمسي)
2030,9,AL ABEER MEDICAL COMPLEX (BATHA),CENTRAL,RIYADH,AL BATHA,CLINIC,√,√,√,√,√,√,√,√,√,−,011-4132428,011-4135747,الراض,الوسطى,مجمع عادات شركة العبر العالمة  (البطحاء)
3504,9,AL ABEER MEDICAL COMPLEX - 3 (MANFOUHA),CENTRAL,RIYADH,MANFOUHA,CLINIC,√,√,√,√,√,√,√,√,√,−,011-4133103,011-4133103,الراض,الوسطى,مجمع عادات شركة العبر العالمة -3  (منفوحة)
4111,9,ABEER SUPEREME MEDICAL CENTER,CENTRAL,RIYADH,AL RAWDA,CLINIC,√,√,√,√,√,√,√,√,√,−,011-4714555,011-2411262,الراض,الوسطى,مركز عبر التمز الطبي
2730,10,PRIMARY CARE  - 2  (AL METREK PREV.),CENTRAL,RIYADH,DAHYAT LABN,CLINIC,√,√,√,√,√,√,√,√,√,√,011-4367195,011-4367263,الراض,الوسطى,مجمع رعاة اولة الطبي الثاني ( آل مترك  -وادي لبن سابقاً)
849,9,AL MUMTAZ POLYCLINIC,CENTRAL,RIYADH,AL MALAZ,CLINIC,√,√,√,√,√,√,√,√,√,−,011-2920091,011-4731977,الراض,الوسطى,مجمع عادات الممتاز الطبي
1014,10,AL AJAJI NATIONAL CLINIC,CENTRAL,RIYADH,AL MASEEF,CLINIC,√,√,√,√,√,√,√,√,√,√,011-4545453,011-4543818,الراض,الوسطى,مجمع العجاجي الطبي
971,10,AL-AMAL NATIONAL CLINICS,CENTRAL,RIYADH,MANFOUHA,CLINIC,√,√,√,√,√,√,√,√,√,√,011-4193589,011-4196619,الراض,الوسطى,مجمع عادات امل اھلي
3926,10,MAJESTIC MILLENNIUM MEDICAL COMPLEX,CENTRAL,RIYADH,AL WAROOD,CLINIC,√,√,√,√,√,√,√,√,√,√,011-4607642,011-4194865,الراض,الوسطى,مجمع شركة الفة الراقة الطبي
1475,10,AL FARIS MADICAL COMPLEX,CENTRAL,RIYADH,TWEEQ,CLINIC,√,√,√,√,√,√,√,√,√,√,011-2626600,011-2626600,الراض,الوسطى,مجمع عادات الفارس الطبي
183,6,AL HARAMAIN MEDICAL CLINIC,CENTRAL,RIYADH,AL RAWDA,CLINIC,√,√,√,√,√,√,−,−,−,−,011-2323666,011-2323335,الراض,الوسطى,مجمع الحرمن الطبي
448,10,KHALID MED CLINIC,CENTRAL,RIYADH,AL NASEEM,CLINIC,√,√,√,√,√,√,√,√,√,√,011-2365000,011-2365237,الراض,الوسطى,مسستوصف خالد الطبي
531,10,GHDAG MEDICAL CARE (AL EBDAA PREV),CENTRAL,RIYADH,ALNAHDA,CLINIC,√,√,√,√,√,√,√,√,√,√,011-2263800,011-2263799,الراض,الوسطى,مجمع غدق الرعاة الطبي ( ابداع سابقا )
1206,10,AL YARMOK POLYCLINIC MEDICAL CO.,CENTRAL,RIYADH,AL YARMOUK,CLINIC,√,√,√,√,√,√,√,√,√,√,011-2490484,011-2491128,الراض,الوسطى,مجمع الرموك الطبة
1118,9,AIJAL MEDICAL POLYCLINIC,CENTRAL,RIYADH,KING FAHAD,CLINIC,√,√,√,√,√,√,√,√,√,−,011-2001155,011-4543136,الراض,الوسطى,مجمع عادات اجال الطبي
1158,9,AL THOWAINI CLINIC,CENTRAL,RIYADH,AL NASEEM,CLINIC,√,√,√,√,√,√,√,√,√,−,011-2317744,011-2284646,الراض,الوسطى,مجمع الثوني الطبي
2237,9,SANAD AL JAZEERAH CLINIC,CENTRAL,RIYADH,AL ERAJA,CLINIC,√,√,√,√,√,√,√,√,√,−,011-4365550,011-4335011,الراض,الوسطى,مجمع عادات سند الجزرة
175,10,AL BAYAN MEDICAL CLINIC,CENTRAL,RIYADH,MANFOUHA,CLINIC,√,√,√,√,√,√,√,√,√,√,011-4510944,011-4592774,الراض,الوسطى,مجمع عادات البان الطبي
985,10,AL SHOMOLY MEDICAL POLYCLINICS,CENTRAL,RIYADH,AL MUROOJ,CLINIC,√,√,√,√,√,√,√,√,√,√,011-4543232,011-4532537,الراض,الوسطى,مجمع عادات الطب الشمولي
890,6,AL MOHAMMADIA MEDICAL CLINICS,CENTRAL,RIYADH,AL MOHAMMADIA,CLINIC,√,√,√,√,√,√,−,−,−,−,011-2101313,011-2051221,الراض,الوسطى,عادات المحمدة الطبي
1163,10,AL MURSALAAT MEDICAL POLYCLINIC,CENTRAL,RIYADH,AL NOZHA,CLINIC,√,√,√,√,√,√,√,√,√,√,011-4509071,011-4561214,الراض,الوسطى,مجمع عادات المرست الطبة
967,10,AL KADISIYAH POLYCLINIC,CENTRAL,RIYADH,AL KHALIDIA,CLINIC,√,√,√,√,√,√,√,√,√,√,011-4460800,011-4471385,الراض,الوسطى,مجمع عادات القادسة  الطبي
1051,9,DURRAT GHORNATA MEDICAL COMPLEX,CENTRAL,RIYADH,GHURNATA,CLINIC,√,√,√,√,√,√,√,√,√,−,011-2771162,011-2771163,الراض,الوسطى,مجمع عادات درة غرناطة
1684,10,LAURA MEDICAL CENTER,CENTRAL,RIYADH,AL BATHA,CLINIC,√,√,√,√,√,√,√,√,√,√,011-4120608,011-4120608,الراض,الوسطى,مجمع لورا الطبي
1835,10,DURRAT LAMAR MEDICAL CENTER,CENTRAL,RIYADH,AL AZIZIYAH,CLINIC,√,√,√,√,√,√,√,√,√,√,011-4955866,011-2136688,الراض,الوسطى,مجمع عادات درة لمار الطبي
2148,10,WOROF MEDICAL POLYCLINIC,CENTRAL,RIYADH,AL WADI,CLINIC,√,√,√,√,√,√,√,√,√,√,011-2755500,011-2757834,الراض,الوسطى,مجمع عادات وروف الطبي
2183,10,TDAWEE AL RIYADH MEDICAL COMPLEX,CENTRAL,RIYADH,AL RAWDA,CLINIC,√,√,√,√,√,√,√,√,√,√,011-2533999,011-2483558,الراض,الوسطى,مجمع عادات تداوي الراض الطبي
743,9,AL SUBHI POLYCLINIC,CENTRAL,RIYADH,AL ANDALUS,CLINIC,√,√,√,√,√,√,√,√,√,−,011-2335000,011-2358887,الراض,الوسطى,مجمع عادات الصبحي
20,10,AL RAYAN INTERNATIONAL POLYCLINIC CO.,CENTRAL,RIYADH,AL BATHA,CLINIC,√,√,√,√,√,√,√,√,√,√,011-4038896,011-4026152,الراض,الوسطى,مجمع عادات شركة الران للخدمات  البطحاء
3212,9,KHOBARAA AL ELAJ MEDICAL CLINIC,CENTRAL,RIYADH,UMM AL HAMMAM,CLINIC,√,√,√,√,√,√,√,√,√,−,011-4887473,011-4882126,الراض,الوسطى,مجمع خبراء العج الطبي
437,10,AL OLAYA INTERNATIONAL COMPLEX,CENTRAL,RIYADH,AL OLAYA,CLINIC,√,√,√,√,√,√,√,√,√,√,011-4641158,011-4658232,الراض,الوسطى,مجمع عادات العلا الدولي
909,10,MIRAD MEDICAL SERVICE EST.,CENTRAL,RIYADH,AL NASEEM,CLINIC,√,√,√,√,√,√,√,√,√,√,011-4511895,011-4511898,الراض,الوسطى,مجمع مراد الطبي
2243,9,LOTUS MEDICAL CENTER,CENTRAL,RIYADH,AL YARMOUK,CLINIC,√,√,√,√,√,√,√,√,√,−,011-2496068,011-2496068,الراض,الوسطى,مجمع عادات اللوتس الطبي
180,10,ADWAA AL ALAMI MEDICAL COMPLEX (AVICENNA PREV.),CENTRAL,RIYADH,SALHIYA DISTRICT,CLINIC,√,√,√,√,√,√,√,√,√,√,011-4486834,011-4486801,الراض,الوسطى,مجمع عادات اضواء العالمي الطبي ( ابن سناء سابقاً )
3825,10,FAYHA HEALTH MEDICAL COMPLEX,CENTRAL,RIYADH,AL FAYHA,CLINIC,√,√,√,√,√,√,√,√,√,√,011-2418000,011-2418070,الراض,الوسطى,مجمع عادات صحة الفحاء الطبي
363,6,ELIXIR INTERNATIONAL POLYCLINIC,CENTRAL,RIYADH,AL BATHA,CLINIC,√,√,√,√,√,√,−,−,−,−,011-4067001,011-4081428,الراض,الوسطى,مجمع إكسر الدولي
1876,10,AL FAIROUZ AL AHLI CLINIC,CENTRAL,RIYADH,SHIFA,CLINIC,√,√,√,√,√,√,√,√,√,√,011-4239235,011-4239234,الراض,الوسطى,مستوصف الفروز اھلي
2078,10,ELAJ AL RIYADH POLYCLINIC,CENTRAL,RIYADH,QURTUBA,CLINIC,√,√,√,√,√,√,√,√,√,√,011-4553041,011-4553043,الراض,الوسطى,مجمع عادات عج الراض الطبي
650,10,DAR EL ELAJ DISPENSARY,CENTRAL,RIYADH,AL SUWAIDI,CLINIC,√,√,√,√,√,√,√,√,√,√,011-4258932,011-4250206,الراض,الوسطى,مجمع دار العج الطبي
3875,10,FAL AL AFIA POLYCLINIC,CENTRAL,RIYADH,AL YARMOUK,CLINIC,√,√,√,√,√,√,√,√,√,√,011-2220222,011-2220222,الراض,الوسطى,مجمع عادات فال العافة الطبي
3970,10,UNITED MEDICAL COMPLEX,CENTRAL,RIYADH,AL NADHEEM,CLINIC,√,√,√,√,√,√,√,√,√,√,011-2454334,011-2463593,الراض,الوسطى,مجمع المتحد الطبي
1797,9,AL RAHMAH CLINIC & MEDICAL LAB,CENTRAL,RIYADH,AL NAHDHA,CLINIC,√,√,√,√,√,√,√,√,√,−,011-2260507,011-2260600,الراض,الوسطى,مجمع الرحمة الطبي
1374,9,ADWA AL HAYAT POLYCLINIC CO.,CENTRAL,RIYADH,AL BATHA,CLINIC,√,√,√,√,√,√,√,√,√,−,011-4093987,011-4093987,الراض,الوسطى,مجمع عادات اضواء الحاة الطبي
3954,6,NEBRAS MEDICAL COMPLEX,CENTRAL,RIYADH,AL YARMOUK,CLINIC,√,√,√,√,√,√,−,−,−,−,011-2254477,011-2032277,الراض,الوسطى,مجمع نبراس الطبي
357,9,AL EWAN MEDICAL COMPANY (ATHEEB),CENTRAL,RIYADH,AL SULAYMANIYH,CLINIC,√,√,√,√,√,√,√,√,√,−,011-4631606,011-4612570,الراض,الوسطى,مجمع عادات اوان الطبي
1123,9,ASHBELIA MEDICAL POLYCLINIC,CENTRAL,RIYADH,ESHBELIYA,CLINIC,√,√,√,√,√,√,√,√,√,−,011-2400555,011-2400222,الراض,الوسطى,مجمع عادات اشبلا الطبي
4670,10,RASHED MEDICAL COMPLEX,CENTRAL,RIYADH,NMAR,CLINIC,√,√,√,√,√,√,√,√,√,√,011-4102630,011-4102631,الراض,الوسطى,مجمع عادات راشد العتبي الطبي
2049,6,ALFARABI DENTA AND ORTHOBONTIC COMPLEX,CENTRAL,DERIEYAH,DERIEYAH,CENTER,√,√,√,√,√,√,−,−,−,−,011-4862727,011-2086185,الدرعة,الوسطى,بسمة الفارابي لطب اسنان الدرعھ
1798,9,AL DIREIYA POLYCLINIC,CENTRAL,DERIEYAH,FAISALIYA DISTRICT,CLINIC,√,√,√,√,√,√,√,√,√,−,011-4860040,011-4860242,الدرعة,الوسطى,مجمع الدرعة الطبي
1012,10,SEHA AL DARAYA POLYCLINIC,CENTRAL,DERIEYAH,DARAYA DISTRICT,CLINIC,√,√,√,√,√,√,√,√,√,√,011-4863555,011-4731977,الدرعة,الوسطى,مجمع عادات صحة الدرعة
4478,4,DHURMA GENERAL HOSPITAL,CENTRAL,DHURMA,DHRUMA,HOSPITAL,√,√,√,√,−,−,−,−,−,−,011-5220607,011-5220601,ضرما,الوسطى,مستشفى ضرما العام
3998,4,AL DAWAA MEDICAL SERVICES CO.,CENTRAL,OYAYNA,QURTUBA,PHARMACY,√,√,√,√,−,−,−,−,−,−,013-8677776,013-8670201,العنة,الوسطى,مجموعة صدلات الدواء
4671,9,"DIA,A AL OLAYA MEDICAL COMPLEX",CENTRAL,OYAYNA,AL OYAYNA,CLINIC,√,√,√,√,√,√,√,√,√,−,011-5281111,011-4896515,العنة,الوسطى,مجمع عادات ضاء العلا الطبي
3756,10,AL ENJAZ MEDICAL CENTER,CENTRAL,OYAYNA,oyayna,CLINIC,√,√,√,√,√,√,√,√,√,√,011-5288000,011-5285000,العنة,الوسطى,مركز انجاز الطبي
5457,4,HORAYMILAA HOSPITAL-RIYADH,CENTRAL,HORAYMILAA,HAZAM,HOSPITAL,√,√,√,√,−,−,−,−,−,−,-,-,حرمء,الوسطى,مستشفى حرمء العام-وزارة الصحة
5297,4,AL MUZAHMIAH GENERAL HOSPITAL - MOH,CENTRAL,MOUZAHMIAH,OLAYA,HOSPITAL,√,√,√,√,−,−,−,−,−,−,011-5231874,011-5230977,المزاحمة,الوسطى,مستشفى المزاحمة العام
3998,4,AL DAWAA MEDICAL SERVICES CO.,CENTRAL,MOUZAHMIAH,QURTUBA,PHARMACY,√,√,√,√,−,−,−,−,−,−,013-8677776,013-8670201,المزاحمة,الوسطى,مجموعة صدلات الدواء
132,9,PRIMARY CARE  - 1 (AL METREK PREV.),CENTRAL,MOUZAHMIAH,ALMUZAHMIYA,CLINIC,√,√,√,√,√,√,√,√,√,−,011-4581925,011-2714462,المزاحمة,الوسطى,مجمع رعاة اولة الطبي اول ( آل مترك - سابقاً )
4488,4,AL QUWAYIAH GENERAL HOSPITAL,CENTRAL,QUWAYIYAH,QUWAYIAH,HOSPITAL,√,√,√,√,−,−,−,−,−,−,011-6521003,011-6524682,القوعة,الوسطى,مستشفى القوعة العام
3174,10,ANGEL OF MERCY MEDICAL CLINIC,CENTRAL,QUWAYIYAH,ALQUAWIYAH,CLINIC,√,√,√,√,√,√,√,√,√,√,011-6522888,011-6524777,القوعة,الوسطى,مجمع عادات شركة مك الرحمة
3998,4,AL DAWAA MEDICAL SERVICES CO.,CENTRAL,QUWAYIYAH,QURTUBA,PHARMACY,√,√,√,√,−,−,−,−,−,−,013-8677776,013-8670201,القوعة,الوسطى,مجموعة صدلات الدواء
2732,9,PRIMARY CARE  - 4 (AL METREK PREV.),CENTRAL,QUWAYIYAH,RABWA DISTRICT,CLINIC,√,√,√,√,√,√,√,√,√,−,011-6521888,011-6551333,القوعة,الوسطى,مجمع رعاة اولة الطبي الرابع ( آل مترك  سابقاً )
4484,4,KING KHALID GENERAL HOSPITAL-KHARJ,CENTRAL,AL KHARJ,AL KHARJ,HOSPITAL,√,√,√,√,−,−,−,−,−,−,011-5444444,011-5448424,الخرج,الوسطى,مستشفى الملك خالد
5327,4,MATERNITY & CHILDREN HOSPITAL-ALKHARJ,CENTRAL,AL KHARJ,AL KHARJ,HOSPITAL,√,√,√,√,−,−,−,−,−,−,011-5406009,011-5406009,الخرج,الوسطى,مستشفى الودة واطفال
3989,8,RAWAT ELEOWN OPTICALS,CENTRAL,AL KHARJ,KHARJ,CENTER,√,√,√,√,√,√,√,√,−,−,011-5445261,011-5445261,الخرج,الوسطى,بصرات روعة العون - الخرج
105,6,AL TAAWIN CLINIC,CENTRAL,AL KHARJ,AL KHARJ,CLINIC,√,√,√,√,√,√,−,−,−,−,011-5447072,011-5449190,الخرج,الوسطى,مستوصف التعاون الطبي
4681,6,AL TAAWIN CLINIC 2,CENTRAL,AL KHARJ,AL MUNTAZAH,CLINIC,√,√,√,√,√,√,−,−,−,−,011-5447072,011-5451445,الخرج,الوسطى,مجمع التعاون الثاني
4682,6,AL TAAWIN CLINIC 3,CENTRAL,AL KHARJ,AL DALAM,CLINIC,√,√,√,√,√,√,−,−,−,−,011-5410399,011-5410799,الخرج,الوسطى,مجمع التعاون الثالث الطبي
101,10,AL AMEED MEDICAL COMPLEX,CENTRAL,AL KHARJ,AL SALAM,CLINIC,√,√,√,√,√,√,√,√,√,√,011-5442777,011-5448173,الخرج,الوسطى,مجمع العمد الطبي
969,9,AL DOSARY MEDICAL COMPLEX,CENTRAL,AL KHARJ,ALFAISALIAH,CLINIC,√,√,√,√,√,√,√,√,√,−,011-5448167,011-5482036,الخرج,الوسطى,مجمع عادات الدوسري الطبي
2713,9,RAWAAT AL MAHA OPTICALS - AL KHARJ 1,CENTRAL,AL KHARJ,AL KHARJ,CENTER,√,√,√,√,√,√,√,√,√,−,011-5482679,011-2374525,الخرج,الوسطى,روعة المھا للبصرات -الخرج 1
732,10,DAR AL SALAM MEDICAL CLINIC,CENTRAL,AL KHARJ,AL NHDHA,CLINIC,√,√,√,√,√,√,√,√,√,√,011-5448663,011-5449143,الخرج,الوسطى,مجمع عادات دور السم الطبي بالخرج
4107,10,DAR ALSHOUBAA MEDICAL POLYCLINIC,CENTRAL,AL KHARJ,AL SHOUBAA,CLINIC,√,√,√,√,√,√,√,√,√,√,011-5488866,011-5481070,الخرج,الوسطى,مجمع عادات دار الشعبة الطبي
1879,10,ADVANCED CONSULTANT POLYCLINIC (KHARJ),CENTRAL,AL KHARJ,AL KHARJ,CLINIC,√,√,√,√,√,√,√,√,√,√,011-5451111,011-5484448,الخرج,الوسطى,مجمع العادات المتقدمة استشارة
1331,10,EBRAHEEM AL SUKHAIBER MEDICAL CLINIC,CENTRAL,AL KHARJ,ALANDULAS DISTRICT,CLINIC,√,√,√,√,√,√,√,√,√,√,011-5488882,011-5483433,الخرج,الوسطى,مجمع ابراھم الصخبر الطبي
4652,4,PRINCE SALMAN BIN MOHAMMED HOSPITAL,CENTRAL,AL DALM,AL DALAM,HOSPITAL,√,√,√,√,−,−,−,−,−,−,011-5417029,011-5416530,الدلم,الوسطى,مستشفى امر سلمان بن محمد بالدلم
5298,4,SAJR GENERAL HOSPITAL - MOH,CENTRAL,SAJER,SAJR,HOSPITAL,√,√,√,√,−,−,−,−,−,−,011-6320450,011-6321197,ساجر,الوسطى,مستشفى ساجر العام
4481,4,REMAH GENERAL HOSPITAL,CENTRAL,REMAH,71 AREA,HOSPITAL,√,√,√,√,−,−,−,−,−,−,011-5521370,011-5521325,رماح,الوسطى,مستشفى رماح العام
3998,4,AL DAWAA MEDICAL SERVICES CO.,CENTRAL,REMAH,QURTUBA,PHARMACY,√,√,√,√,−,−,−,−,−,−,013-8677776,013-8670201,رماح,الوسطى,مجموعة صدلات الدواء
4482,4,ROWAIDAH AL ARD GENERAL HOSPITAL,CENTRAL,ROWAIDAH AL ARD,MAHDUD,HOSPITAL,√,√,√,√,−,−,−,−,−,−,011-6551927,011-6552800,روضة العرض,الوسطى,مستشفى روضة العرض
1730,4,SHAQRA GENERAL HOSPITAL (MOH),CENTRAL,SHAGRA,SHAQRA,HOSPITAL,√,√,√,√,−,−,−,−,−,−,011-4050714,011-4112840,شقرا,الوسطى,مستشفى شقراء العام (وزارة الصحة)
898,10,ABAS MEDICAL CENTER - SHAQRA,CENTRAL,SHAGRA,SHAGRA,CLINIC,√,√,√,√,√,√,√,√,√,√,011-6223266,011-6223237,شقرا,الوسطى,مجمع عادات ركن اباس الطبي
4490,4,AFIF GENERAL HOSPITAL,CENTRAL,AFEEF,AL SHEMALY,HOSPITAL,√,√,√,√,−,−,−,−,−,−,011-7222000,011-7220634,عفف,الوسطى,مستشفى عفف العام
987,10,AL SHEFA MEDICAL CLINIC,CENTRAL,AFEEF,SOUTH DISTRICT,CLINIC,√,√,√,√,√,√,√,√,√,√,011-7221555,011-7221917,عفف,الوسطى,مجمع الشفاء الطبي
4647,4,THADIG GENERAL HOSPITAL,CENTRAL,THADIG,AL FAISALIYAH,HOSPITAL,√,√,√,√,−,−,−,−,−,−,011-6443911,011-6443932,ثادق,الوسطى,مستشفى ثادق العام
4480,4,AL AFLAJ GENERAL HOSPITAL,CENTRAL,AFLAJ,AL DAWAIR,HOSPITAL,√,√,√,√,−,−,−,−,−,−,011-6820002,011-6820292,افج,الوسطى,مستشفى افج العام
3990,8,RAWAT ELEOWN OPTICALS,CENTRAL,AFLAJ,AFLAJ,CENTER,√,√,√,√,√,√,√,√,−,−,011-6825590,011-6825590,افج,الوسطى,بصرات روعة العون - افج
4836,10,AL KAMAL MEDICAL CLINIC,CENTRAL,AFLAJ,AL DAWAIR,CLINIC,√,√,√,√,√,√,√,√,√,√,011-6821111,011-6823311,افج,الوسطى,مجمع عادات الكمال الطبي
2717,9,RAWAAT AL MAHA OPTICALS - AL AFLAJ,CENTRAL,AFLAJ,AL AFLAJ,CENTER,√,√,√,√,√,√,√,√,√,−,011-6826670,011-2374525,افج,الوسطى,روعة المھا للبصرات -افج
4648,4,HAWTAT BANI TAMIM G. HOSPITAL,CENTRAL,AL HOTAH,AL SALAMIYAH,HOSPITAL,√,√,√,√,−,−,−,−,−,−,-,-,حوطة بني تمم,الوسطى,مستشفى حوطة بني تمم العام
5292,9,VIOLA MEDICAL COMPLEX,CENTRAL,AL HOTAH,AL SALMIYAH,CLINIC,√,√,√,√,√,√,√,√,√,−,011-5552777,011-5557999,حوطة بني تمم,الوسطى,مجمع فو الطبي
2715,9,RAWAAT AL MAHA OPTICALS - HAWTAT BANI TAMIM,CENTRAL,AL HOTAH,HAWTAH DISTRICT,CENTER,√,√,√,√,√,√,√,√,√,−,011-5551328,011-2374525,حوطة بني تمم,الوسطى,روعة المھا للبصرات -حوطة بني تمم
5423,9,ROWAD ALTAQADUM MEDICAL POLYCLINIC,CENTRAL,AL HOTAH,ALSALAMYAH,CLINIC,√,√,√,√,√,√,√,√,√,−,011-5390144,011-5390144,حوطة بني تمم,الوسطى,مجمع عادات رواد التقدم الطبي
4649,4,TMAER GENERAL HOSPITAL,CENTRAL,TMAER,TMAER,HOSPITAL,√,√,√,√,−,−,−,−,−,−,016-4437636,016-4437499,تمر,الوسطى,مستشفى تمر العام
4479,4,DAWADMI GENERAL HOSPITAL,CENTRAL,AL DAWADMI,AL NUZHAH,HOSPITAL,√,√,√,√,−,−,−,−,−,−,011-6424636,011-6436584,الدوادمي,الوسطى,مستشفى الدوادمي العام
3987,8,RAWAT ELEOWN OPTICALS,CENTRAL,AL DAWADMI,DAWADMI,CENTER,√,√,√,√,√,√,√,√,−,−,011-6442776,011-6442767,الدوادمي,الوسطى,بصرات روعة العون - الدوادمي
2185,10,ABU ZEED MEDICAL CLINIC,CENTRAL,AL DAWADMI,ALDAWADMI,CLINIC,√,√,√,√,√,√,√,√,√,√,011-6423338,011-6423695,الدوادمي,الوسطى,مستوصف ابو زد الطبي
5390,4,AL RAFAYA GENERAL HOSPITAL,CENTRAL,AL JEMSH,AL JEMSH,HOSPITAL,√,√,√,√,−,−,−,−,−,−,011-6426612,011-6426612,الجمش,الوسطى,مستشفى الرفاع بالجمش العام
4489,4,WADI AL DAWASIR G. HOSPITAL,CENTRAL,W/ AL DAWASER,WADI AL DASER,HOSPITAL,√,√,√,√,−,−,−,−,−,−,011-7840085,011-7843863,وادي الدواسر,الوسطى,مستشفى وادي الدواسر العام
2716,9,RAWAAT AL MAHA OPTICALS - AL KHAMASEEN,CENTRAL,W/ AL DAWASER,AL KHMASEEN,CENTER,√,√,√,√,√,√,√,√,√,−,011-7847246,011-2374525,وادي الدواسر,الوسطى,روعة المھا للبصرات -الخماسن
656,10,AL NOWAIMEH NATIONAL CLINIC,CENTRAL,W/ AL DAWASER,ALNOWAIMAH DIS,CLINIC,√,√,√,√,√,√,√,√,√,√,011-7861495,011-7861051,وادي الدواسر,الوسطى,مجمع عادات النوعمة الطبي
4650,4,SULAIL GENERAL HOSPITAL,CENTRAL,SULAIL,AL MOHAMADIYAH,HOSPITAL,√,√,√,√,−,−,−,−,−,−,011-7821041,011-7820790,السلل,الوسطى,مستشفى السلل العام
894,9,SULAIL AL AHLI DISPENSARY (FARHAN AL NADAR),CENTRAL,SULAIL,AL MOHAMMED DISTRICT,CLINIC,√,√,√,√,√,√,√,√,√,−,011-7820085,011-7822739,السلل,الوسطى,مجمع عادات السلل اھلي (فرحان النادر )
2021,9,AL KHAMASEEN POLYCLINIC (FRHAN NADER),CENTRAL,AL KHAMASIN,KHOMASIN DISTRICT,CLINIC,√,√,√,√,√,√,√,√,√,−,011-7841539,011-7843560,الخماسن,الوسطى,مستوصف الخماسن الطبي (فرحان النادر)
4487,4,KING KHALID G. HOSPITAL-MAJMAAH,QASSIM,AL MAJMAA,MAJMAAH,HOSPITAL,√,√,√,√,−,−,−,−,−,−,016-4320000,016-4323389,المجمعة,القصم,مستشفى الملك خالد بالمجمعة
3988,8,RAWAT ELEOWN OPTICALS,QASSIM,AL MAJMAA,MAJMA,CENTER,√,√,√,√,√,√,√,√,−,−,016-4325223,016-4325223,المجمعة,القصم,بصرات روعة العون - المجمعة
3998,4,AL DAWAA MEDICAL SERVICES CO.,QASSIM,AL MAJMAA,QURTUBA,PHARMACY,√,√,√,√,−,−,−,−,−,−,013-8677776,013-8670201,المجمعة,القصم,مجموعة صدلات الدواء
1630,9,AL HABIB DISPENSARY,QASSIM,AL MAJMAA,KING FAHAD DISTRICT,CLINIC,√,√,√,√,√,√,√,√,√,−,016-4323931,016-4310468,المجمعة,القصم,مجمع الحبب الطبي
889,10,SUDAIR CONSULTING CLINICS,QASSIM,AL MAJMAA,ALJAMIEIAYN,CLINIC,√,√,√,√,√,√,√,√,√,√,016-4322444,016-4312267,المجمعة,القصم,عادات سدر استشارة
4651,4,ZULFI GENERAL HOSPITAL,QASSIM,ZULFI,AL ZULFI,HOSPITAL,√,√,√,√,−,−,−,−,−,−,011-7821041,011-7820790,الزلفي,القصم,مستشفى الزلفي العام
2471,10,AL ZULFI MEDICAL DISPENSARY,QASSIM,ZULFI,YARMOUK DISTRICT,CLINIC,√,√,√,√,√,√,√,√,√,√,016-4226666,016-4222009,الزلفي,القصم,مجمع عادات الزلفي  الطبي
3998,4,AL DAWAA MEDICAL SERVICES CO.,QASSIM,ZULFI,QURTUBA,PHARMACY,√,√,√,√,−,−,−,−,−,−,013-8677776,013-8670201,الزلفي,القصم,مجموعة صدلات الدواء
1754,9,NABDH AL WATEEN POLYCLINIC (ZULFI),QASSIM,ZULFI,FARAZDAQ DISTRICT,CLINIC,√,√,√,√,√,√,√,√,√,−,016-4222777,016-4230351,الزلفي,القصم,مجمع عادات نبض الوتن الطبي
1128,2,DR SULIMAN AL HABIB MED. GROUP (QASSIM),QASSIM,BURAIDA,SADA DISTRICT,HOSPITAL,√,√,−,−,−,−,−,−,−,−,016-3166666,016-3810219,بردة,القصم,مستشفى الدكتور سلمان الحبب الطبي
1733,4,KING FAHAD HOSPITAL (MOH) (BURAIDA),QASSIM,BURAIDA,FAYZIYAH DISTRICT,HOSPITAL,√,√,√,√,−,−,−,−,−,−,011-4050714,011-4508672,بردة,القصم,مستشفى الملك فھد ( وزارة الصحة ) (بردة)
4523,4,BURAYDAH CENTRAL HOSPITAL,QASSIM,BURAIDA,AL SADAH,HOSPITAL,√,√,√,√,−,−,−,−,−,−,016-3521414,016-3231485,بردة,القصم,مستشفى بردة المركزي
5039,4,PRINCE SULTAN CENTER FOR HART SERVICES,QASSIM,BURAIDA,BURAIDAH,HOSPITAL,√,√,√,√,−,−,−,−,−,−,016-3257790,016-3230778,بردة,القصم,مركز امر سلطان لطب وجراحة القلب
4524,4,MATERNITY & CHILDREN HOSPITAL-BURAYDAH,QASSIM,BURAIDA,AL HAMRAA,HOSPITAL,√,√,√,√,−,−,−,−,−,−,016-3851258,016-3823863,بردة,القصم,مستشفى الودة واطفال ببردة
5402,4,PRINCE FAISAL BIN BANDAR HOSPITAL - MOH,QASSIM,BURAIDA,BURAIDA,HOSPITAL,√,√,√,√,−,−,−,−,−,−,016-3251009,016-3251009,بردة,القصم,مركز امر فصل بن بندر لورام
4009,4,DR. GHASSAN N. PHAROAN DENTAL CENTER,QASSIM,BURAIDA,AL RWDHA,CENTER,√,√,√,√,−,−,−,−,−,−,016-3813596,016-3826360,بردة,القصم,مجمع الدكتور غسان نجب فرعون لطب اسنان
1592,6,QASEEM NATIONAL HOSPITAL,QASSIM,BURAIDA,AL ASKAN,HOSPITAL,√,√,√,√,√,√,R,R,R,R,016-3836100,016-3836200,بردة,القصم,مستشفى القصم الوطني
1660,6,BURAYDAH DENTAL CLINIC,QASSIM,BURAIDA,HAMRA DISTRICT,CENTER,√,√,√,√,√,√,−,−,−,−,016-3824448,016-3852500,بردة,القصم,مركز رمز بردة لطب اسنان
642,8,FAHAD AL AJAJI (SAUDI SHAMEL DENTAL CLINIC PREV.),QASSIM,BURAIDA,SAFRA DISTRICT,CENTER,√,√,√,√,√,√,√,√,−,−,016-3819050,016-3818945,بردة,القصم,مجمع فھد العجاجي لطب اسنان السعودي الشامل سابقاً.
655,8,AL FERAH HOSPITAL (BURAIDAH),QASSIM,BURAIDA,KHOBAIB DISTRICT,HOSPITAL,√,√,√,√,√,√,√,√,R,R,016-3245501,016-3230162,بردة,القصم,مستشفى الفرح
5147,8,SELVA MEDICAL CLINIC,QASSIM,BURAIDA,AL MUNTAZAH,CLINIC,√,√,√,√,√,√,√,√,−,−,016-3827722,016-3263948,بردة,القصم,مجمع سلفا الطبي
620,9,SAUDI MEDICAL POLYCLINIC,QASSIM,BURAIDA,ALESKAN,CLINIC,√,√,√,√,√,√,√,√,√,−,016-3810196,016-3821777,بردة,القصم,المستوصف السعودي الطبي
1703,10,SHIFA BURAIDAH POLYCLINIC,QASSIM,BURAIDA,KHOBAIB DISTRICT,CLINIC,√,√,√,√,√,√,√,√,√,√,016-3694227,016-3271304,بردة,القصم,مجمع عادات شفاء بردة الطبي
3640,10,BLUE DEEM CLINICS (Panorama PREV.),QASSIM,BURAIDA,ALKHDAR DIS,CLINIC,√,√,√,√,√,√,√,√,√,√,016-3846788,016-3846888,بردة,القصم,مجمع بلو دم الطبي (بانوراما سابقاً)
2718,9,RAWAAT AL MAHA OPTICALS - BURAYDAH,QASSIM,BURAIDA,FAYZIYAH DISTRICT,CENTER,√,√,√,√,√,√,√,√,√,−,016-3816951,011-2374525,بردة,القصم,روعة المھا للبصرات -بردة
2883,9,FARZA OPTICS - BURAIDAH,QASSIM,BURAIDA,NAHDA DISTRICT,CENTER,√,√,√,√,√,√,√,√,√,−,016-3693314,017-2250919,بردة,القصم,محل فرزة للنظارات - بردة
2904,9,FARZA OPTICS - BURAIDAH ALSAFRAA,QASSIM,BURAIDA,SAFRA DISTRICT,CENTER,√,√,√,√,√,√,√,√,√,−,016-3827702,017-2250921,بردة,القصم,محل فرزة للنظارات -بردة الصفراء
1002,9,FUTURE CARE CLINICS,QASSIM,BURAIDA,FAKHIRIYA DISTRICT,CLINIC,√,√,√,√,√,√,√,√,√,−,016-3259900,016-3258226,بردة,القصم,عادات عناة  المستقبل الطبي
1702,9,SLAMAT POLYCLINIC,QASSIM,BURAIDA,ALRODHAH DISTRICT,CLINIC,√,√,√,√,√,√,√,√,√,−,016-3819966,016-3819550,بردة,القصم,مستوصف سمات
3849,9,SLAMAT POLYCLINIC 2,QASSIM,BURAIDA,AL SENAA,CLINIC,√,√,√,√,√,√,√,√,√,−,016-3267441,016-3697828,بردة,القصم,مجمع عادات شركة سمات الطبة 2
1476,9,AL FLAIW POLYCLINIC,QASSIM,BURAIDA,OFOUQ DISTRICT,CLINIC,√,√,√,√,√,√,√,√,√,−,016-3856611,016-3826811,بردة,القصم,مجمع عادات الفلو الطبي
96,10,SHAZA MEDICAL COMPLEX-AL MOHAIMEED PREV.,QASSIM,BURAIDA,FAYZIYAH DISTRICT,CLINIC,√,√,√,√,√,√,√,√,√,√,016-5434944,016-3244629,بردة,القصم,مجمع شذى الطبي - المحمد سابقاً
217,10,AL FAIHA GROUP CO.FOR MEDICAL SERVICES,QASSIM,BURAIDA,FAYZIYAH DISTRICT,CLINIC,√,√,√,√,√,√,√,√,√,√,016-3814020,016-3816850,بردة,القصم,مجموعھ شركة الفحاء للخدمات الطبة (برده)
5454,10,FAYHAA MEDICAL COMPLEX 2,QASSIM,BURAIDA,FAYZIYAH,CLINIC,√,√,√,√,√,√,√,√,√,√,016-3855070,016-3817174,بردة,القصم,مجمع الفحاء الطبي(2) ببردة
937,10,AL MAALI MEDICAL GROUP,QASSIM,BURAIDA,BURAIDA,CLINIC,√,√,√,√,√,√,√,√,√,√,016-3838888,016-3855964,بردة,القصم,مجموعة المعالي الطبة
4525,4,KING SAUD HOSPTIAL - ONAIZAH,QASSIM,UNAIZAH,AL MUNTAZAH,HOSPITAL,√,√,√,√,−,−,−,−,−,−,016-3645000,016-3646735,عنزة,القصم,مستشفى الملك سعود بعنزة
1587,6,AL HAYAT HOSPITAL - UNAIZAH (AL WAFAA PREV.),QASSIM,UNAIZAH,MADINA DSITRICT,HOSPITAL,√,√,√,√,√,√,R,R,R,R,016-3636600,016-3634400,عنزة,القصم,مستشفى الحاة الوطني - الوفاء سابقاً
114,8,AL SALAM NATIONAL COMPLEX,QASSIM,UNAIZAH,AL HADA DISTRICT,CLINIC,√,√,√,√,√,√,√,√,−,−,016-3610009,016-3621514,عنزة,القصم,مجمع السم الطبي
728,10,MEDICARE POLYCLINIC,QASSIM,UNAIZAH,HADA DISTRICT,CLINIC,√,√,√,√,√,√,√,√,√,√,016-3610000,016-3649945,عنزة,القصم,مجمع الرعاة الطبة
1629,9,AL BARAKAH NATIONAL CO.,QASSIM,UNAIZAH,UNAIZAH,CLINIC,√,√,√,√,√,√,√,√,√,−,016-3651800,016-3622274,عنزة,القصم,شركة البركة اھلي المحدودة
3126,9,AL MAALI MEDICAL CLINIC - UNAYZAH,QASSIM,UNAIZAH,AL FAKHRIYAH,CLINIC,√,√,√,√,√,√,√,√,√,−,016-3633339,016-3632339,عنزة,القصم,مجمع شركة المعالي الطبي (عنزة)
4527,4,RASS GENERAL HOSPITAL,QASSIM,AL RASS,KING KHALID DISTRICT,HOSPITAL,√,√,√,√,−,−,−,−,−,−,016-3339996,016-3338199,الرس,القصم,مستشفى الرس العام
5497,8,SHIF ALRASS MEDICAL CENTER,QASSIM,AL RASS,ALQUDS,CLINIC,√,√,√,√,√,√,√,√,−,−,016-3334089,016-3334035,الرس,القصم,مجمع شفاء الرس الطبي
2882,9,FARZA OPTICS - ALRASS,QASSIM,AL RASS,HAMMAM DISTRICT,CENTER,√,√,√,√,√,√,√,√,√,−,016-3337004,017-2250919,الرس,القصم,محل فرزة للنظارات -الرس
2902,9,INT'L OPTICS HOUSE - AL RASS,QASSIM,AL RASS,MULLA DISTRICT,CENTER,√,√,√,√,√,√,√,√,√,−,016-3380324,017-2250919,الرس,القصم,بت النظارات الدولي -الرس
1659,10,AL GENAH MEDICAL CLINIC (PREV. BARAKAH),QASSIM,AL RASS,RASS DISTRICT,CLINIC,√,√,√,√,√,√,√,√,√,√,016-3335500,016-3381591,الرس,القصم,مجمع الجناح الطبي (البركة سابقاً)
4646,4,"EYE,S AL JAWA G. HOSPITAL",QASSIM,"EYE,S AL JAWA",CENTRAL,HOSPITAL,√,√,√,√,−,−,−,−,−,−,016-3911320,016-3911320,عون الجواء,القصم,مستشفى عون الجواء العام
3176,9,DAWNA MEDICAL CENTER,QASSIM,BADAYA,AL BADAYA,CLINIC,√,√,√,√,√,√,√,√,√,−,016-3326662,016-3326660,البدائع,القصم,مركز داونا الطبي
4526,4,BUKAIRYAH GENERAL HOSPTIAL,QASSIM,AL BEKERIA,AL KHALIDIA,HOSPITAL,√,√,√,√,−,−,−,−,−,−,016-3350059,016-3350051,البكرة,القصم,مستشفى البكرة العام
3998,4,AL DAWAA MEDICAL SERVICES CO.,QASSIM,AL BEKERIA,QURTUBA,PHARMACY,√,√,√,√,−,−,−,−,−,−,013-8677776,013-8670201,البكرة,القصم,مجموعة صدلات الدواء
645,9,ATTADAWE COMPLEX (AL BEKERIA),QASSIM,AL BEKERIA,BUKAIRIYAH DISTRICT,CLINIC,√,√,√,√,√,√,√,√,√,−,016-3351122,016-3358496,البكرة,القصم,مجمع عادات تداوي البكرة
4653,4,HOTAT SUDAYR HOSPITAL,QASSIM,HOTAT SUDAYR,HOTAT SUDAYR,HOSPITAL,√,√,√,√,−,−,−,−,−,−,016-4431311,016-4431310,حوطھ سدر,القصم,مستشفى حوطة سدر
3998,4,AL DAWAA MEDICAL SERVICES CO.,QASSIM,ARTAWIA,QURTUBA,PHARMACY,√,√,√,√,−,−,−,−,−,−,013-8677776,013-8670201,ارطاوة,القصم,مجموعة صدلات الدواء
1808,9,SHOROOQ AL FAIHA POLYCLINIC,QASSIM,ARTAWIA,ARTAWIA,CLINIC,√,√,√,√,√,√,√,√,√,−,016-4360333,016-4360222,ارطاوة,القصم,مجمع شروق الفحاء الطبي
1744,4,KING KHALID HOSPITAL (MOH) (TABUK),NORTHERN,TABUK,NAHDA DISTRICT,HOSPITAL,√,√,√,√,−,−,−,−,−,−,011-4050714,014-4279870,تبوك,الشمالة,مستشفى  الملك خالد ( وزارة الصحة ) (تبوك)
4642,4,KING FAHAD G. HOSPITAL,NORTHERN,TABUK,QUDSIYAH,HOSPITAL,√,√,√,√,−,−,−,−,−,−,014-4259000,014-4259001,تبوك,الشمالة,مستشفى الملك فھد التخصصي بتبوك
1740,4,MATERNITY & CHILDREN HOSPITAL (MOH)  (TABUK),NORTHERN,TABUK,FAISALIYAH DISTRICT,HOSPITAL,√,√,√,√,−,−,−,−,−,−,011-4050714,014-4279870,تبوك,الشمالة,مستشفى الودة واطفال ( وزارة الصحة ) (تبوك)
5382,4,AL ARJAN POLYCLINIC,NORTHERN,TABUK,OLAYA,CLINIC,√,√,√,√,−,−,−,−,−,−,014-4282555,014-4245199,تبوك,الشمالة,مجمع العرجان الطبي
158,6,PRINCE FAHD BIN SULTAN HOSPITAL,NORTHERN,TABUK,ALSULTANAH DISTRICT,HOSPITAL,√,√,√,√,√,√,R,R,R,R,014-4280555,014-4228499,تبوك,الشمالة,مستشفى امر فھد بن سلطان
104,8,AL SHEFA CLINIC (TABUK),NORTHERN,TABUK,SALHIYAH DISTRICT,CLINIC,√,√,√,√,√,√,√,√,−,−,014-4224236,014-4236960,تبوك,الشمالة,مجمع الشفاء الطبي
3966,8,MANARET AL MOROJ POLYCLINIC,NORTHERN,TABUK,AL MOROJ,CLINIC,√,√,√,√,√,√,√,√,−,−,014-4293362,014-4210185,تبوك,الشمالة,مجمع منارة المروج الطبي
3998,4,AL DAWAA MEDICAL SERVICES CO.,NORTHERN,TABUK,QURTUBA,PHARMACY,√,√,√,√,−,−,−,−,−,−,013-8677776,013-8670201,تبوك,الشمالة,مجموعة صدلات الدواء
97,9,AL DAKHEEL POLYCLINIC,NORTHERN,TABUK,SULAYMANIYA DISTRICT,CLINIC,√,√,√,√,√,√,√,√,√,−,014-4242222,014-4281928,تبوك,الشمالة,مجمع الدخل الطبي
2894,9,FARZA OPTICS - TABOUK,NORTHERN,TABUK,KING FAHAD DISTRICT,CENTER,√,√,√,√,√,√,√,√,√,−,014-4216651,017-2250919,تبوك,الشمالة,محل فرزة للنظارات -تبوك
2913,9,CASTLE OPTICS - TABOUK,NORTHERN,TABUK,SHAWIYAH DISTRICT,CENTER,√,√,√,√,√,√,√,√,√,−,014-4241870,017-2250919,تبوك,الشمالة,قلعة البصرات للنظارات -تبوك
1695,10,AL AFFARY POLYCLINIC,NORTHERN,TABUK,SULAYMANIYA DISTRICT,CLINIC,√,√,√,√,√,√,√,√,√,√,014-4222422,014-4225413,تبوك,الشمالة,مجمع العفاري الطبي
1656,10,MABASEM POLYCLINIC,NORTHERN,TABUK,ALSULIMANYA DIS,CLINIC,√,√,√,√,√,√,√,√,√,√,014-4228840,014-4287076,تبوك,الشمالة,مجمع مباسم الطبي
599,10,HEALTH GULF DISPENSARY,NORTHERN,TABUK,FAISALIYAH DISTRICT,CLINIC,√,√,√,√,√,√,√,√,√,√,014-4211113,014-4239889,تبوك,الشمالة,مستوصف خلج الصحة
1691,10,NABRAS AL JAZIRA POLYCLINIC,NORTHERN,TABUK,AZIZIYAH DISTRICT,CLINIC,√,√,√,√,√,√,√,√,√,√,014-4237009,014-4211490,تبوك,الشمالة,مستوصف نبراس الجزرة الطبي
99,10,TABUK NATIONAL POLYCLINIC,NORTHERN,TABUK,ALMAHRAJAN AREA,CLINIC,√,√,√,√,√,√,√,√,√,√,014-4225545,014-4229990,تبوك,الشمالة,مجمع تبوك اھلي
4531,4,TAIMA GENERAL HOSPITAL,NORTHERN,TAIMA,TAIMA,HOSPITAL,√,√,√,√,−,−,−,−,−,−,014-4630031,014-4632340,تماء,الشمالة,مستشفى محافظھ تماء
5337,4,HAGEL GENERAL HOSPITAL - MOH,NORTHERN,HAGEL,HAGEL,HOSPITAL,√,√,√,√,−,−,−,−,−,−,014-4530212,014-4533688,حقل,الشمالة,مستشفى حقل العام
3998,4,AL DAWAA MEDICAL SERVICES CO.,NORTHERN,HAGEL,QURTUBA,PHARMACY,√,√,√,√,−,−,−,−,−,−,013-8677776,013-8670201,حقل,الشمالة,مجموعة صدلات الدواء
2139,9,SHOAA AL AMAL DISPENSARY,NORTHERN,HAGEL,DHAHRA DISTRICT,CLINIC,√,√,√,√,√,√,√,√,√,−,014-4532922,014-4531299,حقل,الشمالة,مجمع شعاع  امل الطبي
5341,4,ALBADAE GENERAL HOSPITAL (MOH),NORTHERN,ALBADAE,AL,HOSPITAL,√,√,√,√,−,−,−,−,−,−,014-4341219,014-4341219,البدع,الشمالة,مستشفى البدع العام ( وزارة الصحة )
1731,4,DHUBA GENERAL HOSPITAL (MOH),NORTHERN,DHUBA,DHUBA DISTRICT,HOSPITAL,√,√,√,√,−,−,−,−,−,−,011-4050714,014-4279870,ضباء,الشمالة,مستشفى ضباء العام ( وزارة الصحة )
3998,4,AL DAWAA MEDICAL SERVICES CO.,NORTHERN,DHUBA,QURTUBA,PHARMACY,√,√,√,√,−,−,−,−,−,−,013-8677776,013-8670201,ضباء,الشمالة,مجموعة صدلات الدواء
4676,9,AL ANSARI OPTICAL - DHUBA,NORTHERN,DHUBA,AL BALAD,CENTER,√,√,√,√,√,√,√,√,√,−,014-4321711,014-4321711,ضباء,الشمالة,انصاري للبصرات - ضباء
1794,10,DHUBA NATIONAL POLYCLINIC,NORTHERN,DHUBA,ALMOQAITE DIS,CLINIC,√,√,√,√,√,√,√,√,√,√,014-4320112,014-4302470,ضباء,الشمالة,مجمع ضباء اھلي
1728,4,KING KHALID HOSPITAL (MOH) (HAIL),NORTHERN,HAIL,MONTAZAH DISTRICT,HOSPITAL,√,√,√,√,−,−,−,−,−,−,016-5430699,016-5430699,حائل,الشمالة,مستشفى الملك خالد ( وزارة الصحة ) (حائل)
4975,2,SAUDI GERMAN HOSPITAL - HAIL,NORTHERN,HAIL,AL KHUZAMA,HOSPITAL,√,√,−,−,−,−,−,−,−,−,016-5411111,016-5411111,حائل,الشمالة,مستشفى السعودي الماني - حائل
1743,4,MATERNITY & CHILDREN HOSPITAL (MOH) (HAIL),NORTHERN,HAIL,KING ABDULLAH DISTRICT,HOSPITAL,√,√,√,√,−,−,−,−,−,−,016-5351132,016-5351132,حائل,الشمالة,مستشفى الوده واطفال (حائل)
4494,4,AL SHINAN GENERAL HOSPITAL,NORTHERN,HAIL,HAIL,HOSPITAL,√,√,√,√,−,−,−,−,−,−,016-5202281,016-5202281,حائل,الشمالة,مستشفى الشنان العام
4493,4,HAIL CARDIAC CENTER,NORTHERN,HAIL,AIRPORT,HOSPITAL,√,√,√,√,−,−,−,−,−,−,016-5335710,016-5335710,حائل,الشمالة,مركز القلب بحائل
5360,4,HAIL GENERAL HOSPITAL - MOH.,NORTHERN,HAIL,HAIL,HOSPITAL,√,√,√,√,−,−,−,−,−,−,016-5334975,016-5328080,حائل,الشمالة,مستشفى حائل العام
5405,4,KING SALMAN SPECIALIZED HOSPITAL - MOH,NORTHERN,HAIL,HAIL,HOSPITAL,√,√,√,√,−,−,−,−,−,−,016-2362222,016-2362222,حائل,الشمالة,مستشفى الملك سلمان التخصصي
4388,6,SALAMAT HOSPITAL,NORTHERN,HAIL,AL MUNTAZAH,HOSPITAL,√,√,√,√,√,√,R,R,R,R,016-5366666,016-5368888,حائل,الشمالة,مستشفى سمات
4845,6,ROYAL MEDICAL DENTAL COMPLEX,NORTHERN,HAIL,HAIL,CENTER,√,√,√,√,√,√,−,−,−,−,016-5413333,016-5359666,حائل,الشمالة,مجمع روال الطبي
4844,6,AL MANAR MEDICAL DENTAL COMPLEX,NORTHERN,HAIL,HAIL,CENTER,√,√,√,√,√,√,−,−,−,−,016-5329966,016-5349911,حائل,الشمالة,مجمع المنار الطبي المتخصص اسنان
2369,10,AL AHLY POLYCLINIC,NORTHERN,HAIL,SHARAF ABU NIMER,CLINIC,√,√,√,√,√,√,√,√,√,√,016-5355555,016-5432507,حائل,الشمالة,مجمع اھلي (حائل)
541,8,AL ANWAR HOSPITAL,NORTHERN,HAIL,ALAZIZIAH,HOSPITAL,√,√,√,√,√,√,√,√,R,R,016-5332222,016-5432041,حائل,الشمالة,مستشفى انوار الطبي
4389,10,RAYAN AL SHARQ MEDICAL CLINIC,NORTHERN,HAIL,AL MUNTAZAH,CLINIC,√,√,√,√,√,√,√,√,√,√,016-5432288,016-5431150,حائل,الشمالة,مجمع ران الشرق الطبي العام
102,8,SALAMAT CLINIC (HAIL),NORTHERN,HAIL,JAMEAH DISTRICT,CLINIC,√,√,√,√,√,√,√,√,−,−,016-5328225,016-5312364,حائل,الشمالة,مستوصف سمات (حائل)
3998,4,AL DAWAA MEDICAL SERVICES CO.,NORTHERN,HAIL,QURTUBA,PHARMACY,√,√,√,√,−,−,−,−,−,−,013-8677776,013-8670201,حائل,الشمالة,مجموعة صدلات الدواء
2886,9,FARZA OPTICS - HAIL,NORTHERN,HAIL,KING KHALID DISTRICT,CENTER,√,√,√,√,√,√,√,√,√,−,016-5433006,017-2250919,حائل,الشمالة,محل فرزة للنظارات -حائل
81,10,NATIONAL CLINIC (HAIL),NORTHERN,HAIL,SHARAF DISTRICT,CLINIC,√,√,√,√,√,√,√,√,√,√,016-5434944,016-5432292,حائل,الشمالة,مجمع الوطني الطبي (حائل)
706,10,ZAMZAM CLINIC,NORTHERN,HAIL,ALAZIZIA DISTRICT,CLINIC,√,√,√,√,√,√,√,√,√,√,016-5324984,016-5321963,حائل,الشمالة,مجمع زمزم الطبي
988,9,AL NOOR POLYCLINIC,NORTHERN,HAIL,HAIL,CLINIC,√,√,√,√,√,√,√,√,√,−,016-5344440,016-5344390,حائل,الشمالة,مستوصف النور الطبي
4495,4,BAQAA GENERAL HOSPITAL,NORTHERN,BAQAA,BAQAA,HOSPITAL,√,√,√,√,−,−,−,−,−,−,016-5271688,016-5271688,بقعاء,الشمالة,مستشفى بقعاء العام
1921,10,AL LEWAA MEDICAL COMPLEX,NORTHERN,BAQAA,PLAN 316 DISTRICT,CLINIC,√,√,√,√,√,√,√,√,√,√,016-5272111,016-5271133,بقعاء,الشمالة,مجمع عادات اللواء الطبة
4638,4,KING ABDULAZIZ SPECIALIZED HOSPITAL,NORTHERN,SAKAKA,SKAKA,HOSPITAL,√,√,√,√,−,−,−,−,−,−,014-6256060,014-6244266,سكاكا,الشمالة,مستشفى الملك عبدالعزز التخصصي بالجوف
1725,4,PRINCE METEB BIN A.AZIZ ( AL SUDAIRY HOSPITAL PREV.),NORTHERN,SAKAKA,OLD MUKHATTAT DISTRICT,HOSPITAL,√,√,√,√,R,R,R,R,R,R,014-6246012,014-6241133,سكاكا,الشمالة,مستشفى امر متعب بن عبدالعزز ( السدري سابقا )
1729,4,MATERNITY & CHILDREN HOSPITAL (MOH) (JOUF),NORTHERN,SAKAKA,ABDULRAHMAN SUDAIR DISTRICT,HOSPITAL,√,√,√,√,−,−,−,−,−,−,014-6245429,014-6246075,سكاكا,الشمالة,مستشفى الودة واطفال (الجوف)
5291,4,SAKAKA DENTAL CENTER - MOH,NORTHERN,SAKAKA,AL JAWF,CENTER,√,√,√,√,−,−,−,−,−,−,014-6263010,014-6263010,سكاكا,الشمالة,مركز طب اسنان بسكاكا
3998,4,AL DAWAA MEDICAL SERVICES CO.,NORTHERN,SAKAKA,QURTUBA,PHARMACY,√,√,√,√,−,−,−,−,−,−,013-8677776,013-8670201,سكاكا,الشمالة,مجموعة صدلات الدواء
137,9,AL HAMAD MEDICAL CLINIC,NORTHERN,SAKAKA,OLD MUKHATTAT DISTRICT,CLINIC,√,√,√,√,√,√,√,√,√,−,014-6248888,014-6249922,سكاكا,الشمالة,مجمع الحمد الطبي
2027,9,AMASS POLYCLINIC COMPLEX,NORTHERN,SAKAKA,ALSHALHOB DIS,CLINIC,√,√,√,√,√,√,√,√,√,−,014-6256565,014-6248087,سكاكا,الشمالة,مجمع اماس الطبي
4533,4,ARAR CENTRAL HOSPTIAL,NORTHERN,ARAR,ARAR,HOSPITAL,√,√,√,√,R,R,R,R,R,R,014-6643291,014-6643291,عرعر,الشمالة,مستشفى عرعر المركزي
4534,4,MATERNITY & CHILDREN HOSPITAL-ARAR,NORTHERN,ARAR,ARAR,HOSPITAL,√,√,√,√,−,−,−,−,−,−,014-6528888,014-6613178,عرعر,الشمالة,مستشفى الودة واطفال - عرعر
4535,4,PRINCE A.AZIZ BIN MUSAAD HOSPITAL-ARAR,NORTHERN,ARAR,ARAR,HOSPITAL,√,√,√,√,−,−,−,−,−,−,014-6628936,014-6628936,عرعر,الشمالة,مستشفى امر عبدالعزز بن مساعد - عرعر
4666,4,PRINCE ABDULAH BIN ABDULAZIZ CARDIAC CENTER,NORTHERN,ARAR,AL MUSAIDYA,HOSPITAL,√,√,√,√,−,−,−,−,−,−,014-6620614,014-6627209,عرعر,الشمالة,مركز امر عبداللھ بن عبدالعزز بن مساعد لطب وجراحة القلب
4667,4,PRINCE ABDULAH BIN ABDULAZIZ DENTAL CENTER,NORTHERN,ARAR,AL SALIHIYAH,CENTER,√,√,√,√,−,−,−,−,−,−,014-6629130,014-6611640,عرعر,الشمالة,مركز امر عبداللھ بن عبدالعزز بن مساعد التخصصي لطب اسنان
1671,8,AL NUKHBA MEDICAL CLINIC,NORTHERN,ARAR,AZIZIYAH DISTRICT,CLINIC,√,√,√,√,√,√,√,√,−,−,014-6626051,014-6610570,عرعر,الشمالة,مجمع النخبة الصحة للخدمات الطبة
3998,4,AL DAWAA MEDICAL SERVICES CO.,NORTHERN,ARAR,QURTUBA,PHARMACY,√,√,√,√,−,−,−,−,−,−,013-8677776,013-8670201,عرعر,الشمالة,مجموعة صدلات الدواء
846,9,AL KHANANI MEDICAL CLINIC -1,NORTHERN,ARAR,SIDRAH DISTRICT,CLINIC,√,√,√,√,√,√,√,√,√,−,014-6627068,014-6622114,عرعر,الشمالة,مستوصف الخناني الطبي  -1
2294,10,AMASS POLYCLINIC COMPLEX (ARAR),NORTHERN,ARAR,AZIZIYAH DISTRICT,CLINIC,√,√,√,√,√,√,√,√,√,√,014-6256565,014-6248087,عرعر,الشمالة,مجمع اماس الطبي - عرعر
1737,4,QERAYAT GENERAL HOSPITAL (MOH),NORTHERN,AL QURAYAT,HASEEDAH DISTRICT,HOSPITAL,√,√,√,√,−,−,−,−,−,−,011-4050714,014-6426234,القرات,الشمالة,مستشفى القرات العام ( وزارة الصحة )
4664,4,NSAB GENERAL HOSPITAL,NORTHERN,AL QURAYAT,NSAB,HOSPITAL,√,√,√,√,−,−,−,−,−,−,014-6780031,014-6780031,القرات,الشمالة,مستشفى شعبة نصاب العام
3998,4,AL DAWAA MEDICAL SERVICES CO.,NORTHERN,AL QURAYAT,QURTUBA,PHARMACY,√,√,√,√,−,−,−,−,−,−,013-8677776,013-8670201,القرات,الشمالة,مجموعة صدلات الدواء
1669,10,DR BADER MEDICAL CENTER,NORTHERN,AL QURAYAT,RAHMANIYAH DISTRICT,CLINIC,√,√,√,√,√,√,√,√,√,√,014-6432333,014-6424222,القرات,الشمالة,مجمع الدكتور بدر الطبي
820,9,AL AJAJ CLINIC (QURAYAT),NORTHERN,AL QURAYAT,QURAYAT DISTRICT,CLINIC,√,√,√,√,√,√,√,√,√,−,014-6420011,014-6426633,القرات,الشمالة,مستوصف العجاج الطبي
4665,4,AL AWAGLIYA GENERAL HOSPITAL,NORTHERN,AL AWAGLIYA,AL KHALEEJ,HOSPITAL,√,√,√,√,−,−,−,−,−,−,014-6690481,014-6690480,العوقلة,الشمالة,مستشفى العوقلة العام
1727,4,TURAIF GENERAL HOSPITAL (MOH),NORTHERN,TURAIF,TURAIF DISTRICT,HOSPITAL,√,√,√,√,−,−,−,−,−,−,011-4050714,011-4508672,طرف,الشمالة,مستشفى طرف العام ( وزارة الصحة )
3998,4,AL DAWAA MEDICAL SERVICES CO.,NORTHERN,TURAIF,QURTUBA,PHARMACY,√,√,√,√,−,−,−,−,−,−,013-8677776,013-8670201,طرف,الشمالة,مجموعة صدلات الدواء
5498,8,BADAR NAJD OPTICAL GROUP,NORTHERN,TURAIF,ALYARMOUK,CENTER,√,√,√,√,√,√,√,√,−,−,013-7223524,013-7223524,طرف,الشمالة,مجموعة بدر نجد للنظارات
5477,9,NOOR MEDICAL CARE,NORTHERN,TURAIF,ALYARMOUK,CLINIC,√,√,√,√,√,√,√,√,√,−,014-6533500,014-6533500,طرف,الشمالة,مجمع نور الرعاة الطبي
3969,10,SULTAN POLYCLINIC CENTER,NORTHERN,TURAIF,AL FAISALIAH,CLINIC,√,√,√,√,√,√,√,√,√,√,014-6523505,014-6523505,طرف,الشمالة,مجمع سلطان جاد الطبي
5479,9,ENAYH TURIF MEDICAL SERVICES COMPLEX,NORTHERN,TURAIF,ALYARMOUK,CLINIC,√,√,√,√,√,√,√,√,√,−,014-6520500,014-6530000,طرف,الشمالة,مجمع عناة طرف للخدمات الطبة
4639,4,DAWMAT AL JANDAL G. HOSPITAL,NORTHERN,DAWMAT AL JANDAL,B AREA,HOSPITAL,√,√,√,√,−,−,−,−,−,−,014-6224660,014-6224660,دومة الجندل,الشمالة,مستشفى دومة الجندل العام
3998,4,AL DAWAA MEDICAL SERVICES CO.,NORTHERN,DAWMAT AL JANDAL,QURTUBA,PHARMACY,√,√,√,√,−,−,−,−,−,−,013-8677776,013-8670201,دومة الجندل,الشمالة,مجموعة صدلات الدواء
4517,4,TABARJAL GENERAL HOSPITAL,NORTHERN,TABARJAL,GREEN PARK,HOSPITAL,√,√,√,√,−,−,−,−,−,−,014-6286227,014-6280771,طبرجل,الشمالة,مستشفى طبرجل العام
3998,4,AL DAWAA MEDICAL SERVICES CO.,NORTHERN,TABARJAL,QURTUBA,PHARMACY,√,√,√,√,−,−,−,−,−,−,013-8677776,013-8670201,طبرجل,الشمالة,مجموعة صدلات الدواء
1863,9,GULF FAMILY MEDICAL CENTER,NORTHERN,TABARJAL,TABARJAL,CLINIC,√,√,√,√,√,√,√,√,√,−,014-6288880,014-6288883,طبرجل,الشمالة,مجمع اسرة الخلجة
4536,4,RAFHA GENERAL HOSPITAL,NORTHERN,RAFHAA,RAFHA,HOSPITAL,√,√,√,√,−,−,−,−,−,−,014-6764201,014-6764201,رفحاء,الشمالة,مستشفى رفحاء العام
3998,4,AL DAWAA MEDICAL SERVICES CO.,NORTHERN,RAFHAA,QURTUBA,PHARMACY,√,√,√,√,−,−,−,−,−,−,013-8677776,013-8670201,رفحاء,الشمالة,مجموعة صدلات الدواء
2242,8,RAFHA MEDICAL CENTER,NORTHERN,RAFHAA,MOHAMMADIAH DISTRICT,CLINIC,√,√,√,√,√,√,√,√,−,−,014-6764044,014-6766776,رفحاء,الشمالة,مجمع عادات رفحاء الطبي
1121,10,AL FAIHA MEDICAL POLYCLINIC (RAFHA),NORTHERN,RAFHAA,NAMOZAJIYA DISTRICT,CLINIC,√,√,√,√,√,√,√,√,√,√,014-6764000,014-6765909,رفحاء,الشمالة,مجمع الفحاء الطبي
5325,2,KING FAHAD HOSPITAL OF THE UNIVERSITY,EASTERN,KHOBAR,AQRABIA DISTRICT,HOSPITAL,√,√,−,−,−,−,−,−,−,−,013-8966666,013-89667700,الخبر,الشرقة,مستشفى الملك فھد الجامعي
5380,2,SEHAT Al SHARQ MEDICAL LIMITED CO(HABIB),EASTERN,KHOBAR,KHOBAR,HOSPITAL,√,√,−,−,−,−,−,−,−,−,013-8711111,013-8711111,الخبر,الشرقة,مستشفى فرع شركة صحة الشرق الطبة المحدودة
5476,2,ALMSHFA HEALTH CENTER,EASTERN,KHOBAR,ALRAKAH,CLINIC,√,√,−,−,−,−,−,−,−,−,011-8749666,011-8749656,الخبر,الشرقة,مجع شركة المشفى الصحي الطبة
107,4,AL MANA GENERAL HOSPITAL (KHOBER),EASTERN,KHOBAR,KHOBAR,HOSPITAL,√,√,√,√,−,−,−,−,−,−,013-8890661,013-8980772,الخبر,الشرقة,مستشفى المانع العام
5419,4,CMRC HOSPITAL,EASTERN,KHOBAR,DAWHA,HOSPITAL,√,√,√,√,−,−,−,−,−,−,9200013122,9200013122,الخبر,الشرقة,مستشفى شركة سي ام ار سي العربة السعودة
5446,4,AL AQRABIA PHC - MOH,EASTERN,KHOBAR,AL AQRABIA,CLINIC,√,√,√,√,−,−,−,−,−,−,013-8986666,013-8986666,الخبر,الشرقة,مركز صحي العقربة - وزارة الصحة
1688,4,SAUDI SWISS CONSULTANT DENTAL CENTER,EASTERN,KHOBAR,AL AQRABIYA,CENTER,√,√,√,√,−,−,−,−,−,−,013-8898714,013-8898715,الخبر,الشرقة,المركز السعودي السوسري لطب اسنان
5146,4,AL MANA MEDICAL COMPLEX - ALKHOBAR,EASTERN,KHOBAR,AL RAKAH,CLINIC,√,√,√,√,−,−,−,−,−,−,013-8333777,013-8980694,الخبر,الشرقة,مجمع عادات المانع - الخبر
1606,4,SILVER CRESCENT POLYCLINIC,EASTERN,KHOBAR,AL THUQBAH,CLINIC,√,√,√,√,−,−,−,−,−,−,013-8650005,013-8941276,الخبر,الشرقة,مجمع عادات الھل الفضي
1152,6,PROCARE HOSPITAL,EASTERN,KHOBAR,OLAYA DISTRICT,HOSPITAL,√,√,√,√,√,√,−,−,−,−,013-8955900,013-8956357,الخبر,الشرقة,مستشفى الرعاة (بروكر)
110,6,DR FAKHRY & AL RAJHI HOSPITAL,EASTERN,KHOBAR,KHOBAR,HOSPITAL,√,√,√,√,√,√,−,−,−,−,013-8641960,013-8937079,الخبر,الشرقة,مستشفى الدكتور فخري والراجحي
5348,4,AL MOUWASAT HOSPITAL - ALKHOBAR,EASTERN,KHOBAR,MAROUJ,HOSPITAL,√,√,√,√,−,−,−,−,−,−,013-8196666,013-8196255,الخبر,الشرقة,مستشفى المواساة - الخبر
2367,10,ELITE SPECIALIST CLINICS,EASTERN,KHOBAR,ALYARMUK,CLINIC,√,√,√,√,√,√,√,√,√,√,013-8969975,013-8969974,الخبر,الشرقة,مجمع عادات النخبة التخصصة
4558,10,RAFA MEDICAL CENTER,EASTERN,KHOBAR,KHOBAR,CLINIC,√,√,√,√,√,√,√,√,√,√,013-8974777,013-8810505,الخبر,الشرقة,مجمع عادات رفا الطبي
993,4,RAM DENTAL CLINICS (KHOBAR),EASTERN,KHOBAR,ALAQRABEYA DISTRICT,CENTER,√,√,√,√,−,−,−,−,−,−,013-8648181,013-8641248,الخبر,الشرقة,مركز رام لطب اسنان فرع الخبر
3757,4,JABAL RAM DENTAL CLINICS - AL KHOBAR 2,EASTERN,KHOBAR,AL KHOBAR AL SHEMALI,CENTER,√,√,√,√,−,−,−,−,−,−,013-8675566,013-8676672,الخبر,الشرقة,عادات جبل رام لطب اسنان
5318,6,OZONE DENTAL CENTER,EASTERN,KHOBAR,KHOBAR N,CENTER,√,√,√,√,√,√,−,−,−,−,013-8940007,013-8993799,الخبر,الشرقة,مجمع اوزون لطب اسنان
2853,6,CLASS OPTICAL - AL KHOBAR,EASTERN,KHOBAR,HARAA,CENTER,√,√,√,√,√,√,−,−,−,−,013-8230070,013-8290015,الخبر,الشرقة,مركز الراقة للنظارات -الخبر
1687,8,SHAM DENTAL CLINICS,EASTERN,KHOBAR,ALHAZAM ALKHDAR DISTRICT,CENTER,√,√,√,√,√,√,√,√,−,−,013-8878676,013-8821242,الخبر,الشرقة,مجمع عادات شام لطب اسنان
108,8,MOHAMMAD DOSSARY HOSPITAL,EASTERN,KHOBAR,KHOBAR,HOSPITAL,√,√,√,√,√,√,√,√,R,R,013-8945524,013-8642447,الخبر,الشرقة,مستشفى محمد الدوسري
7,8,GAMA HOSPITAL (ASTOON),EASTERN,KHOBAR,RAKAH,HOSPITAL,√,√,√,√,√,√,√,√,R,R,013-8591515,013-8592221,الخبر,الشرقة,مستشفى جاما ( اسطون )
109,8,AL SALAMAH HOSPITAL,EASTERN,KHOBAR,KHOBAR,HOSPITAL,√,√,√,√,√,√,√,√,−,−,013-8641011,013-8641417,الخبر,الشرقة,مستشفى السمة
225,8,AL YOUSIF HOSPITAL MED. SERVICE,EASTERN,KHOBAR,AL THUQBA,HOSPITAL,√,√,√,√,√,√,√,√,R,R,013-8642751,013-8642731,الخبر,الشرقة,مستشفى الوسف للخدمات الطبة
3998,4,AL DAWAA MEDICAL SERVICES CO.,EASTERN,KHOBAR,QURTUBA,PHARMACY,√,√,√,√,−,−,−,−,−,−,013-8677776,013-8670201,الخبر,الشرقة,مجموعة صدلات الدواء
837,4,AL HILAL PHARMACY,EASTERN,KHOBAR,KHOBAR,PHARMACY,√,√,√,√,−,−,−,−,−,−,013-8641551,013-8646822,الخبر,الشرقة,صدلة الھل الطبة
189,9,KHOBAR COOPERATIVE CLINIC,EASTERN,KHOBAR,AQRABIA DISTRICT,CLINIC,√,√,√,√,√,√,√,√,√,−,013-8640141,013-8936205,الخبر,الشرقة,مجمع الخبر التعاوني
276,6,AL JAZIRAH CLINIC,EASTERN,KHOBAR,KHOBAR,CLINIC,√,√,√,√,√,√,−,−,−,−,013-8982022,013-8951196,الخبر,الشرقة,مجمع الجزرة الطبي
142,9,DR LAYLA AL ONAIZI POLYCLINIC,EASTERN,KHOBAR,KHOBAR,CLINIC,√,√,√,√,√,√,√,√,√,−,013-8574040,013-8477010,الخبر,الشرقة,مجمع الدكتورة للى العنزي
926,10,SHIFA AL KHOBAR POLYCLINIC,EASTERN,KHOBAR,KHOBAR,CLINIC,√,√,√,√,√,√,√,√,√,√,013-8944984,013-8948519,الخبر,الشرقة,مجمع عادات شفاء الخبر
5448,10,DURRAT ALKHOZAMA MEDICAL COMPLEX,EASTERN,KHOBAR,KHOZAMA,CLINIC,√,√,√,√,√,√,√,√,√,√,013-8020882,013-8020882,الخبر,الشرقة,مجمع درة الخزامى الطبي
3179,1,IMAM ABDUL RAHMAN AL FAISAL NATIONAL GUARD HOSPITAL,EASTERN,DAMMAM,DAMMAM,HOSPITAL,√,−,−,−,−,−,−,−,−,−,013-8581111,013-8581111,الدمام,الشرقة,مستشفى امام عبدالرحمن الفصل بالحرس الوطني - الدمام
3876,2,CARDIO VASCULAR CENTER,EASTERN,DAMMAM,AL RABIE,CENTER,√,√,−,−,−,−,−,−,−,−,013-8276195,013-8274237,الدمام,الشرقة,عادات امراض القلب واوعة الدموة
4637,4,KING FAHAD SPECIALIZED HOSPITAL - DAMMAM,EASTERN,DAMMAM,ALMURYKBAT,HOSPITAL,√,√,√,√,−,−,−,−,−,−,013-8442222,013-8442222,الدمام,الشرقة,مستشفى الملك فھد التخصصي بالدمام
4542,4,MATERNITY & CHILDREN HOSPITAL-DAMMAM,EASTERN,DAMMAM,BESAID THE KING FAHAD HOSPITAL,HOSPITAL,√,√,√,√,−,−,−,−,−,−,013-8448721,013-8448721,الدمام,الشرقة,مستشفى الودة واطفال بالدمام
4541,4,DAMMAM CENTRAL CLINIC,EASTERN,DAMMAM,75 AREA,HOSPITAL,√,√,√,√,−,−,−,−,−,−,013-8557777,013-8155769,الدمام,الشرقة,مجمع الدمام المركزي
3754,4,SAUD AL BABTAIN CARDIAC CENTER,EASTERN,DAMMAM,AL JALAWIAH,HOSPITAL,√,√,√,√,−,−,−,−,−,−,013-8155685,013-8155686,الدمام,الشرقة,مركز سعود البابطن لطب وجراحة القلب
111,4,AL MANA GENERAL HOSPITAL (DAMAM),EASTERN,DAMMAM,ABDULLAH FOUAD DISTRICT,HOSPITAL,√,√,√,√,−,−,−,−,−,−,013-8890661,013-8893424,الدمام,الشرقة,مستشفى المانع العام
5425,2,SAUDI GERMAN HOSPITAL - DAMMAM,EASTERN,DAMMAM,AMANA,HOSPITAL,√,√,−,−,−,−,−,−,−,−,920007997,013-8016000,الدمام,الشرقة,مستشفى السعودي الماني
5450,4,GHARNATAH MEDICAL CENTER - MOH,EASTERN,DAMMAM,GHARNATAH,CLINIC,√,√,√,√,−,−,−,−,−,−,013-8433611,013-8433611,الدمام,الشرقة,مركز صحي غرناطة - وزارة الصحة
4394,4,CLINIC 9 MEDICAL CENTER,EASTERN,DAMMAM,AL MOHAMMDIYA,CLINIC,√,√,√,√,−,−,−,−,−,−,920008174,920008174,الدمام,الشرقة,مجمع التاسعة الجدد الطبي
1083,4,EXCELLENCE FOR PHYSIOTHERAPY,EASTERN,DAMMAM,JULAWIYAH DISTRICT,CENTER,√,√,√,√,−,−,−,−,−,−,013-8154119,013-8154463,الدمام,الشرقة,مركز التمز فى العج الطبعي بالدمام
8,4,AL MOUWASAT HOSPITAL (DAMAM),EASTERN,DAMMAM,RABWA DISTRICT,HOSPITAL,√,√,√,√,−,−,−,−,−,−,013-8200000,013-8203436,الدمام,الشرقة,مستشفى المواساة
4318,6,DR. ALNAAMY SPECIALIST HOSPITAL (GENERAL CARE PREV.),EASTERN,DAMMAM,AL BALADIYAH,HOSPITAL,√,√,√,√,√,√,R,R,R,R,013-8467777,013-8469921,الدمام,الشرقة,مستشفى الدكتور حسن النعمي (العناة الشاملة سابقا)
1589,6,ARRAWDHA GENERAL HOSPITAL,EASTERN,DAMMAM,ALTUBESHI,HOSPITAL,√,√,√,√,√,√,−,−,−,−,013-8346555,013-8339056,الدمام,الشرقة,مستشفى الروضة العام
244,6,ARRAWDHA DISPENSARY,EASTERN,DAMMAM,ALTUBESHI,CLINIC,√,√,√,√,√,√,−,−,−,−,013-8346555,013-8341991,الدمام,الشرقة,مجمع الروضة الطبي العام
1631,6,DAR AL AFIA MEDICAL GROUP,EASTERN,DAMMAM,DAMMAM,CLINIC,√,√,√,√,√,√,−,−,−,−,013-8050101,013-8050103,الدمام,الشرقة,مجموعة دار العافة الطبة – المجمع الطبي
1685,6,KAHHAL MEDICAL COMPLEX,EASTERN,DAMMAM,ALMUBARKIYA DISTRICT,CLINIC,√,√,√,√,√,√,−,−,−,−,013-8097777,013-8097106,الدمام,الشرقة,مستوصف الكحال الطبي
610,6,ALNAAMY MEDICAL CENTER (GENERAL CARE PREV.),EASTERN,DAMMAM,DAMMAM,CLINIC,√,√,√,√,√,√,−,−,−,−,013-8467777,013-8416177,الدمام,الشرقة,مجمع النعمي الطبي ( العناة الشاملة سابقا)
1802,6,CANADIAN MEDICAL CENTER,EASTERN,DAMMAM,DAWASIR DISTRICT,CLINIC,√,√,√,√,√,√,−,−,−,−,013-8188320,013-8188059,الدمام,الشرقة,مجمع المركز الكندي الطبي
4563,6,LAMA MEDICAL CENTER,EASTERN,DAMMAM,FAISALYAH,CLINIC,√,√,√,√,√,√,−,−,−,−,013-8115131,013-8119577,الدمام,الشرقة,مجمع ما الطبي
4108,6,AL SAIF MEDICAL CENTER,EASTERN,DAMMAM,AL BUHAYRAH,CENTER,√,√,√,√,√,√,−,−,−,−,013-8383600,013-8383338,الدمام,الشرقة,مجمع السف الطبي
1920,6,DIAMOND DENTAL CENTER,EASTERN,DAMMAM,DAMMAM,CENTER,√,√,√,√,√,√,−,−,−,−,013-8117979,013-8117978,الدمام,الشرقة,مجمع الماس لطب وتقوم اسنان
5313,10,MURJAN MEDICAL COMPLEX,EASTERN,DAMMAM,HAJR,CLINIC,√,√,√,√,√,√,√,√,√,√,013-8681000,013-8997887,الدمام,الشرقة,مجمع عادات مرجان السعودة
2214,4,RAM DENTAL CLINIC -1 (DAM),EASTERN,DAMMAM,AL HAMRA,CENTER,√,√,√,√,−,−,−,−,−,−,013-8356755,013-8356750,الدمام,الشرقة,مركز رام لطب اسنان - 1
2215,4,RAM DENTAL CARE -2 (DAM),EASTERN,DAMMAM,ALMEREKBAT DISTRICT,CENTER,√,√,√,√,−,−,−,−,−,−,013-8425701,013-8425384,الدمام,الشرقة,مركز رام لطب اسنان - 2
5371,6,AVICENA DENTAL COMPANY - 2,EASTERN,DAMMAM,DAMMAM,CENTER,√,√,√,√,√,√,−,−,−,−,920009691,920009691,الدمام,الشرقة,مجمع بن سنا لطب اسنان - 2
5373,6,AVICENA DENTAL COMPANY - 4,EASTERN,DAMMAM,DAMMAM,CENTER,√,√,√,√,√,√,−,−,−,−,920009691,920009691,الدمام,الشرقة,مجمع بن سنا لطب اسنان - 4
5376,6,AVICENA DENTAL COMPANY - 7,EASTERN,DAMMAM,DAMMAM,CENTER,√,√,√,√,√,√,−,−,−,−,920009691,920009691,الدمام,الشرقة,مجمع بن سنا لطب اسنان - 7
5377,6,DR. GHASSANA SADIQ DENTAL CENTER,EASTERN,DAMMAM,DAMMAM,CENTER,√,√,√,√,√,√,−,−,−,−,920009691,920009691,الدمام,الشرقة,عادات د. غسانة صادق الطبة
4839,6,ROYAL DENTAL COMPLEX - DAMMAM,EASTERN,DAMMAM,AL RAWDHA,CENTER,√,√,√,√,√,√,−,−,−,−,013-8426699,013-8421199,الدمام,الشرقة,مجمع عادات روال لطب اسنان
816,10,DAMMAM MEDICAL DISPENSARY,EASTERN,DAMMAM,MADINAT ALAMAL,CLINIC,√,√,√,√,√,√,√,√,√,√,013-8271388,013-8058899,الدمام,الشرقة,مجمع الدمام الطبي
719,10,DAR ASSIHHA DISPENSARY,EASTERN,DAMMAM,AL ANOOD,CLINIC,√,√,√,√,√,√,√,√,√,√,013-8177899,013-8172923,الدمام,الشرقة,مجمع دار الصحة
2053,6,SHAMS AL FARABI DENTAL (NOOR AL MADAR DENTAL -2 PREV.),EASTERN,DAMMAM,ANAK,CENTER,√,√,√,√,√,√,−,−,−,−,013-8361005,013-8630715,الدمام,الشرقة,مجمع شمس الفاارابي لطب اسنان (مركز نور المدار لطب اسنان  سابقا)
443,8,TADAWI GENERAL HOSPITAL,EASTERN,DAMMAM,MAZROYAH DISTRICT,HOSPITAL,√,√,√,√,√,√,√,√,R,R,013-8348777,013-8347818,الدمام,الشرقة,مستشفى تداوي العام
902,8,CONSULTANT RADIOLOGIST (DAMAM),EASTERN,DAMMAM,AL TOBAISHI,CENTER,√,√,√,√,√,√,√,√,−,−,013-8301718,013-8342266,الدمام,الشرقة,شركة مركز استشارون لشعة التشخصة
3998,4,AL DAWAA MEDICAL SERVICES CO.,EASTERN,DAMMAM,QURTUBA,PHARMACY,√,√,√,√,−,−,−,−,−,−,013-8677776,013-8670201,الدمام,الشرقة,مجموعة صدلات الدواء
1866,9,AL WAZZAN VISION,EASTERN,DAMMAM,MAZROUA DISTRICT,CENTER,√,√,√,√,√,√,√,√,√,−,013-8524056,013-8524120,الدمام,الشرقة,الوزان للبصرات
3503,10,AL MANA DISPENSARY (DAMAM),EASTERN,DAMMAM,AL SUNAEYAH 2,CLINIC,√,√,√,√,√,√,√,√,√,√,013-8890661,013-8893424,الدمام,الشرقة,مجمع المانع العام (الدمام)
1365,10,DAR AL HEKMAH,EASTERN,DAMMAM,ABDULLAH FOUAD DISTRICT,CLINIC,√,√,√,√,√,√,√,√,√,√,013-8264749,013-8264750,الدمام,الشرقة,مستوصف دار الحكمة
1025,10,AL RAI MEDICAL DISPENSARY,EASTERN,DAMMAM,DAMMAM,CLINIC,√,√,√,√,√,√,√,√,√,√,013-8113131,013-8182586,الدمام,الشرقة,مجمع الراي الطبي
4320,9,AL RAYAN EXTRAORDINARY POLYCLINIC,EASTERN,DAMMAM,DAMMAM,CLINIC,√,√,√,√,√,√,√,√,√,−,013-8330233,013-8324864,الدمام,الشرقة,مجمع عادات الران المتمزة الطبي
574,9,BADR AL RABIE DISPANSARY,EASTERN,DAMMAM,DAMMAM,CLINIC,√,√,√,√,√,√,√,√,√,−,013-8340903,013-8325759,الدمام,الشرقة,مجمع  بدر الربع الطبي
1682,10,AJYAD POLYCLINIC,EASTERN,DAMMAM,ALTUBASHI DIS,CLINIC,√,√,√,√,√,√,√,√,√,√,013-8056444,013-8051383,الدمام,الشرقة,مجمع عادات اجاد الطبي
1368,10,FAJAR DAMMAM MEDICAL COMPLEX,EASTERN,DAMMAM,GURNATA DISTRICT,CLINIC,√,√,√,√,√,√,√,√,√,√,013-8152555,013-8436788,الدمام,الشرقة,مجمع فجر الدمام الطبي
4110,9,ZAHRAT AL ABEER MEDICAL COMPLEX,EASTERN,DAMMAM,AL KHALEEJ,CLINIC,√,√,√,√,√,√,√,√,√,−,013-8357867,013-8350724,الدمام,الشرقة,مجمع عادات زھرة العبر الطبي
619,10,AHMADI MEDICAL CENTER,EASTERN,DAMMAM,OHOD DISTRICT,CLINIC,√,√,√,√,√,√,√,√,√,√,013-8211111,013-8203260,الدمام,الشرقة,مجمع احمدي الطبي
1880,10,SAFA DAMMAM MEDICAL DIAGNOSTIC CENTER,EASTERN,DAMMAM,AL ADAMAH,CLINIC,√,√,√,√,√,√,√,√,√,√,013-8341016,013-8333792,الدمام,الشرقة,مجمع عادات صفاء الدمام التشخصي
1607,10,AL DUKAIR CLINIC,EASTERN,DAMMAM,BIN KHALDON DIS,CLINIC,√,√,√,√,√,√,√,√,√,√,013-8427461,013-8415477,الدمام,الشرقة,مجمع الذكر الطبي
1745,10,DAMMAM NATIONAL DISPENSARY,EASTERN,DAMMAM,JALAWAIA AREA,CLINIC,√,√,√,√,√,√,√,√,√,√,013-8434090,013-8429198,الدمام,الشرقة,مجمع عادات الدمام اھلي
112,9,AL FARABY DISPENSARY,EASTERN,DAMMAM,TELECOM DISTRICT,CLINIC,√,√,√,√,√,√,√,√,√,−,013-8420909,013-8465663,الدمام,الشرقة,مستوصف الفارابي
2184,9,AL FARABY DISPENSARY (1st.INDUST. CITY),EASTERN,DAMMAM,INDUSTRIAL CITY,CLINIC,√,√,√,√,√,√,√,√,√,−,013-8474080,013-8473553,الدمام,الشرقة,مجمع الفارابي  (الدمام الصناعة)
5469,1,KING FAHD MILITARY MEDICAL COMPLEX,EASTERN,DHAHRAN,DHAHRAN,HOSPITAL,√,−,−,−,−,−,−,−,−,−,013-8440000,013-8440000,الظھران,الشرقة,مجمع الملك فھد الطبي العسكري بالظھران-وزارة الدفاع
4544,4,EYE SPECIALIZED HOSPITAL-DAHRAN,EASTERN,DHAHRAN,AL JAMAH,HOSPITAL,√,√,√,√,−,−,−,−,−,−,013-8914226,013-8918222,الظھران,الشرقة,مستشفى العون التخصصي بالظھران
5159,10,AL DOHA MEDICAL CLINIC,EASTERN,DHAHRAN,DOHA,CLINIC,√,√,√,√,√,√,√,√,√,√,013-8913111,013-8914012,الظھران,الشرقة,مجمع الدوحة الطبي
118,9,AL FARABY MEDICAL CENTER (DOHA),EASTERN,DHAHRAN,DOHA,CLINIC,√,√,√,√,√,√,√,√,√,−,013-8911887,013-8914469,الظھران,الشرقة,مستوصف الفارابي -  حي الدوحة
5434,4,ANAK GENERAL HOSPITAL,EASTERN,ANAK,ANAK,HOSPITAL,√,√,√,√,−,−,−,−,−,−,013-8361616,013-8361616,عنك,الشرقة,مستشفى عنك العام
5296,4,AL QARIYA AL ULYA GENERAL HOSPITAL,EASTERN,AL QARIYA AL ULYA,AL QARIYA AL ULYA,HOSPITAL,√,√,√,√,−,−,−,−,−,−,013-3863303,013-3863303,القرة العلا,الشرقة,مستشفى القرة العلا العام
115,8,AL SADIQ HOSPITAL,EASTERN,SIHAT,SEIHAT DISTRICT,HOSPITAL,√,√,√,√,√,√,√,√,−,−,013-8500160,013-8503127,سھات,الشرقة,مستشفى الصادق
1847,8,RUBBAN MEDICAL CENTRE,EASTERN,SIHAT,ALFERDOS DISTRICT,CLINIC,√,√,√,√,√,√,√,√,−,−,013-8387401,013-8391151,سھات,الشرقة,مجمع الربان الطبي
3668,8,ZUHAIR AL SHUWAIKHAT OPTICAL CENTER,EASTERN,SIHAT,SAHAT,CENTER,√,√,√,√,√,√,√,√,−,−,013-8505205,013-8505205,سھات,الشرقة,مركز زھر الشوخات للبصرات
3998,4,AL DAWAA MEDICAL SERVICES CO.,EASTERN,SIHAT,QURTUBA,PHARMACY,√,√,√,√,−,−,−,−,−,−,013-8677776,013-8670201,سھات,الشرقة,مجموعة صدلات الدواء
709,10,AL MADLOUH DISPENSARY,EASTERN,SIHAT,ALFERDOS DISTRICT,CLINIC,√,√,√,√,√,√,√,√,√,√,013-8500208,013-8383403,سھات,الشرقة,مجمع المدلوح الطبي
4659,4,AL QATIF CENTRAL HOSPITAL,EASTERN,AL QATIF,ALJESH,HOSPITAL,√,√,√,√,−,−,−,−,−,−,013-8361000,013-8360040,القطف,الشرقة,مستشفى القطف المركزي
5449,4,ALSHWEKA PHC - MOH,EASTERN,AL QATIF,ALSHWEKA,CLINIC,√,√,√,√,−,−,−,−,−,−,013-8554087,013-8554087,القطف,الشرقة,مركز صحي الشوكة- وزارة الصحة
5369,4,MEDICAL BALSAM PHARMACY GROUP,EASTERN,AL QATIF,AL QATIF,PHARMACY,√,√,√,√,−,−,−,−,−,−,013-8241000,013-8239667,القطف,الشرقة,مجموعة صدلات البلسم الطبي
705,4,AL MOUWASAT HOSPITAL (QATIF),EASTERN,AL QATIF,ALQATIF,HOSPITAL,√,√,√,√,−,−,−,−,−,−,013-8512222,013-8551651,القطف,الشرقة,مستشفى المواساة
4023,6,REVIVE MEDICAL CENTER (UMM AL HAMMAM PREV.),EASTERN,AL QATIF,UMM AL HAMMAM,CLINIC,√,√,√,√,√,√,−,−,−,−,013-8367888,013-8367912,القطف,الشرقة,مجمع شركة استعادة الحاة الطبي ام الحمام الخرة
3758,4,RAM DENTAL CARE - AL QATIF,EASTERN,AL QATIF,AL MAJIDYA,CENTER,√,√,√,√,−,−,−,−,−,−,013-8559004,013-8634712,القطف,الشرقة,عادات رام لطب اسنان
5372,6,AVICENA DENTAL COMPANY - 3,EASTERN,AL QATIF,AL QATIF,CENTER,√,√,√,√,√,√,−,−,−,−,920009691,920009691,القطف,الشرقة,مجمع بن سنا لطب اسنان - 3
91,8,AL ZAHRAA HOSPITAL (QATIF),EASTERN,AL QATIF,QATIF DISTRICT,HOSPITAL,√,√,√,√,√,√,√,√,R,R,013-8555333,013-8545002,القطف,الشرقة,مستشفى الزھراء
2054,6,NOOR AL MADAR DENTAL -3,EASTERN,AL QATIF,ALMAJIDAIAH AREA,CENTER,√,√,√,√,√,√,−,−,−,−,013-8525858,011-2478840,القطف,الشرقة,مركز نور المدار لطب اسنان
337,8,SAFA SOCIAL SOCIETY,EASTERN,AL QATIF,ALAFRAH DISTRICT,CLINIC,√,√,√,√,√,√,√,√,−,−,013-6641637,013-6641641,القطف,الشرقة,مجمع عادات جمعة الصفا الخرة
3669,8,ZUHAIR AL SHUWAIKHAT OPTICAL CENTER,EASTERN,AL QATIF,ALQATEF,CENTER,√,√,√,√,√,√,√,√,−,−,013-8548551,013-8630466,القطف,الشرقة,مركز زھر الشوخات للبصرات
3998,4,AL DAWAA MEDICAL SERVICES CO.,EASTERN,AL QATIF,QURTUBA,PHARMACY,√,√,√,√,−,−,−,−,−,−,013-8677776,013-8670201,القطف,الشرقة,مجموعة صدلات الدواء
2368,10,BADR AL JAZEERA POLYCLINIC,EASTERN,AL QATIF,ALQATIF,CLINIC,√,√,√,√,√,√,√,√,√,√,013-8635000,013-8661466,القطف,الشرقة,مجمع عادات بدر الجزرة الطبي
1637,9,MUDAR CHARITABLE SOCIETY,EASTERN,AL QATIF,QUDAI,CLINIC,√,√,√,√,√,√,√,√,√,−,013-8558513,013-8637723,القطف,الشرقة,مجمع جمعة مضر الخرة
351,10,CENTER OF MEDICAL EXCELLENCE,EASTERN,AL QATIF,MAZROUA DISTRICT,CLINIC,√,√,√,√,√,√,√,√,√,√,013-8511318,013-8511379,القطف,الشرقة,مجمع عادات امتاز الطبي
913,9,AL BATI DISPENSARY,EASTERN,AL QATIF,QATIF,CLINIC,√,√,√,√,√,√,√,√,√,−,013-8232811,013-8231076,القطف,الشرقة,مجمع آل بطي الطبي
1865,9,AL HADI MEDICAL CLINIC,EASTERN,TAROOT,TAROUT,CLINIC,√,√,√,√,√,√,√,√,√,−,013-8230333,013-8233684,تاروت,الشرقة,مجمع عادات طب الھادي
5288,4,RAS TANNURA GENERAL HOSPITAL - MOH,EASTERN,RAS TANNURA,RAS TANNURA,HOSPITAL,√,√,√,√,−,−,−,−,−,−,013-6674444,013-6676320,راس تنورة,الشرقة,مستشفى رأس تنورة
174,8,AL TAAFI DISPENSARY,EASTERN,RAS TANNURA,DAMMAM DISTRICT,CLINIC,√,√,√,√,√,√,√,√,−,−,013-6680505,013-6670457,راس تنورة,الشرقة,مجمع عادات التعافي
3670,8,ZUHAIR AL SHUWAIKHAT OPTICAL CENTER,EASTERN,RAS TANNURA,RAS TNNURA,CENTER,√,√,√,√,√,√,√,√,−,−,013-6681816,013-6681816,راس تنورة,الشرقة,مركز زھر الشوخات للبصرات
3998,4,AL DAWAA MEDICAL SERVICES CO.,EASTERN,RAS TANNURA,QURTUBA,PHARMACY,√,√,√,√,−,−,−,−,−,−,013-8677776,013-8670201,راس تنورة,الشرقة,مجموعة صدلات الدواء
90,10,RAHIMA MEDICAL POLYCLINIC,EASTERN,RAS TANNURA,ALMOQAWELEEN DISTRICT,CLINIC,√,√,√,√,√,√,√,√,√,√,013-6674490,013-6680789,راس تنورة,الشرقة,مجمع عادات رحمة اھلي
1023,9,SHIFA RAHIMA DISPENSARY,EASTERN,RAS TANNURA,ALSHAMALIYA DISTRICT,CLINIC,√,√,√,√,√,√,√,√,√,−,013-6672525,013-6672929,راس تنورة,الشرقة,مجمع عادات شفاء رحمة الطبي
1182,8,SPECIALIST POLYCLINIC COMPLEX,EASTERN,SAFWA,AL HAZEM DISTRICT,CLINIC,√,√,√,√,√,√,√,√,−,−,013-6644116,013-6647273,صفوى,الشرقة,مجمع العادات التخصصة الطبي
3998,4,AL DAWAA MEDICAL SERVICES CO.,EASTERN,SAFWA,QURTUBA,PHARMACY,√,√,√,√,−,−,−,−,−,−,013-8677776,013-8670201,صفوى,الشرقة,مجموعة صدلات الدواء
710,10,SALAMATAK DISPENSARY,EASTERN,SAFWA,SAFWA,CLINIC,√,√,√,√,√,√,√,√,√,√,013-6642193,013-6630539,صفوى,الشرقة,مجمع سمتك الطبي
1664,4,ROYAL COMMISSION HOSPITAL (JUBAIL),EASTERN,AL JUBAIL / INDUS,INDUSTRIAL CITY,HOSPITAL,√,√,√,√,−,−,−,−,−,−,013-3464000,013-3464603,الجبل/ صناعة,الشرقة,مستشفى الھئة الملكة
256,4,AL MANA GENERAL HOSPITAL (JUBAIL),EASTERN,AL JUBAIL / INDUS,INDUSTRIAL AREA,HOSPITAL,√,√,√,√,−,−,−,−,−,−,013-8890661,013-8980772,الجبل/ صناعة,الشرقة,مستشفى المانع العام
3125,4,AL MANA DISPENSARY-JUBAIL,EASTERN,AL JUBAIL / INDUS,AL DUFA,CLINIC,√,√,√,√,−,−,−,−,−,−,013-8890661,013-8980772,الجبل/ صناعة,الشرقة,مجمع المانع الطبي -الجبل
5374,6,AVICENA DENTAL COMPANY - 5,EASTERN,AL JUBAIL / INDUS,AL JUBAIL / INDUS,CENTER,√,√,√,√,√,√,−,−,−,−,920009691,920009691,الجبل/ صناعة,الشرقة,مجمع بن سنا لطب اسنان - 5
157,4,AL MOUWASAT HOSPITAL (JUBAIL),EASTERN,AL JUBAIL / INDUS,JUBAIL,HOSPITAL,√,√,√,√,R,R,R,R,R,R,013-3490000,013-3491256,الجبل/ صناعة,الشرقة,مستشفى المواساة
932,8,AL LULU COMPLEX,EASTERN,AL JUBAIL / INDUS,DAMMAM,CLINIC,√,√,√,√,√,√,√,√,−,−,013-3485555,013-3482200,الجبل/ صناعة,الشرقة,مجمع اللؤلؤ الطبي
3998,4,AL DAWAA MEDICAL SERVICES CO.,EASTERN,AL JUBAIL / INDUS,QURTUBA,PHARMACY,√,√,√,√,−,−,−,−,−,−,013-8677776,013-8670201,الجبل/ صناعة,الشرقة,مجموعة صدلات الدواء
2224,10,AL NABA DISPENSARY FOR MEDICAL SERVICE,EASTERN,AL JUBAIL / INDUS,ALFANATEER DISTRICT,CLINIC,√,√,√,√,√,√,√,√,√,√,013-3471111,013-3478000,الجبل/ صناعة,الشرقة,مجمع النبأ للخدمات الطبة
1736,4,JUBAIL GENERAL HOSPITAL (MOH),EASTERN,AL JUBAIL,TAIBA,HOSPITAL,√,√,√,√,−,−,−,−,−,−,011-4050714,013-8414355,الجبل,الشرقة,مستشفى الجبل العام ( وزارة الصحة )
3561,4,RAM DENTAL (JUBAIL),EASTERN,AL JUBAIL,SEA VIEW,CENTER,√,√,√,√,−,−,−,−,−,−,013-3472323,013-8640828,الجبل,الشرقة,مركز رام لطب اسنان(الجبل)
5370,6,AVICENA DENTAL COMPANY - 1,EASTERN,AL JUBAIL,AL JUBAIL,CENTER,√,√,√,√,√,√,−,−,−,−,920009691,920009691,الجبل,الشرقة,مجمع بن سنا لطب اسنان - 1
649,8,AL KHONAINI MEDICAL SERVICES COMPLEX,EASTERN,AL JUBAIL,AL WAHA DISTRICT,CLINIC,√,√,√,√,√,√,√,√,−,−,013-3410110,013-3616569,الجبل,الشرقة,مجمع محمد سلمان الخنني للخدمات الطبة
4314,4,ARRAZI CLINICS,EASTERN,AL JUBAIL,JUBAIL,CLINIC,√,√,√,√,√,√,−,−,−,−,013-3627373,013-3627869,الجبل,الشرقة,مجمع عادات الرازي الطبي
1701,8,ZUHAIR AL SHUWAIKHAT OPTICAL CENTER,EASTERN,AL JUBAIL,DEERA DISTRICT,CENTER,√,√,√,√,√,√,√,√,−,−,013-8350024,013-8548551,الجبل,الشرقة,مركز زھر الشوخات للبصرات
5315,8,AL MAGHLOUTH OPTICAL - JUBAIL,EASTERN,AL JUBAIL,SAFWAN,CENTER,√,√,√,√,√,√,√,√,−,−,013-5313333,013-5313010,الجبل,الشرقة,المغلوث للبصرات - الجبل
3998,4,AL DAWAA MEDICAL SERVICES CO.,EASTERN,AL JUBAIL,QURTUBA,PHARMACY,√,√,√,√,−,−,−,−,−,−,013-8677776,013-8670201,الجبل,الشرقة,مجموعة صدلات الدواء
1029,10,JUBAIL MEDICARE COMPLEX MUTLAQ AL OTAIBI PREV.,EASTERN,AL JUBAIL,KHAFGI,CLINIC,√,√,√,√,√,√,√,√,√,√,013-3631888,013-3635666,الجبل,الشرقة,مجمع رعاة الجبل الطبي (مركز مطلق العتبي سابقا)
2284,9,SAHEL REEM OPTICS (JUBAIL),EASTERN,AL JUBAIL,ALTAWYAH,CENTER,√,√,√,√,√,√,√,√,√,−,013-3407716,013-3407716,الجبل,الشرقة,مركز ساحل رم للنظارات
2924,9,AL ANSARI OPTICAL - AL JUBAIL,EASTERN,AL JUBAIL,ALFANATEIR DISTRICT,CENTER,√,√,√,√,√,√,√,√,√,−,013-3461611,013-3461611,الجبل,الشرقة,انصاري للبصرات - الھئة الملكة بالجبل
1668,10,DINA POLYCLINIC FOR MEDICAL SERVICES,EASTERN,AL JUBAIL,AL MURGAB,CLINIC,√,√,√,√,√,√,√,√,√,√,013-3611993,013-3610911,الجبل,الشرقة,مجمع دنا للخدمات الطبة
1164,6,DANAT ALSAHRAA MEDICAL COMPLEX (SUN CITYS PREV.),EASTERN,AL JUBAIL,ALJANOUBIYA DIS,CLINIC,√,√,√,√,√,√,−,−,−,−,013-3620039,013-3621312,الجبل,الشرقة,مجمع شركة دانة الصحراء الطبة (شمس المدن سابقا)
1108,9,SHIFA AL JUBAIL MEDICAL CENTER,EASTERN,AL JUBAIL,JUBAIL,CLINIC,√,√,√,√,√,√,√,√,√,−,013-3611777,013-3630943,الجبل,الشرقة,مركز شفاء الجبل الطبي
5314,10,BADR AL KHALEEJ MEDICAL CENTER,EASTERN,AL JUBAIL,ALDANA,CLINIC,√,√,√,√,√,√,√,√,√,√,013-3643000,013-3630333,الجبل,الشرقة,مجمع عادات بدر الخلج الطبي
4657,4,AL KHAFJI GENERAL HOSPITAL,EASTERN,AL KHAFJI,AL KHALIDIYA,HOSPITAL,√,√,√,√,−,−,−,−,−,−,013-7666865,013-7666882,الخفجي,الشرقة,مستشفى الخفجي العام
4842,6,MAMLAKAT ALTEB DENTAL COMPLEX,EASTERN,AL KHAFJI,AL MUTHALATH,CENTER,√,√,√,√,√,√,−,−,−,−,013-7674545,013-7674646,الخفجي,الشرقة,مجمع عادات مملكة الطب
4843,6,AL ARAK MEDICAL DENTAL COMPLEX,EASTERN,AL KHAFJI,SHIMALYAH,CENTER,√,√,√,√,√,√,−,−,−,−,013-7674545,013-7673814,الخفجي,الشرقة,مجمع عادات اراك لطب اسنان
1019,8,AL KHAFJI NATIONAL HOSPITAL,EASTERN,AL KHAFJI,HAMRA DISTRICT,HOSPITAL,√,√,√,√,√,√,√,√,R,R,013-7661111,013-7663356,الخفجي,الشرقة,مستشفى الخفجي اھلي
3998,4,AL DAWAA MEDICAL SERVICES CO.,EASTERN,AL KHAFJI,QURTUBA,PHARMACY,√,√,√,√,−,−,−,−,−,−,013-8677776,013-8670201,الخفجي,الشرقة,مجموعة صدلات الدواء
1677,10,ROYAL MEDICAL COMPLEX ( ALMANAR PREV.),EASTERN,AL KHAFJI,ALYASMIN DISTRICT,CLINIC,√,√,√,√,√,√,√,√,√,√,013-7666454,013-7666225,الخفجي,الشرقة,مجمع عادات روال الطبة بالخفجي ( المنار سابقا)
4543,4,AL NUWAIRIYAH GENERAL HOSPITAL,EASTERN,AL NUAIRIYAH,AL MUHAMADYA,HOSPITAL,√,√,√,√,−,−,−,−,−,−,013-3731000,013-3730192,النعرة,الشرقة,مستشفى النعرة العام
3998,4,AL DAWAA MEDICAL SERVICES CO.,EASTERN,AL NUAIRIYAH,QURTUBA,PHARMACY,√,√,√,√,−,−,−,−,−,−,013-8677776,013-8670201,النعرة,الشرقة,مجموعة صدلات الدواء
3665,9,AL NUAIRIYAH MEDICAL COMPLEX,EASTERN,AL NUAIRIYAH,AL NUAIRIYAH,CLINIC,√,√,√,√,√,√,√,√,√,−,013-3731100,013-3732200,النعرة,الشرقة,مجمع عادات النعرة الطبي
5169,10,MAIDAN MEDICAL CLINICS CENTER,EASTERN,AL NUAIRIYAH,AL AZIZIYA,CLINIC,√,√,√,√,√,√,√,√,√,√,013-3730665,013-3730665,النعرة,الشرقة,مجمع المدان ازرق الطبي
1739,4,KING KHALID HOSPITAL (MOH) (HAFR AL BATIN),EASTERN,HAFAR ALBATIN,MUNICIPAL DISTRICT,HOSPITAL,√,√,√,√,−,−,−,−,−,−,011-4050714,013-7232042,حفر الباطن,الشرقة,مستشفى الملك خالد ( وزارة الصحة ) (حفر الباطن)
4502,4,HAFR AL BATIN CENTRAL HOSPITAL,EASTERN,HAFAR ALBATIN,QURTUBAH,HOSPITAL,√,√,√,√,−,−,−,−,−,−,013-7298388,013-7294418,حفر الباطن,الشرقة,مستشفى حفر الباطن المركزي
4503,4,MATERNITY & CHILDREN HOSPITAL-HAFR ALBATN,EASTERN,HAFAR ALBATIN,AL BATN,HOSPITAL,√,√,√,√,−,−,−,−,−,−,013-7212859,013-7292628,حفر الباطن,الشرقة,مستشفى الودة واطفال بحفر الباطن
4668,8,AL MAALI HOSPITAL,EASTERN,HAFAR ALBATIN,HAFR ALBATIN,HOSPITAL,√,√,√,√,√,√,√,√,R,R,013-7663628,013-3630706,حفر الباطن,الشرقة,مستشفى شركة المعالي الطبة
734,8,DR NOOR MOHAMMED KHAN GEN. HOSP.,EASTERN,HAFAR ALBATIN,ALAQARIYA DISTRICT,HOSPITAL,√,√,√,√,√,√,√,√,R,R,013-7225550,013-7221417,حفر الباطن,الشرقة,مستشفى نور محمد خان العام
1997,8,NOOR MOHAMMED KHAN POLYCLINIC,EASTERN,HAFAR ALBATIN,HAFR ALBATIN,CLINIC,√,√,√,√,√,√,√,√,−,−,013-7220701,013-7222355,حفر الباطن,الشرقة,مجمع نور محمد خان الطبي
3998,4,AL DAWAA MEDICAL SERVICES CO.,EASTERN,HAFAR ALBATIN,QURTUBA,PHARMACY,√,√,√,√,−,−,−,−,−,−,013-8677776,013-8670201,حفر الباطن,الشرقة,مجموعة صدلات الدواء
2720,9,RAWAAT AL MAHA OPTICALS -HAFAR ALBATEN,EASTERN,HAFAR ALBATIN,AL RABWAH,CENTER,√,√,√,√,√,√,√,√,√,−,013-7253149,011-2374525,حفر الباطن,الشرقة,روعة المھا للبصرات -حفرالباطن
2897,9,FARZA OPTICS - HAFR ALBATEN,EASTERN,HAFAR ALBATIN,MUNICIPAL,CENTER,√,√,√,√,√,√,√,√,√,−,013-7294888,017-2250919,حفر الباطن,الشرقة,محل فرزة للنظارات -حفرالباطن
722,10,AL HUJELAN MEDICAL DISPENSARY,EASTERN,HAFAR ALBATIN,AZIZIYA DISTRICT,CLINIC,√,√,√,√,√,√,√,√,√,√,013-7225270,013-7217580,حفر الباطن,الشرقة,مجمع الحجن الطبي
1998,10,AL AUDA MEDICAL CENTER,EASTERN,HAFAR ALBATIN,MUNICIPAL,CLINIC,√,√,√,√,√,√,√,√,√,√,013-7248800,013-7248833,حفر الباطن,الشرقة,مجمع العودة الطبي
4545,4,BAQEEQ GENERAL HOSPTIAL,EASTERN,ABQAIQ,AL NUZHA,HOSPITAL,√,√,√,√,−,−,−,−,−,−,013-5662222,013-5663782,بقق,الشرقة,مستشفى بقق العام
3998,4,AL DAWAA MEDICAL SERVICES CO.,EASTERN,ABQAIQ,QURTUBA,PHARMACY,√,√,√,√,−,−,−,−,−,−,013-8677776,013-8670201,بقق,الشرقة,مجموعة صدلات الدواء
715,10,AL SHEFA DISPENSARY,EASTERN,ABQAIQ,ABQIQ,CLINIC,√,√,√,√,√,√,√,√,√,√,013-5663777,013-5662165,بقق,الشرقة,مستوصف الشفاء الطبي
1734,4,KING FAHAD HOSPITAL (MOH) (AL HASA),EASTERN,AL HOFUF,AL SAHEED,HOSPITAL,√,√,√,√,R,R,R,R,R,R,011-4050714,013-5752523,الھفوف,الشرقة,مستشفى الملك فھد ( وزارة الصحة ) (احساء)
4546,4,PRINCE SAUD BIN JALAWI HOSPITAL,EASTERN,AL HOFUF,KING FAISAL DISTRICT,HOSPITAL,√,√,√,√,−,−,−,−,−,−,013-5362541,013-5300070,الھفوف,الشرقة,مستشفى امر سعود بن جلوي باحساء
4548,4,MATERNITY & CHILDREN HOSPITAL-HASA,EASTERN,AL HOFUF,MAHASN,HOSPITAL,√,√,√,√,−,−,−,−,−,−,013-5924649,013-5924649,الھفوف,الشرقة,مستشفى الودة واطفال باحساء
3873,4,AL JABR EYE & EAR HOSPITAL - MOH - AHSA,EASTERN,AL HOFUF,NAJM EYE,HOSPITAL,√,√,√,√,−,−,−,−,−,−,013-5755421,013-5757510,الھفوف,الشرقة,مستشفى الجبر للعون وانف واذن والحنجرة
1022,4,DR TAHER AL BAHRANI POLYCLINIC,EASTERN,AL HOFUF,AL FAYASALEAH,CLINIC,√,√,√,√,−,−,−,−,−,−,013-5853242,013-5866619,الھفوف,الشرقة,مجمع عادات الدكتور طاھر البحراني الطبي
173,10,HAGAR DISPENSARY,EASTERN,AL HOFUF,OUWAIMIRIYA DISTRICT,CLINIC,√,√,√,√,√,√,√,√,√,√,013-5811391,013-5802274,الھفوف,الشرقة,مستوصف ھجر الطبي
3178,1,KING ABDULLAZIZ NATIONAL GUARD HOSPITAL,EASTERN,AL HASA,AL MUBARAZ,HOSPITAL,√,−,−,−,−,−,−,−,−,−,013-5910000,013-5910000,احساء,الشرقة,مستشفى الملك عبدالعزز بالحرس الوطني - احساء
3872,4,PRINCE SULTAN CARDIAC CENTER - MOH - AHSA,EASTERN,AL HASA,HASA,HOSPITAL,√,√,√,√,−,−,−,−,−,−,013-5755460,013-5750889,احساء,الشرقة,مركز امر سلطان لمعالجة امراض وجراحة القلب
5455,4,OYOUN CITY HOSPITAL MOH,EASTERN,AL HASA,NASSEM EYE,HOSPITAL,√,√,√,√,−,−,−,−,−,−,013-5330500,013-5332326,احساء,الشرقة,مستشفى مدنة العون باحساء
5456,4,ALJAFER GENERAL HOSPITAL. MOH,EASTERN,AL HASA,JAFR,HOSPITAL,√,√,√,√,−,−,−,−,−,−,013-5390356,013-5390512,احساء,الشرقة,مستشفى الجفر العام بمحافظة احساء  وزارة الصحة
598,4,AL MANA GENERAL HOSPITAL (HAFOF),EASTERN,AL HASA,HOFUF,HOSPITAL,√,√,√,√,−,−,−,−,−,−,013-8890661,013-8980772,احساء,الشرقة,مستشفى المانع العام
433,4,AL MOOSA HOSPITAL,EASTERN,AL HASA,AL KHARS,HOSPITAL,√,√,√,√,−,−,−,−,−,−,013-5307000,013-5369655,احساء,الشرقة,مستشفى الموسى
1657,6,AL AHSA HOSPITAL,EASTERN,AL HASA,AL MUBARAZ,HOSPITAL,√,√,√,√,√,√,−,−,−,−,013-5844000,013-5868900,احساء,الشرقة,مستشفى احساء
4021,6,KAHHAL COMPANY FOR MEDICAL SERVICES 2,EASTERN,AL HASA,DHARAN,CENTER,√,√,√,√,√,√,−,−,−,−,013-5327777,013-5319944,احساء,الشرقة,مجمع عادات شركة الكحال للخدمات الطبة 2
2216,4,RAM DENTAL CARE (IHSAA),EASTERN,AL HASA,ALYAHYA DISTRICT,CENTER,√,√,√,√,−,−,−,−,−,−,013-5311282,013-8640828,احساء,الشرقة,مركز رام لطب اسنان فرع احساء
98,8,OBEID SPECIALIZED HOSPITAL (HASSA),EASTERN,AL HASA,ALMANEH DISTRICT,HOSPITAL,√,√,√,√,√,√,√,√,R,R,013-5303333,013-5310077,احساء,الشرقة,مستشفى عبد التخصصي
2018,8,HUSSEIN AL ALI HOSPITAL,EASTERN,AL HASA,AL FYASALEYA,HOSPITAL,√,√,√,√,√,√,√,√,R,R,013-5866566,013-5866566,احساء,الشرقة,مستشفى حسن العلي
79,10,HUSSAIN AL ALI MEDICAL COMPLEX,EASTERN,AL HASA,HFOUF,CLINIC,√,√,√,√,√,√,√,√,√,√,013-5869212,013-5843535,احساء,الشرقة,مجمع عادات حسن العلي الطبي
5324,10,AL OTAISH GENERAL MEDICAL POLYCLINIC,EASTERN,AL HASA,EYES,CLINIC,√,√,√,√,√,√,√,√,√,√,013-5330072,013-5333843,احساء,الشرقة,مجمع عادات العطش الطبي العام
1966,8,AL MADAR DIMOND MEDICAL COMPANY,EASTERN,AL HASA,MOBARRAZ DISTRICT,CENTER,√,√,√,√,√,√,√,√,−,−,013-5318555,013-5318666,احساء,الشرقة,مجمع شركة المدار الماسي الطبة لسنان
2353,8,AL OSRAH DENTAL POLYCLINIC,EASTERN,AL HASA,MHASEN,CENTER,√,√,√,√,√,√,√,√,−,−,013-5920277,013-5925995,احساء,الشرقة,مجمع عادات اسرة لطب اسنان
2020,8,Al BARAKAT OPTICAL CENTER,EASTERN,AL HASA,AL NAAEL,CENTER,√,√,√,√,√,√,√,√,−,−,011-4722677,013-5825018,احساء,الشرقة,مركز البركات للبصرات
3998,4,AL DAWAA MEDICAL SERVICES CO.,EASTERN,AL HASA,QURTUBA,PHARMACY,√,√,√,√,−,−,−,−,−,−,013-8677776,013-8670201,احساء,الشرقة,مجموعة صدلات الدواء
1663,10,AL MASHAFI COMPLEX (AL HASSA),EASTERN,AL HASA,ALAHSA,CLINIC,√,√,√,√,√,√,√,√,√,√,013-5865900,013-5826949,احساء,الشرقة,مجمع المشافي الطبي
1332,10,ZAMZAM POLYCLINIC,EASTERN,AL HASA,ALRAFA ALSHAMALEIA DISTRICT,CLINIC,√,√,√,√,√,√,√,√,√,√,013-5303377,013-5310615,احساء,الشرقة,مستوصف زمزم الطبي
989,10,AL MAGHLOUTH MEDICAL,EASTERN,AL HASA,ALAHSA,CLINIC,√,√,√,√,√,√,√,√,√,√,013-5313333,013-5306872,احساء,الشرقة,مجمع عادات المغلوث
2787,10,AL NAIM COMPLEX & OPTICALS,EASTERN,AL HASA,ALAHSA,CLINIC,√,√,√,√,√,√,√,√,√,√,013-5879312,013-5866324,احساء,الشرقة,مجمع عادات النعم الطبي
1752,9,AL RIDA CLINIC,EASTERN,AL HASA,OMRAN TOWN,CLINIC,√,√,√,√,√,√,√,√,√,−,013-5963760,013-5962576,احساء,الشرقة,مجمع الرضا الطبي
5539,10,AL EKHWA MEDICAL COMPLEX,EASTERN,HARDH,HARDH,CLINIC,√,√,√,√,√,√,√,√,√,√,013-5853923,-,حرض,الشرقة,مجمع اخوة الطبي
5029,4,SALWA GENERAL HOSPITAL,EASTERN,SALWA,SALWA,HOSPITAL,√,√,√,√,−,−,−,−,−,−,013-5470259,013-5470233,سلوى,الشرقة,مستشفى سلوى العام
5037,4,PRINCE SULTAN HOSPITAL - URAYARAH,EASTERN,URAYARAH,CITY CENTER,HOSPITAL,√,√,√,√,−,−,−,−,−,−,013-3280106,013-3280611,عرعرة,الشرقة,مستشفى امر سلطان - عرعرة
4658,4,AL BATHA GENERAL HOSPITAL,EASTERN,AL BATHA,AL AWAL,HOSPITAL,√,√,√,√,−,−,−,−,−,−,013-5755761,013-5756351,البطحاء,الشرقة,مستشفى البطحاء العام
1667,9,AL TARAF CHARITABLE SOCIETY CLINIC,EASTERN,AL TARF,ALAHSA,CLINIC,√,√,√,√,√,√,√,√,√,−,013-5393200,013-5390323,الطرف,الشرقة,مجمع عادات جمعة طرف الخرة
3177,1,KING KHALID NATIONAL GUARD HOSPITAL - JEDDAH,WESTERN,JEDDAH,AL RUHALI,HOSPITAL,√,−,−,−,−,−,−,−,−,−,012-6240000,012-6247484,جدة,الغربة,مستشفى الملك خالد بالحرس الوطني - جدة
5466,1,KING FAISAL SPECIALIST HOSPITAL AND RESEARCH CENTER IN JEDDAH,WESTERN,JEDDAH,RAWDHAH,HOSPITAL,√,−,−,−,−,−,−,−,−,−,012-6677777,012-6698934,جدة,الغربة,مستشفى الملك فصل التخصصي ومركز ابحاث بجدة
5514,1,KING FAHAD ARMED FORCES HOSPITAL-MOH,WESTERN,JEDDAH,ALSHATI,HOSPITAL,√,−,−,−,−,−,−,−,−,−,012-2328888,012-2328888,جدة,الغربة,مستشفى الملك فھد للقوات المسلحة-وزارة الصحة
5468,1,KING ABDULAZIZ UNIVERSITY HOSPITAL JEDDAH,WESTERN,JEDDAH,KING ABDULAZIZ UNIVERSITY,HOSPITAL,√,−,−,−,−,−,−,−,−,−,012-6408222,012-6403975,جدة,الغربة,مستشفى جامعة الملك عبدالعزز بجدة
905,2,THE INTERNATIONAL MEDICAL CENTER,WESTERN,JEDDAH,AL RUWAIS,HOSPITAL,√,√,−,−,−,−,−,−,−,−,012-6509000,012-6509134,جدة,الغربة,المركز الدولي الطبي
4700,2,AYA SPECIALIZED MEDICAL HOSPITAL,WESTERN,JEDDAH,AL MUHAMADYA,HOSPITAL,√,√,−,−,−,−,−,−,−,−,920012342,012-6997457,جدة,الغربة,مستشفى اة التخصصي الطبي
5541,2,MY CLINIC INTERNATIONAL CO,WESTERN,JEDDAH,JEDDAH,CLINIC,√,√,−,−,−,−,−,−,−,−,920022811,-,جدة,الغربة,مجمع عادتي الدولة الطبة
50,4,DR ERFAN & BAGEDO HOSPITAL,WESTERN,JEDDAH,Faisalia Area,HOSPITAL,√,√,√,√,−,−,−,−,−,−,012-6820022,012-6917747,جدة,الغربة,مستشفى الدكتور عرفان & باقدو
40,2,DR SULIMAN FAKEEH HOSPITAL,WESTERN,JEDDAH,AL HAMRA,HOSPITAL,√,√,−,−,−,−,−,−,−,−,012-6655000,012-6651284,جدة,الغربة,مستشفى الدكتور سلمان فقھ
4504,4,MATERNITY & CHILDREN HOSPITAL-JED(AZIZIA,WESTERN,JEDDAH,AL AZIZIYAH,HOSPITAL,√,√,√,√,−,−,−,−,−,−,012-6729092,012-6719527,جدة,الغربة,مستشفى الودة واطفال بالعززة
4506,4,KING ABDULAZIZ HOSPITAL-JEDDAH,WESTERN,JEDDAH,AL MAHJAR,HOSPITAL,√,√,√,√,−,−,−,−,−,−,012-6375555,012-6375555,جدة,الغربة,مستشفى الملك عبدالعزز ومركز اورام
5333,4,AL TAGHER GENERAL HOSPITAL - MOH,WESTERN,JEDDAH,THAGAR,HOSPITAL,√,√,√,√,−,−,−,−,−,−,012-6201767,012-6201767,جدة,الغربة,مستشفى الثغر العام
5334,4,"EYE,S HOSPITAL - MOH",WESTERN,JEDDAH,JEDDAH,HOSPITAL,√,√,√,√,−,−,−,−,−,−,012-6939998,012-6939998,جدة,الغربة,مستشفى العون - جدة
5431,4,ERADAH MEDICAL CENTER - MOH,WESTERN,JEDDAH,JEDDAH,HOSPITAL,√,√,√,√,−,−,−,−,−,−,012-6361078,012 -6361061,جدة,الغربة,مجمع ارادة للصحة النفسة
39,2,SAUDI GERMAN HOSPITAL (JEDDAH),WESTERN,JEDDAH,JEDDAH,HOSPITAL,√,√,−,−,−,−,−,−,−,−,012-6829000,012-6835874,جدة,الغربة,مستشفى السعودي الماني
690,4,UNITED DOCTORS HOSPITAL,WESTERN,JEDDAH,RUWAIS DISTRICT,HOSPITAL,√,√,√,√,−,−,−,−,−,−,012-6533333,012-6520478,جدة,الغربة,مستشفى اطباء المتحدون
5345,4,DR. SULIMAN FAKEEH FAMILY CENTERS,WESTERN,JEDDAH,NUZHA,CLINIC,√,√,√,√,−,−,−,−,−,−,012-6650444,012-6600619,جدة,الغربة,مراكز الدكتور سلمان فقة لطب اسرة
5383,4,DR. SULIMAN FAKEEH COMPANY BRANCH,WESTERN,JEDDAH,AL BASATEEN,CLINIC,√,√,√,√,−,−,−,−,−,−,012-2296400,012-6608013,جدة,الغربة,فرع شركة مستشفى الدكتور سلمان فقة
5420,4,DR. SULAIMAN FAKEEH FAMILY MEICINE CENTER,WESTERN,JEDDAH,ALTHAGER,CLINIC,√,√,√,√,−,−,−,−,−,−,012-6655000,126600619,جدة,الغربة,مركز الدكتور سلمان فقة لطب اسرة
5418,2,BEVERLY CLINICS,WESTERN,JEDDAH,JEDDAH,CLINIC,√,√,−,−,−,−,−,−,−,−,920026446,012-6835874,جدة,الغربة,عادات بفرلي
166,4,AL MAGHRABI  OPTICAL  COMPANY,WESTERN,JEDDAH,"1FLOOR,BINSULAIMAN CENTER",CENTER,√,√,√,√,−,−,−,−,−,−,012-6067261,012-2636383,جدة,الغربة,شركة المغربي للبصرات
5328,4,KING ABDULAZIZ AIRPORT MED. CENTER - SOU,WESTERN,JEDDAH,KING ABDULAZIZ AIRPORT,CENTER,√,√,√,√,−,−,−,−,−,−,012-6853473,012-6855931,جدة,الغربة,المركز الطبي بالصالة الجنوبة بمطار الملك عبدالعزز
5329,4,KING ABDULAZIZ AIRPORT MED. CENTER - NOR,WESTERN,JEDDAH,KING ABDULAZIZ AIRPORT,CENTER,√,√,√,√,−,−,−,−,−,−,012-6853473,012-6855931,جدة,الغربة,المركز الطبي بالصالة الشمالة بمطار الملك عبدالعزز
5354,4,AL JAMEAH HEALTH CARE CENTER,WESTERN,JEDDAH,JEDDAH,CLINIC,√,√,√,√,−,−,−,−,−,−,012-6896580,012-6896580,جدة,الغربة,مركز صحي الجامعة - جدة
5356,4,AL BALAD MEDICAL CENTER - MOH,WESTERN,JEDDAH,JEDDAH,CLINIC,√,√,√,√,−,−,−,−,−,−,012-6442855,012-6442855,جدة,الغربة,مركز صحي البلد - وزارة الصحة
5357,4,KHALID MEDICAL CENTER - MOH,WESTERN,JEDDAH,JEDDAH,CLINIC,√,√,√,√,−,−,−,−,−,−,012-2068931,012-2068931,جدة,الغربة,مركز صحي خالد النموذجي - وزارة الصحة
5358,4,SAFA MEDICAL CENTER - MOH,WESTERN,JEDDAH,JEDDAH,CLINIC,√,√,√,√,−,−,−,−,−,−,012-6782076,012-6672942,جدة,الغربة,مركز صحي الصفا - وزارة الصحة
5362,4,ABDUL MAJEED MEDICAL CENTER  - MOH,WESTERN,JEDDAH,JEDDAH,CLINIC,√,√,√,√,−,−,−,−,−,−,-,-,جدة,الغربة,مركز عبدالمجد الصحي - وزارة الصحة
5464,4,HEALTH SURVEILLANCE CENTER,WESTERN,JEDDAH,PORT,CLINIC,√,√,√,√,−,−,−,−,−,−,012-6483966,012-6483966,جدة,الغربة,مراكز المراقبة الصحة بمناء جدة اسمي-  وزارة الصحة
5471,4,ALQURAINYAH MEDICAL CENTER,WESTERN,JEDDAH,ALQURAINYAH,CLINIC,√,√,√,√,−,−,−,−,−,−,012-6375555,012-6375555,جدة,الغربة,مركز صحي القرنة
5473,4,AZIZIYAH MEDICAL CENTER - MOH,WESTERN,JEDDAH,AZIZIYAH,CLINIC,√,√,√,√,−,−,−,−,−,−,012-6606111,012-6606111,جدة,الغربة,مركز صحي العززة-وزارة الصحة
5474,4,AL FAISALIAH MEDICAL CENTER - MOH,WESTERN,JEDDAH,FAISALIAH,CLINIC,√,√,√,√,−,−,−,−,−,−,012-6606111,012-6606111,جدة,الغربة,مركز صحي الفصلة-وزارة الصحة
5475,4,ALMARWAH MEDICAL CENTER - MOH,WESTERN,JEDDAH,ALMARWAH,CLINIC,√,√,√,√,−,−,−,−,−,−,012-6606111,012-6606111,جدة,الغربة,مركز صحي المروة - وزارة الصحة
5506,4,ALNAEEM MEDICAL CENTER - MOH,WESTERN,JEDDAH,ALNAEEM,CLINIC,√,√,√,√,−,−,−,−,−,−,012-6606111,012-6606111,جدة,الغربة,مركز صحي النعم-وزارة الصحة
5505,4,ALBAWADI MEDICAL CENTER - MOH,WESTERN,JEDDAH,ALMARWAH,CLINIC,√,√,√,√,−,−,−,−,−,−,126606111,126606111,جدة,الغربة,مركز صحي البوادي-وزارة الصحة
5504,4,ALTHAALBAH MEDICAL CENTER - MOH,WESTERN,JEDDAH,ALWAZERYAH,CLINIC,√,√,√,√,−,−,−,−,−,−,126375555,126375555,جدة,الغربة,مركز صحي الثعالبة-وزارة الصحة
5496,4,KM 13 MEDICAL CENTER - MOH,WESTERN,JEDDAH,OMM ALSALAM,CLINIC,√,√,√,√,−,−,−,−,−,−,126201767,126201767,جدة,الغربة,مركز صحي الكلو13-وزارة الصحة
5495,4,PRINCE FAWAZ PHC,WESTERN,JEDDAH,PRINCE FAWAZ DISTRICT,CLINIC,√,√,√,√,−,−,−,−,−,−,126201767,126201767,جدة,الغربة,مركز صحي امر فواز
5494,4,ALMATAR DISPENSARY CENTER – MOH,WESTERN,JEDDAH,ALFAYHA,CLINIC,√,√,√,√,−,−,−,−,−,−,122327555,122327555,جدة,الغربة,مركز صحي المطار القدم - وزارة الصحة
5493,4,ALRAWABI DISPENSARY CENTER – MOH,WESTERN,JEDDAH,ALRAWABI,CLINIC,√,√,√,√,−,−,−,−,−,−,122327555,122327555,جدة,الغربة,مركز صحي الروابي - وزارة الصحة
5492,4,ALSULIMANYAH DISPENSARY CENTER – MOH,WESTERN,JEDDAH,ALSULIMANYAH,CLINIC,√,√,√,√,−,−,−,−,−,−,122327555,122327555,جدة,الغربة,مركز صحي السلمانة - وزارة الصحة
5491,4,ALRIHAB DISPENSARY CENTER– MOH,WESTERN,JEDDAH,ALREHAB,CLINIC,√,√,√,√,−,−,−,−,−,−,122327555,122327555,جدة,الغربة,مركز صحي  الرحاب - وزارة الصحة
5490,4,ALTAWFEEQ DISPENSARY - MOH,WESTERN,JEDDAH,ALSAMER,CLINIC,√,√,√,√,−,−,−,−,−,−,122327555,122327555,جدة,الغربة,مركز صحي التوفق - وزارة الصحة
5489,4,ABRAQ DISPENSARY CENTER- MOH,WESTERN,JEDDAH,ABRAQ RAGHAMAH,CLINIC,√,√,√,√,−,−,−,−,−,−,122327555,122327555,جدة,الغربة,مركز صحي ابرق الرغامة - وزارة الصحة
5488,4,SHARQ DISPENSARY CENTER - MOH,WESTERN,JEDDAH,ALAJWAD,CLINIC,√,√,√,√,−,−,−,−,−,−,122327555,122327555,جدة,الغربة,مركز صحي شرق الخط - وزارة الصحة
5487,4,QWAIZA DISPENSARY - MOH,WESTERN,JEDDAH,ALAJWAD,CLINIC,√,√,√,√,−,−,−,−,−,−,122327555,122327555,جدة,الغربة,مركز صحي القوزة - وزارة الصحة
5486,4,BRIMAN DISPENSARY – MOH,WESTERN,JEDDAH,BRIMAN,CLINIC,√,√,√,√,−,−,−,−,−,−,122327555,122327555,جدة,الغربة,مركز صحي برمان - وزارة الصحة
5485,4,ALMUNTAZAHAT PHC – MOH,WESTERN,JEDDAH,ALMUNTAZAHAT,CLINIC,√,√,√,√,−,−,−,−,−,−,126201767,126201767,جدة,الغربة,مركز صحي المنتزھات - وزارة الصحة
5484,4,ZHAHBAN MEDICAL CENTER - MOH,WESTERN,JEDDAH,ALMOZERAH,CLINIC,√,√,√,√,−,−,−,−,−,−,122285000,122285000,جدة,الغربة,مركز صحي ذھبان - وزارة الصحة
5508,4,SAFA MEDICAL CENTER - MOH - 2,WESTERN,JEDDAH,ALSAFA,CLINIC,√,√,√,√,−,−,−,−,−,−,126606111,126606111,جدة,الغربة,مركز صحي الصفا - 2 وزارة الصحة
5509,4,AL NAHDA HEALTH CENTER - MOH,WESTERN,JEDDAH,ALNAHDHAH,CLINIC,√,√,√,√,−,−,−,−,−,−,012-6606111,012-6606111,جدة,الغربة,مركز صحي النھضة - وزارة الصحة
5512,4,MADAIN ALFAHAD MEDICAL CENTER - MOH,WESTERN,JEDDAH,ALFAHAD,CLINIC,√,√,√,√,−,−,−,−,−,−,012-6809624,012-6809624,جدة,الغربة,مركز صحي مدائن الفھد -وزارة الصحة
5513,4,MISHRIFAH MEDICAL CENTER - MOH,WESTERN,JEDDAH,MISHRIFAH,CLINIC,√,√,√,√,−,−,−,−,−,−,012-6606111,012-6622961,جدة,الغربة,مركز صحي مشرفة - وزارة الصحة
5526,4,UM AL SALAM PRIMARY HEALTHCARE (MOH),WESTERN,JEDDAH,UM ALSALAM,CLINIC,√,√,√,√,−,−,−,−,−,−,012-6201767,012-6201767,جدة,الغربة,مركز صحي ام السلم-وزارة الصحة
5525,4,Al MAJID PRIMAY CARE CENTER - MOH,WESTERN,JEDDAH,PRINCE MAJID,CLINIC,√,√,√,√,−,−,−,−,−,−,012-6375555,012-6375555,جدة,الغربة,مركز صحي الماجد
5518,4,ALSHERAA HEALTH CENTER-MOH,WESTERN,JEDDAH,ALSHERAA,CLINIC,√,√,√,√,−,−,−,−,−,−,012-2285000,012-2285000,جدة,الغربة,مركز صحي الشراع 505
5530,4,Al RABWAH MEDICAL CENTER - MOH,WESTERN,JEDDAH,ALRABWAH,CLINIC,√,√,√,√,−,−,−,−,−,−,012-6606111,012-6606111,جدة,الغربة,مركز صحي الربوة-وزارة الصحة
5529,4,AL HAMRA PRIMARY HEALTHCARE (MOH),WESTERN,JEDDAH,ALHAMRA,CLINIC,√,√,√,√,−,−,−,−,−,−,012-6606111,012-6606111,جدة,الغربة,مركز صحي الحمراء
5528,4,AL SALAMAH PRIMARY HEALTH CAR-MOH,WESTERN,JEDDAH,ALSALAMAH,CLINIC,√,√,√,√,−,−,−,−,−,−,012-6606111,012-6606111,جدة,الغربة,مركز صحي السمة-وزارة الصحة
5527,4,AL ROWAIS PRIMARY HEALTHCARE (MOH),WESTERN,JEDDAH,ALROWAIS,CLINIC,√,√,√,√,−,−,−,−,−,−,012-6606111,012-6606111,جدة,الغربة,مركز صحي الروس-وزارة الصحة
5521,4,ALMAHGAR MEDICAL CENTER - MOH,WESTERN,JEDDAH,ALMAHGAR,CLINIC,√,√,√,√,−,−,−,−,−,−,012-6360478,012-6360478,جدة,الغربة,مركز صحي المحجر-وزارة الصحة
5533,4,ALWAFA PRIMARY HEALTHCARE (MOH),WESTERN,JEDDAH,JEDDAH,CLINIC,√,√,√,√,−,−,−,−,−,−,012-2285000,-,جدة,الغربة,مركز صحي الوفاء
5534,4,NORTH OBHUR PRIMARY HEALTHCARE (MOH),WESTERN,JEDDAH,JEDDAH,CLINIC,√,√,√,√,−,−,−,−,−,−,012-2285000,-,جدة,الغربة,مركز صحي ابحر الشمالة
5535,4,ALRAYAN HEALTH CENTER- MOH,WESTERN,JEDDAH,JEDDAH,CLINIC,√,√,√,√,−,−,−,−,−,−,012-2285615,-,جدة,الغربة,مركز صحي الران
5536,4,AL HARAZAT PRIMARY HEALTH CARE,WESTERN,JEDDAH,JEDDAH,CLINIC,√,√,√,√,−,−,−,−,−,−,012-6201767,-,جدة,الغربة,مركز صحي الحرازات
5537,4,AL SHATI MEDICAL CENTER (MOH),WESTERN,JEDDAH,JEDDAH,CLINIC,√,√,√,√,−,−,−,−,−,−,012-2285000,-,جدة,الغربة,مركز صحي الشاطئ
5167,4,ANDALUSIA DENTAL CENTER - 1,WESTERN,JEDDAH,AL ANDALUS,CENTER,√,√,√,√,−,−,−,−,−,−,012-6702777,012-6703300,جدة,الغربة,مركز اندلسة لطب اسنان - 1
5168,4,ANDALUSIA ARABIYA DENTAL CENTER - 2,WESTERN,JEDDAH,MISHREFA,CENTER,√,√,√,√,−,−,−,−,−,−,012-2611111,012-2611391,جدة,الغربة,مركز اندلسة العربة لطب اسنان - 2
2822,4,TALA MEDICAL CLINICS,WESTERN,JEDDAH,AL ZAHRA,CLINIC,√,√,√,√,−,−,−,−,−,−,012-6391818,012-6394330,جدة,الغربة,مجمع عادات تالة الطبة
2825,4,THE FIRST CLINIC,WESTERN,JEDDAH,jeddah,CLINIC,√,√,√,√,−,−,−,−,−,−,012-2754243,012-2754353,جدة,الغربة,العادات اولى الحدثة
5388,4,AL FAISAL PHARMACY GROUP,WESTERN,JEDDAH,JEDDAH,PHARMACY,√,√,√,√,−,−,−,−,−,−,012-6129999,012-3612036,جدة,الغربة,صدلات الفصل
69,6,HAI AL JAMEA HOSPITAL,WESTERN,JEDDAH,JEDDAH,HOSPITAL,√,√,√,√,√,√,−,−,−,−,012-6806666,012-6340155,جدة,الغربة,مستشفى حي الجامعة
38,6,GENERAL NETWORK OF HEALTHCARE PROVIDERS (GNP),WESTERN,JEDDAH,ALZAHRA DISTRICT,HOSPITAL,√,√,√,√,√,√,−,−,−,−,012-6823200,012-6832539,جدة,الغربة,شركة الشبكة الشاملة للرعاة الطبة (غسان نجب فرعون)
47,6,NEW JEDDAH CLINIC HOSPITAL,WESTERN,JEDDAH,ALHAMRA,HOSPITAL,√,√,√,√,√,√,−,−,−,−,012-6675000,012-6601296,جدة,الغربة,مستشفى جده الوطني الجدد
45,6,BUGSHAN GENERAL HOSPITAL,WESTERN,JEDDAH,JEDDSH,HOSPITAL,√,√,√,√,√,√,−,−,−,−,012-6691222,012-2843489,جدة,الغربة,مستشفى بقشان العام
807,6,DR TAHA BAKHSH HOSPITAL (SHARFIA),WESTERN,JEDDAH,SHARFIA,HOSPITAL,√,√,√,√,√,√,−,−,−,−,012-6510555,012-6530428,جدة,الغربة,مستشفى الدكتور طھ بخش (الشرفھ)
2293,6,ABDUL LATIF JAMEEL HOSPITAL,WESTERN,JEDDAH,AL SAFA,HOSPITAL,√,√,√,√,√,√,−,−,−,−,012-6770001,012-6770009,جدة,الغربة,مستشفى عبد اللطف جمل
54,6,AL HAMRAA HOSPITAL,WESTERN,JEDDAH,JEDDAH,HOSPITAL,√,√,√,√,√,√,−,−,−,−,012-6603332,012-6612165,جدة,الغربة,مستشفى الحمراء
2334,10,AL YASMIN POLYCLINIC,WESTERN,JEDDAH,K 14,CLINIC,√,√,√,√,√,√,√,√,√,√,012-6244107,012-6244483,جدة,الغربة,مجمع عادات الاسمن الطبي
5364,6,BIN RUSHD OPHTHALMIC CENTER -5,WESTERN,JEDDAH,JEDDAH,CENTER,√,√,√,√,√,√,−,−,−,−,920000181,011-4649901,جدة,الغربة,مركز بن رشد لطب وجراحة العون
5150,6,LIFE DENTAL CLINIC,WESTERN,JEDDAH,AL WADI,CENTER,√,√,√,√,√,√,−,−,−,−,012-6030171,012-6030729,جدة,الغربة,عادات روح الحاة لطب اسنان
991,10,EED CLINIC,WESTERN,JEDDAH,FAYSALIYA DISTRICT,CLINIC,√,√,√,√,√,√,√,√,√,√,012-6398858,012-6398868,جدة,الغربة,مجمع عد الطبي
2850,6,CLASS OPTICAL - AL NUZHA,WESTERN,JEDDAH,ALNOZHA,CENTER,√,√,√,√,√,√,−,−,−,−,012-2401038,012-2401054,جدة,الغربة,مركز الراقة للنظارات - النزھة
1839,6,THE EYE CONSULTANTS (JEDDAH),WESTERN,JEDDAH,RAWDHA DISTRICT,CENTER,√,√,√,√,√,√,−,−,−,−,012-6686161,012-6678450,جدة,الغربة,استشارون لطب العون
1793,6,AL MAWJ POLYCLINIC COMPLEX,WESTERN,JEDDAH,AL NHDHA,CLINIC,√,√,√,√,√,√,−,−,−,−,012-6947780,012-6947785,جدة,الغربة,مجمع عادات الموج الطبي
3790,10,DR.HANI RAGABAN POLYCLINIC,WESTERN,JEDDAH,ALNAHDA,CLINIC,√,√,√,√,√,√,√,√,√,√,012-6946207,012-6946506,جدة,الغربة,مجمع عادات الدكتور ھاني رقبان
5033,10,KHALID BAKR AL BAKRI POLYCLINIC,WESTERN,JEDDAH,AL REHAB,CLINIC,√,√,√,√,√,√,√,√,√,√,012-6754555,012-6736946,جدة,الغربة,مجمع خالد بكر البكري الطبي العام
5149,6,KHALID DISTINCT MEDICAL CENTER,WESTERN,JEDDAH,AL RAWABI,CLINIC,√,√,√,√,√,√,−,−,−,−,012-6255555,012-6242924,جدة,الغربة,مجمع خالد المتمز الطبي للطب العام
5156,6,KHALID ADVANCED MEDIAL CENTER,WESTERN,JEDDAH,AL SAMER,CLINIC,√,√,√,√,√,√,−,−,−,−,012-2722222,012-2716278,جدة,الغربة,مجمع خالد المتطور الطبي للطب العام
5160,6,AGHRASS MEDICAL CENTER,WESTERN,JEDDAH,QURAYAT,CLINIC,√,√,√,√,√,√,−,−,−,−,012-5111600,012-5111699,جدة,الغربة,مجمع اغراس الطبي
61,8,DR KHALID IDREES HOSPITAL,WESTERN,JEDDAH,JEDDAH,HOSPITAL,√,√,√,√,√,√,√,√,R,R,012-6423555,012-4233396,جدة,الغربة,مستشفى الدكتور خالد ادرس
42,8,ABU ZINADAH HOSPITAL,WESTERN,JEDDAH,Bagdadiyah,HOSPITAL,√,√,√,√,√,√,√,√,−,−,012-6510652,012-6517726,جدة,الغربة,مستشفى ابو زنادة
46,8,AL MUSTAGBAL HOSPITAL,WESTERN,JEDDAH,HAI ALTHAQER DISTRICT,HOSPITAL,√,√,√,√,√,√,√,√,R,R,012-6875255,012-6330546,جدة,الغربة,مستشفى المستقبل
51,8,AL ZAHRAA HOSPITAL (JEDDAH),WESTERN,JEDDAH,AL ZAHRA DISTRICT,HOSPITAL,√,√,√,√,√,√,√,√,R,R,012-6823331,012-6833280,جدة,الغربة,مستشفى الزھراء
4109,8,DR. HALA ESSA BINLADEN HOSPITAL,WESTERN,JEDDAH,AL HAMRA,HOSPITAL,√,√,√,√,√,√,√,√,R,R,012-6603332,012-6635545,جدة,الغربة,مستشفى الدكتورة ھالة عسى بن دن
1805,10,GENERAL MEDICAL POLYCLINIC (SARI),WESTERN,JEDDAH,FAISALIYAH,CLINIC,√,√,√,√,√,√,√,√,√,√,012-6626444,012-6625241,جدة,الغربة,المجمع الطبي العام
1951,8,MADAAR AL SHEFA DENTAL POLYCLINIC (HAMRA),WESTERN,JEDDAH,HAMRA DISTRICT,CENTER,√,√,√,√,√,√,√,√,−,−,012-2841818,012-2841717,جدة,الغربة,مركز مدار الشفاء لطب اسنان (حي الحمراء)
4321,8,AL SAGGAF EYE CENTER,WESTERN,JEDDAH,AL FAYHA,CENTER,√,√,√,√,√,√,√,√,−,−,012-6314004,012-6313400,جدة,الغربة,مجمع السقاف لطب العون وجراحة الوم الواحد
4701,8,AL SAGGAF EYE CENTER-2,WESTERN,JEDDAH,AL AZIZIYAH,CENTER,√,√,√,√,√,√,√,√,−,−,012-6131499,012-6313400,جدة,الغربة,مجمع عادات د. حسن السقاف لطب العون
37,8,JEDDAH CLINIC HOSPITAL (KANDARA),WESTERN,JEDDAH,KANDARA,HOSPITAL,√,√,√,√,√,√,√,√,R,R,012-6313131,012-6323142,جدة,الغربة,مستشفى جده الوطني (الكندرة)
1700,8,IBN SINA NATIONAL COLLEGE HOSPITAL,WESTERN,JEDDAH,AL SHIFA,HOSPITAL,√,√,√,√,√,√,√,√,R,R,012-6355566,012-2682888,جدة,الغربة,مستشفى كلة ابن سناء
43,8,NEW AL JEDDANI HOSPITAL (GULAIL),WESTERN,JEDDAH,ALGULAIL,HOSPITAL,√,√,√,√,√,√,√,√,R,R,012-6368100,012-6360352,جدة,الغربة,مستشفى الجدعاني الجدد (الغلل)
1949,8,NEW AL JEDDANI HOSPITAL (SAFA),WESTERN,JEDDAH,ALSAFA DISTRICT,HOSPITAL,√,√,√,√,√,√,√,√,R,R,012-6772221,012-6935110,جدة,الغربة,مستشفى الجدعاني  (الصفا)
726,8,JEDDAH NATIONAL HOSPITAL,WESTERN,JEDDAH,AZIZIYA DISTRICT,HOSPITAL,√,√,√,√,√,√,√,√,R,R,012-6710040,012-6715525,جدة,الغربة,مستشفى جده اھلي
2687,8,DR HASSAN GHAZAWI HOSPITAL,WESTERN,JEDDAH,AL AZIZIYAH,HOSPITAL,√,√,√,√,√,√,√,√,R,R,012-6522277,012-6650488,جدة,الغربة,مستشفى الدكتور حسان غزاوى
4561,10,OLAS MEDICAL CENTER,WESTERN,JEDDAH,AL HAMADANIYAH,CLINIC,√,√,√,√,√,√,√,√,√,√,012-2122222,012-2122211,جدة,الغربة,مجمع اوس الطبي العام
4856,10,ALHANAN ALMOTEMEZ MEDICAL CENTER,WESTERN,JEDDAH,SAFA,CLINIC,√,√,√,√,√,√,√,√,√,√,012-6930393,012-6933111,جدة,الغربة,مجمع الحنان المتمز الطبي
5152,10,ELIXIR MEDICAL CENTER,WESTERN,JEDDAH,AL HAMADANIYAH,CLINIC,√,√,√,√,√,√,√,√,√,√,012-2886667,012-2886667,جدة,الغربة,مجمع اكسر الطبي العام
5153,8,DR. SAEED MEDICAL COMPLEX,WESTERN,JEDDAH,AL NASEEM,CLINIC,√,√,√,√,√,√,√,√,−,−,012-2522999,012-6292301,جدة,الغربة,مجمع سعد عوضھ الطبي العام
5158,10,AL MAS IDEAL MEDICAL CENTER,WESTERN,JEDDAH,AL RABWAH,CLINIC,√,√,√,√,√,√,√,√,√,√,012-6596600,012-6547676,جدة,الغربة,مجمع الماس المثالة الطبي العام
5166,10,AL ALAMEYA POLYCLINIC,WESTERN,JEDDAH,AL NAHDA,CLINIC,√,√,√,√,√,√,√,√,√,√,012-6995333,012-6995888,جدة,الغربة,مجمع شركة العالمة الحدث الطبي
5322,8,AL MANSOUR MEDICAL CENTER,WESTERN,JEDDAH,ALMANSOUR,CLINIC,√,√,√,√,√,√,√,√,−,−,012-6333330,012-6802459,جدة,الغربة,مجمع المنصور الطبي العام
3998,4,AL DAWAA MEDICAL SERVICES CO.,WESTERN,JEDDAH,QURTUBA,PHARMACY,√,√,√,√,−,−,−,−,−,−,013-8677776,013-8670201,جدة,الغربة,مجموعة صدلات الدواء
78,8,HALAH ESSA BIN LADIN POLYCLINIC,WESTERN,JEDDAH,MUSHREFA DISTRICT,CLINIC,√,√,√,√,√,√,√,√,−,−,012-6722315,012-2871694,جدة,الغربة,مستوصف ھالة عسي بن دن
88,9,AL QUDS POLYCLINIC,WESTERN,JEDDAH,ALFAYSALIYAH 6,CLINIC,√,√,√,√,√,√,√,√,√,−,012-6970224,012-6977999,جدة,الغربة,مجمع القدس الطبي
3728,10,AL SAHLY MEDICAL POLYCLINIC,WESTERN,JEDDAH,AL MARWAH,CLINIC,√,√,√,√,√,√,√,√,√,√,012-6583386,012-6583405,جدة,الغربة,مجمع السھلي الطبي
2313,10,SHIFA AL MUNTAZAH POLYCLINIC,WESTERN,JEDDAH,AL MUNTAZAH,CLINIC,√,√,√,√,√,√,√,√,√,√,012-6205999,012-2620804,جدة,الغربة,مجمع شفاء المنتزه
441,10,ESKAN POLY CLINIC,WESTERN,JEDDAH,ALSHRAFEIYAH,CLINIC,√,√,√,√,√,√,√,√,√,√,012-6530784,012-6518069,جدة,الغربة,مستوصف اسكان
5384,10,INAYA SANABIL POLYCLINIC,WESTERN,JEDDAH,SNABIL,CLINIC,√,√,√,√,√,√,√,√,√,√,920003309,920003309,جدة,الغربة,مجمع عناة سنابل الطبي
5181,8,AL MUKHALIS HEARING SYSTEM,WESTERN,JEDDAH,MUSHRIFA,CENTER,√,√,√,√,√,√,√,√,−,−,012-6682255,012-6684499,جدة,الغربة,مركز المخلص المتمز للسمعات
4704,8,AL SAGGAF OPTICALS - AL SAFA,WESTERN,JEDDAH,AL SAFA,CENTER,√,√,√,√,√,√,√,√,−,−,012-6131499,012-6313400,جدة,الغربة,السقاف للبصرات - الصفا
4706,8,AL SAGGAF OPTICALS - ALFAYAHA,WESTERN,JEDDAH,ALFAYAHA,CENTER,√,√,√,√,√,√,√,√,−,−,012-6131499,012-6313400,جدة,الغربة,السقاف للبصرات - الفحاء
4708,8,AL SAGGAF OPTICALS - ALZAHRA,WESTERN,JEDDAH,ALZAHRA,CENTER,√,√,√,√,√,√,√,√,−,−,012-6131499,012-6313400,جدة,الغربة,السقاف للبصرات - الزھراء
4703,8,AL SAGGAF OPTICALS - AIRPORT BRANCH,WESTERN,JEDDAH,AIRPORT BRANCH,CENTER,√,√,√,√,√,√,√,√,−,−,012-6131499,012-6313400,جدة,الغربة,السقاف للبصرات - المطار
4707,8,AL SAGGAF OPTICALS - ALAZIZIYA,WESTERN,JEDDAH,ALAZIZIYA,CENTER,√,√,√,√,√,√,√,√,−,−,012-6131499,012-6313400,جدة,الغربة,السقاف للبصرات - العززة
4709,8,AL SAGGAF OPTICALS - AL FAHAD,WESTERN,JEDDAH,AL FAHAD,CENTER,√,√,√,√,√,√,√,√,−,−,012-6131499,012-6313400,جدة,الغربة,السقاف للبصرات - مدائن الفھد
2808,9,HUSSAM OPTICS - AL MADINAH ROAD,WESTERN,JEDDAH,AL ROWDHA,CENTER,√,√,√,√,√,√,√,√,√,−,012-6600148,012-6606675,جدة,الغربة,حسام للنظارات - طرق المدنة
2809,9,HUSSAM OPTICS - AL NAKHEEL CENTER,WESTERN,JEDDAH,AL HAMRA,CENTER,√,√,√,√,√,√,√,√,√,−,012-6657287,012-6606675,جدة,الغربة,حسام للنظارات - مركز النخل الطبي
2811,9,HUSSAM OPTICS - AL AZIZIA,WESTERN,JEDDAH,AL AZIZIYAH,CENTER,√,√,√,√,√,√,√,√,√,−,012-6732959,012-6606675,جدة,الغربة,حسام للنظارات - العززة
897,10,AL AZIZIAH POLYCLINIC,WESTERN,JEDDAH,AL AZIZIAH,CLINIC,√,√,√,√,√,√,√,√,√,√,012-6701071,012-6732576,جدة,الغربة,مجمع العززة
354,10,BADRUDDIN MEDICAL COMPLEX (JEDDAH),WESTERN,JEDDAH,jedDAH,CLINIC,√,√,√,√,√,√,√,√,√,√,012-6559191,012-6554418,جدة,الغربة,مجمع بدرالدن الطبي
1338,10,MUSTASHARAK MEDICAL CENTER - JEDDAH,WESTERN,JEDDAH,SAFA DISTRICT,CLINIC,√,√,√,√,√,√,√,√,√,√,012-2220000,012-2220000,جدة,الغربة,مركز مستشارك الطبي
687,10,BADR AL TAMAM POLYCLINIC,WESTERN,JEDDAH,SHARAFIA DISTRICT,CLINIC,√,√,√,√,√,√,√,√,√,√,012-6452884,012-6452844,جدة,الغربة,مستوصف بدر التمام الطبي
934,9,AL HIBA POLYCLINIC,WESTERN,JEDDAH,RUWAIS DISTRICT,CLINIC,√,√,√,√,√,√,√,√,√,−,012-6500089,012-6517881,جدة,الغربة,عادات الھبھ الطبة
1132,9,NEW AL HIBA POLYCLINIC CO.LTD,WESTERN,JEDDAH,ALSMER DISTRICT,CLINIC,√,√,√,√,√,√,√,√,√,−,012-2656005,012-2656007,جدة,الغربة,مجمع عادات الھبھ الجدد
994,10,NEW GULAIL POLYCLINIC,WESTERN,JEDDAH,JEDDAH,CLINIC,√,√,√,√,√,√,√,√,√,√,012-6378073,012-6375575,جدة,الغربة,مجمع عادات غلل الجدد
1237,10,SAFA AL BAWADI POLYCLINIC,WESTERN,JEDDAH,JEDDAH,CLINIC,√,√,√,√,√,√,√,√,√,√,012-6625536,012-6625541,جدة,الغربة,عادات صفا  البوادي
66,9,BAWADI JEDDAH POLYCLINIC ( SABA-1 ),WESTERN,JEDDAH,AL NUZHA,CLINIC,√,√,√,√,√,√,√,√,√,−,012-6542022,012-6695024,جدة,الغربة,مستوصف بوادي جده ( سابا كلنك ) 1
68,9,AL SULAYMANIAH POLYCLINIC ( SABA-3 ),WESTERN,JEDDAH,AL SULAYMANIYAH,CLINIC,√,√,√,√,√,√,√,√,√,−,012-6405908,012-6695024,جدة,الغربة,مستوصف السلمانة ( سابا كلنك ) 3
83,9,AL SAFA POLYCLINIC ( SABA-2 ),WESTERN,JEDDAH,Kilo 13,CLINIC,√,√,√,√,√,√,√,√,√,−,012-6204547,012-6209857,جدة,الغربة,مستوصف الصفا الطبي ( سابا كلنك ) 2
4072,9,SABA CLINIC 7,WESTERN,JEDDAH,AL SAMER,CLINIC,√,√,√,√,√,√,√,√,√,−,012-6410178,012-6695024,جدة,الغربة,مجمع سابا كلنك 7
2847,10,AL NAHDA CLINIC,WESTERN,JEDDAH,ALMONTAZHAT DISTRICT,CLINIC,√,√,√,√,√,√,√,√,√,√,012-6205940,012-6205045,جدة,الغربة,مجمع النھضة الطبي
663,10,TAJ POLY CLINIC,WESTERN,JEDDAH,GULAIL DISTRICT,CLINIC,√,√,√,√,√,√,√,√,√,√,012-6355715,012-6355833,جدة,الغربة,مجمع تاج الطبي
896,10,AL FAISAL POLYCLINIC -1 (ALYASMINA),WESTERN,JEDDAH,Al Naeem District,CLINIC,√,√,√,√,√,√,√,√,√,√,012-6318900,012-6323003,جدة,الغربة,مجمع الفصل الطبي العام - 1
5378,10,AL FAISAL POLYCLINIC -2,WESTERN,JEDDAH,AL NAEEM,CLINIC,√,√,√,√,√,√,√,√,√,√,012-6120999,012-6120361,جدة,الغربة,مجمع الفصل الطبي العام - 2
5379,10,AL FAISAL POLYCLINIC -3,WESTERN,JEDDAH,ALSAMR,CLINIC,√,√,√,√,√,√,√,√,√,√,012-6120999,012-6120361,جدة,الغربة,مجمع الفصل الطبي العام - 3
1008,10,ISLAM MEDICAL CLINIC,WESTERN,JEDDAH,ALJAMEA DISTRICT,CLINIC,√,√,√,√,√,√,√,√,√,√,012-6871077,012-6804275,جدة,الغربة,مجمع اسم الطبي
1329,10,BALGHSOON POLYCLINIC,WESTERN,JEDDAH,JEDDAH,CLINIC,√,√,√,√,√,√,√,√,√,√,012-6327100,012-6325998,جدة,الغربة,مجمع عادات بلغصون الطبي
1563,10,SHIFA JEDDAH POLYCLINIC,WESTERN,JEDDAH,SHARAFIA DISTRICT,CLINIC,√,√,√,√,√,√,√,√,√,√,012-6533636,012-6512888,جدة,الغربة,مجمع شفاء جدة الطبي
2292,10,HIBA ASIA POLYCLINIC,WESTERN,JEDDAH,ALRAWABI,CLINIC,√,√,√,√,√,√,√,√,√,√,012-6232020,012-6238465,جدة,الغربة,مستوصف ھبھ اسا
2221,10,HIBA ASIA POLYCLINIC-2,WESTERN,JEDDAH,BAB MAKKAH,CLINIC,√,√,√,√,√,√,√,√,√,√,012-6241777,012-6446825,جدة,الغربة,مجمع ھبھ اسا الطبي رقم -2
2281,10,AL RAHAILY POLYCLINIC,WESTERN,JEDDAH,ALRAHAILY TOWNSHIP,CLINIC,√,√,√,√,√,√,√,√,√,√,012-2894583,012-2882703,جدة,الغربة,مجمع عادات الرحلي الطبي
1875,9,DR TALAL QUTUB MEDICAL CENTER,WESTERN,JEDDAH,SAFA DISTRICT,CLINIC,√,√,√,√,√,√,√,√,√,−,012-6939222,012-6774083,جدة,الغربة,مركز طل قطب  الطبي
1448,10,AL RAQOUN MEDICAL CENTER,WESTERN,JEDDAH,ALSHARAFIYAH DISTRICT,CLINIC,√,√,√,√,√,√,√,√,√,√,012-6143630,012-6143658,جدة,الغربة,مركز الراقون الممز للخدمات الطبة
812,10,NASEEM JEDDAH POLYCLINIC,WESTERN,JEDDAH,AZIZIAH DISTRICT,CLINIC,√,√,√,√,√,√,√,√,√,√,012-2875000,012-2875580,جدة,الغربة,مجمع عادات نسم جده الطبي
73,9,MUSHRIFA MEDICAL CENTRE,WESTERN,JEDDAH,Opp.Masjid Abubakr.,CLINIC,√,√,√,√,√,√,√,√,√,−,012-6742653,012-6702250,جدة,الغربة,مستوصف مشرفة الطبي
131,10,AL RAYAN POLYCLINIC,WESTERN,JEDDAH,SHARAFIA DISTRICT,CLINIC,√,√,√,√,√,√,√,√,√,√,012-6310671,012-6310249,جدة,الغربة,عادات الران الطبي
1690,10,WATANAK POLYCLINIC,WESTERN,JEDDAH,ALSHIFA DISTRICT,CLINIC,√,√,√,√,√,√,√,√,√,√,012-2655500,012-6793723,جدة,الغربة,مجمع عادات وطنك الطبي
819,10,SAMEERA POLYCLINIC,WESTERN,JEDDAH,AZIZIYA DISTRICT,CLINIC,√,√,√,√,√,√,√,√,√,√,012-6178537,012-6760107,جدة,الغربة,عادات سمرة الطبي
723,9,AL ABEER POLYCLINIC (SHARFIA),WESTERN,JEDDAH,SHARAFIA DISTRICT,CLINIC,√,√,√,√,√,√,√,√,√,−,920000501,012-6573034,جدة,الغربة,عادات شركة العبر الطبة (الشرفھ)
2032,9,AL ABEER MEDICAL COMPLEX (INDUSTRIAL),WESTERN,JEDDAH,INDUSTRIAL AREA,CLINIC,√,√,√,√,√,√,√,√,√,−,012-6080326,012-6080302,جدة,الغربة,مجمع عادات العبر (الصناعة)
2033,9,AL ABEER MEDICAL COMPLEX (AZIZIA),WESTERN,JEDDAH,ALAZIZIA,CLINIC,√,√,√,√,√,√,√,√,√,−,012-6174545,012-6174646,جدة,الغربة,مجمع العبر الطبي (العززة)
2034,9,AL ABEER MEDICAL COMPLEX (BAWADI),WESTERN,JEDDAH,ALBAWADI,CLINIC,√,√,√,√,√,√,√,√,√,−,012-6395444,012-6573034,جدة,الغربة,مجمع مركز العبر الطبي (البوادي)
5323,10,WAHAT AL SHIFA MEDICAL CENTER 3,WESTERN,JEDDAH,INDISTRIAL CITY,CLINIC,√,√,√,√,√,√,√,√,√,√,012-6542022,012-6580137,جدة,الغربة,مجمع واحة الشفاء الطبي العام - 3
5026,4,KING FAHAD HOSPITAL-JEDDAH,WESTERN,JEDDAH,AL HAMRAA,HOSPITAL,√,√,√,√,−,−,−,−,−,−,012-6606111,012-6675220,جدة,الغربة,مستشفى الملك فھد بجدة
5027,4,KING ABDULLAH MEDICAL CITY -JEDDAH,WESTERN,JEDDAH,ABHR AL SHAMALIYAH,HOSPITAL,√,√,√,√,−,−,−,−,−,−,012-2285000,012-2858888,جدة,الغربة,مستشفى مجمع الملك عبداللھ الطبي - جدة
5028,4,EAST JEDDAH GENERAL HOSPITAL,WESTERN,JEDDAH,AL SULAYMANIYAH,HOSPITAL,√,√,√,√,−,−,−,−,−,−,012-2323555,012-2275556,جدة,الغربة,مستشفى شرق جدة ( وزارة الصحة )
5040,4,KING ABDULLAH MEDICAL CITY -MAKKAH,WESTERN,MAKKAH,MAKKAH,HOSPITAL,√,√,√,√,−,−,−,−,−,−,012-5549999,012-5549896,مكة,الغربة,مدنة الملك عبداللھ الطبة - مكة المكرمة
5180,4,KING ABDUL AZIZ HOSPITAL - MAKKAH,WESTERN,MAKKAH,AL ZAHIR,HOSPITAL,√,√,√,√,−,−,−,−,−,−,012-5442400,012-5424449,مكة,الغربة,مستشفى الملك عبدالعزز بمكة المكرمة
4511,4,HERAA GENERAL HOSPITAL,WESTERN,MAKKAH,AL AMRAH,HOSPITAL,√,√,√,√,−,−,−,−,−,−,012-5213643,012-5203535,مكة,الغربة,مستشفى حراء العام
4512,4,AL NOOR SPECIALIZED HOSPITAL,WESTERN,MAKKAH,AL HEJRAH,HOSPITAL,√,√,√,√,−,−,−,−,−,−,012-5665000,012-5666743,مكة,الغربة,مستشفى النور التخصصي
4513,4,MATERNITY & CHILDREN HOSPITAL-MAKKAH,WESTERN,MAKKAH,AL NASEEM,HOSPITAL,√,√,√,√,−,−,−,−,−,−,012-5530400,012-5532033,مكة,الغربة,مستشفى النساء والودة - مكة المكرمة
5338,4,KING FAISAL HOSPITAL - MOH,WESTERN,MAKKAH,AL HISHAH,HOSPITAL,√,√,√,√,−,−,−,−,−,−,012-5566411,012-5566411,مكة,الغربة,مستشفى الملك فصل - مكة المكرمة
5460,4,NAMERAH GENERAL HOSPITAL - MINISTRY OF HEALTH,WESTERN,MAKKAH,BALAD,HOSPITAL,√,√,√,√,−,−,−,−,−,−,017-7335826,017-7335826,مكة,الغربة,مستشفى نمرة العام - وزارة الصحة
129,4,ALAWI TUNISI & BROS. HOSPITAL,WESTERN,MAKKAH,AZIZYAH SOUTH AREA,HOSPITAL,√,√,√,√,−,−,−,−,−,−,012-5587777,012-5505467,مكة,الغربة,مستشفى علوي تونسي
4008,4,DR. GHASSAN N. PHAROAN DENTAL CENTER,WESTERN,MAKKAH,AL NUZHAH,CENTER,√,√,√,√,−,−,−,−,−,−,012-5450758,012-5431844,مكة,الغربة,الدكتور غسان نجب فرعون لطب اسنان
5517,4,KAFAAT MEDICAL CENTER,WESTERN,MAKKAH,MAKKAH,CENTER,√,√,√,√,−,−,−,−,−,−,920010076,012-5307700,مكة,الغربة,مجمع كفاءات الطبي العام
3899,6,MAKKAH MEDICAL CENTER HOSPITAL,WESTERN,MAKKAH,AL OMRAH,HOSPITAL,√,√,√,√,√,√,−,−,−,−,012-5222222,012-5206049,مكة,الغربة,مستشفى مركز مكة الطبي
1796,6,MUHAMMAD S.BASHARAHIL HOSPITAL,WESTERN,MAKKAH,MAKKAH,HOSPITAL,√,√,√,√,√,√,−,−,−,−,012-5204444,012-5200779,مكة,الغربة,مستشفى محمد صالح باشراحل
123,6,AL RAFIE HOSPITAL,WESTERN,MAKKAH,MAKKAH,HOSPITAL,√,√,√,√,√,√,−,−,−,−,012-5454455,012-5427129,مكة,الغربة,مستشفى الرفع
3878,6,SHIFA MEDICAL COMPLEX,WESTERN,MAKKAH,SAHAT ISLAM,CLINIC,√,√,√,√,√,√,−,−,−,−,012-5479000,012-5454635,مكة,الغربة,مجمع عادات شفاء الطبي ( شفاء البركة)
4712,6,AL BADR MEDICAL COMPLEX - AL SHRAYA,WESTERN,MAKKAH,AL SHARAYA,CLINIC,√,√,√,√,√,√,−,−,−,−,012-5506667,012-5380499,مكة,الغربة,مجمع البدر الطبي - الشرائع
4713,6,AL BADR MEDICAL COMPLEX - AL ADL,WESTERN,MAKKAH,AL ADL,CLINIC,√,√,√,√,√,√,−,−,−,−,012-5533770,012-5272866,مكة,الغربة,مجمع البدر الطبي - العدل
5163,6,AL BADR MEDICAL COMPLEX - ALJUMUM,WESTERN,MAKKAH,AL JUMUM,CLINIC,√,√,√,√,√,√,−,−,−,−,012-5940071,012-5533771,مكة,الغربة,مجمع البدر الطبي - الجموم
5344,6,AL BADR MEDICAL COMPLEX - 1,WESTERN,MAKKAH,AL HAJ,CLINIC,√,√,√,√,√,√,−,−,−,−,012-5533770,012-5533778,مكة,الغربة,مجمع البدر الطبي - 1
2188,6,ROUYA OPTICAL CENTER (MAKKAH),WESTERN,MAKKAH,AL RESAFA,CENTER,√,√,√,√,√,√,−,−,−,−,012-5395213,012-5395215,مكة,الغربة,مركز رؤا للبصرات
2461,8,HAKEEM EYOUN (MAKKAH),WESTERN,MAKKAH,MAKKAH,CENTER,√,√,√,√,√,√,√,√,−,−,012-5400600,011-4942483,مكة,الغربة,مركز حكم عون للبصرات
554,8,AL SHEFA HOSPITAL,WESTERN,MAKKAH,AL HENDAWYA,HOSPITAL,√,√,√,√,√,√,√,√,−,−,012-5369779,012-5324351,مكة,الغربة,مستشفى الشفاء
1956,8,MADAAR AL SHEFA DENTAL POLYCLINIC (AL AZIZIA),WESTERN,MAKKAH,AZIZIYA DISTRICT,CENTER,√,√,√,√,√,√,√,√,−,−,012-5543333,012-5577566,مكة,الغربة,مجمع  مدار الشفاء لطب اسنان (العززة )
2729,8,SAUDI NATIONAL HOSPITAL,WESTERN,MAKKAH,ALAZIZIYA,HOSPITAL,√,√,√,√,√,√,√,√,R,R,012-6522277,012-6522288,مكة,الغربة,المستشفى اھلي السعودي
5293,10,AL ZAHER GENERAL COMPLEX,WESTERN,MAKKAH,AL ZAHER,CLINIC,√,√,√,√,√,√,√,√,√,√,012-5492800,012-5492700,مكة,الغربة,مجمع الزاھر الطبي العام
5437,10,ALMUTAHIDOON AL-ASRI GENERAL POLYCLINIC,WESTERN,MAKKAH,ALKHOZAMA,CLINIC,√,√,√,√,√,√,√,√,√,√,012-5221111,012-5220036,مكة,الغربة,مجمع المتحدون العصري الطبي العام
5438,10,ALMAHA CARE CLINICS,WESTERN,MAKKAH,ALRASEFAH,CLINIC,√,√,√,√,√,√,√,√,√,√,012-5655155,012-5655355,مكة,الغربة,مجمع عناة المھا الطبي
4678,9,AL ANSARI OPTICAL - MAKKAH,WESTERN,MAKKAH,AL AZIZIYAH,CENTER,√,√,√,√,√,√,√,√,√,−,012-5571967,012-5571967,مكة,الغربة,انصاري للبصرات - مكة
2821,9,HUSSAM OPTICS - AL MADINAH CENTER,WESTERN,MAKKAH,AL MANSOUR,CENTER,√,√,√,√,√,√,√,√,√,−,012-5400063,012-6606675,مكة,الغربة,حسام للنظارات - مركز المدنة
1302,10,ASIAN POLYCLINIC (AZIZIA),WESTERN,MAKKAH,NORTH AL AZIZIA,CLINIC,√,√,√,√,√,√,√,√,√,√,920001716,012-5500522,مكة,الغربة,مجمع عادات اسا العززة
740,10,ASIAN POLYCLINIC,WESTERN,MAKKAH,MAKKAH,CLINIC,√,√,√,√,√,√,√,√,√,√,012-5380891,012-5381379,مكة,الغربة,مجمع اسا الطبي
3927,10,AL HAYAT MEDICAL POLYCLINIC COMPLEX,WESTERN,MAKKAH,AL OTIBIYAH,CLINIC,√,√,√,√,√,√,√,√,√,√,012-5454800,012-5474102,مكة,الغربة,مجمع عادات الحاة الطبة
1192,10,AL KHOLOOD CLINIC,WESTERN,MAKKAH,ALZAHER DIS,CLINIC,√,√,√,√,√,√,√,√,√,√,012-5459407,012-5459407,مكة,الغربة,مجمع الخلود الطبي
2031,9,AL ABEER MEDICAL COMPLEX (MAKKAH),WESTERN,MAKKAH,ALAZIZIAH,CLINIC,√,√,√,√,√,√,√,√,√,−,012-5665656,012-5664040,مكة,الغربة,مجمع عادات مركز العبر الطبي
5035,9,AL SAAED GENERAL MEDICAL CENTER,WESTERN,MAKKAH,MAKKAH,CLINIC,√,√,√,√,√,√,√,√,√,−,012-5491111,012-5434273,مكة,الغربة,مجمع الصاعد الطبي العام
5151,10,ABDULAZIZ ALBISHRI MEDICAL CENTER,WESTERN,MAKKAH,BATHHA QURYSH,CLINIC,√,√,√,√,√,√,√,√,√,√,012-5315554,012-5317774,مكة,الغربة,مجمع عبدالعزز البشري العام
5319,10,ASFAN POLYCLINIC,WESTERN,MAKKAH,ASFAN,CLINIC,√,√,√,√,√,√,√,√,√,√,012-2653113,012-2653344,مكة,الغربة,مجمع عادات عسفان الطبي
5320,10,MAJID MOHAMMED AL BISHRI MEDICAL COMPLEX - KHOLIES,WESTERN,MAKKAH,KHOLIES,CLINIC,√,√,√,√,√,√,√,√,√,√,012-2135562,012-2135562,مكة,الغربة,مجمع ماجد محمد البشري الطبي (البشري الطبة - خلص)
5461,4,ALMUDHAILIF GENERAL HOSPITAL-MOH,WESTERN,ALMUDHAILIF,ALMUDHAILIF,HOSPITAL,√,√,√,√,−,−,−,−,−,−,012-7738240,017-7382448,مكة,الغربة,مستشفى المظلف العام- وزارة الصحة
4514,4,KING ABDULAZIZ SPECIALIZED HOSPITAL,WESTERN,AL TAIEF,AL TAIF,HOSPITAL,√,√,√,√,−,−,−,−,−,−,012-7310800,012-7310880,الطائف,الغربة,مستشفى الملك عبدالعزز التخصصي
4640,4,CHILDREN HOSPITAL - TAIF,WESTERN,AL TAIEF,AL TAIEF,HOSPITAL,√,√,√,√,−,−,−,−,−,−,012-7447202,012-7447526,الطائف,الغربة,مستشفى اطفال بالطائف
119,4,AL ADWANI GENERAL HOSPITAL,WESTERN,AL TAIEF,ALFAYSALIAH DIS,HOSPITAL,√,√,√,√,−,−,−,−,−,−,012-7340000,012-7361661,الطائف,الغربة,مستشفى العــدواني
4515,4,KING FAISAL HOSPITAL - TAIF,WESTERN,AL TAIEF,AL HADAEQ,HOSPITAL,√,√,√,√,−,−,−,−,−,−,012-7481699,012-7486532,الطائف,الغربة,مجمع الملك فصل الطبي
5386,4,AL MUWAYH GENERAL HOSPITAL - MOH,WESTERN,AL TAIEF,AL TAIEF,HOSPITAL,√,√,√,√,−,−,−,−,−,−,012-8522010,012-8520878,الطائف,الغربة,مستشفى الموة العام
5387,4,QEYA GENERAL HOSPITAL - MOH,WESTERN,AL TAIEF,AL TAIEF,HOSPITAL,√,√,√,√,−,−,−,−,−,−,012-7570726,012-7570726,الطائف,الغربة,مستشفى قا العام
4007,4,DR. GHASSAN N. PHAROAN DENTAL CENTER,WESTERN,AL TAIEF,SHUBRA,CENTER,√,√,√,√,−,−,−,−,−,−,012-7327055,012-7325664,الطائف,الغربة,الدكتور غسان نجب فرعون لطب اسنان
222,6,AL AMEEN HOSPITAL,WESTERN,AL TAIEF,ALSALAMA DISTRICT,HOSPITAL,√,√,√,√,√,√,R,R,R,R,012-7366416,012-7329646,الطائف,الغربة,مستشفى امن
1844,6,AL WATAN CENTER FOR EYE GLASS,WESTERN,AL TAIEF,SAAHAR,CENTER,√,√,√,√,√,√,−,−,−,−,012-7490660,012-7454596,الطائف,الغربة,مركز الوطن للبصرات
2291,10,YOUR HEALTH MEDICAL CLINICS,WESTERN,AL TAIEF,AL WASHHA,CLINIC,√,√,√,√,√,√,√,√,√,√,012-7499099,012-7499096,الطائف,الغربة,مجمع عادات صحتكم الطبي
5021,10,SAMRAN TRUST MEDICAL CLINICS,WESTERN,AL TAIEF,AL HUHADA,CLINIC,√,√,√,√,√,√,√,√,√,√,012-7451335,012-7452627,الطائف,الغربة,مجمع ثقة سمران الطبي العام
5022,6,ALUSRAH ALMOTAMYEZ CLINICS,WESTERN,AL TAIEF,AL HUHADA,CLINIC,√,√,√,√,√,√,−,−,−,−,012-7466980,012-7430167,الطائف,الغربة,مجمع اسرة المتمز الطبي العام
1861,8,AL NAHDA HOSPITAL,WESTERN,AL TAIEF,TAIF,HOSPITAL,√,√,√,√,√,√,√,√,R,R,012-7250600,012-7251584,الطائف,الغربة,مستشفى النھضة
2140,10,TURKI MEDICAL POLYCLINIC,WESTERN,AL TAIEF,ALSHOHADAA ALSHMALEIYA DIS,CLINIC,√,√,√,√,√,√,√,√,√,√,012-7441111,012-7411411,الطائف,الغربة,مجمع عادات تركي الطبة
1041,10,AL ANDALUS MEDCAL GROUP,WESTERN,AL TAIEF,SHAHAR,CLINIC,√,√,√,√,√,√,√,√,√,√,012-7405000,012-7407720,الطائف,الغربة,مجموعة اندلس الطبة
1842,9,AL WATAN NATIONAL CLINIC,WESTERN,AL TAIEF,SHEHAR,CLINIC,√,√,√,√,√,√,√,√,√,−,012-7490660,012-7454596,الطائف,الغربة,مجمع عادات الوطن
5439,10,YOUR DOCTOR CONSULTATION POLYCLINIC,WESTERN,AL TAIEF,NKHAB,CLINIC,√,√,√,√,√,√,√,√,√,√,012-7444495,012-7323575,الطائف,الغربة,مجمع طببك استشاري العام
4696,8,AL SITEEN MEDICAL CLINIC,WESTERN,AL HAWIYAH,AL HAWEYA,CLINIC,√,√,√,√,√,√,√,√,−,−,012-7255660,012-7256662,الحوة,الغربة,مجمع عادات الستن
704,10,EL MOKHTAR CLINIC,WESTERN,AL HAWIYAH,ALHAWEYA,CLINIC,√,√,√,√,√,√,√,√,√,√,012-7252702,012-7271305,الحوة,الغربة,مجمع المختار الطبي
5459,4,AL KHURMAH GENERAL HOSPITAL - MOH,WESTERN,AL KHURMA,KHURMAH,HOSPITAL,√,√,√,√,−,−,−,−,−,−,012-8321052,012-8321052,الخرمة,الغربة,مستشفى الخرمة العام - وزارة الصحة
1834,10,BALSAM ELAJ MEDICAL CLINIC - AL KHURMA,WESTERN,AL KHURMA,AL ROWDAH,CLINIC,√,√,√,√,√,√,√,√,√,√,012-8323346,012-8323389,الخرمة,الغربة,مجمع بلسم عج الطبي بالخرمة
1037,4,ROYAL COMMISSION HOSPITAL (YANBU),WESTERN,YANBU,ROYAL COMMISSION,HOSPITAL,√,√,√,√,−,−,−,−,−,−,013-3920102,014-3925260,نبع,الغربة,مستشفى الھئة الملكة
4501,4,YANBU GENERAL HOSPITAL,WESTERN,YANBU,AL BANDAR,HOSPITAL,√,√,√,√,−,−,−,−,−,−,014-3222640,014-3228026,نبع,الغربة,مستشفى نبع العام
4005,4,DR. GHASSAN N. PHAROAN DENTAL CENTER,WESTERN,YANBU,YANBU,CENTER,√,√,√,√,−,−,−,−,−,−,014-3923222,014-3926039,نبع,الغربة,الدكتور غسان نجب فرعون لطب اسنان
4689,6,ROUYA OPTICAL CENTER YANBU - 2,WESTERN,YANBU,ALSHATI,CENTER,√,√,√,√,√,√,−,−,−,−,014-8303293,014-8322355,نبع,الغربة,مركز رؤا للبصرات نبع - 2
818,8,YANBU NATIONAL HOSPITAL,WESTERN,YANBU,NAWAH DISTRICT,HOSPITAL,√,√,√,√,√,√,√,√,R,R,014-3962000,014-3962006,نبع,الغربة,مستشفى نبع الوطني
2195,8,YANBU SPECIALIZED CLINIC,WESTERN,YANBU,YANBU,CLINIC,√,√,√,√,√,√,√,√,−,−,014-3225566,014-3225574,نبع,الغربة,مجمع عادات نبع الطبة
261,10,DAR AL SHEFA POLYCLINIC  (YANBU),WESTERN,YANBU,ALHADAEQ,CLINIC,√,√,√,√,√,√,√,√,√,√,014-3227062,014-3906722,نبع,الغربة,مجمع الشفاء الكامل الطبي ( دار الشفاء سابقا )
2907,9,FARZA OPTICS - YANBU,WESTERN,YANBU,YANBU,CENTER,√,√,√,√,√,√,√,√,√,−,014-3918866,017-2250919,نبع,الغربة,محل فرزة للنظارات -نبع
2920,9,AL ANSARI OPTICAL-YANBU,WESTERN,YANBU,ALJABREY,CENTER,√,√,√,√,√,√,√,√,√,−,014-3571511,014-3910503,نبع,الغربة,انصاري للبصرات -نبع
4675,9,AL ANSARI OPTICAL-YANBU 3,WESTERN,YANBU,AL BANDR,CENTER,√,√,√,√,√,√,√,√,√,−,014-3571511,014-3910503,نبع,الغربة,انصاري للبصرات -نبع 3
95,10,RED SEA DISPENSARY (YANBU),WESTERN,YANBU,YANBU,CLINIC,√,√,√,√,√,√,√,√,√,√,014-3223413,014-3223267,نبع,الغربة,مجمع البحر احمر
640,6,AL ANSARI SPECIALIST HOSPITAL,WESTERN,YANBU  INDUSTRIAL,YANBU,HOSPITAL,√,√,√,√,√,√,R,R,R,R,014-3925111,014-3931605,نبع الصناعة,الغربة,مستشفى انصاري التخصصي
2290,8,PRETTY SMILE DENTALCLIN (YANBU INDUSTRIAL),WESTERN,YANBU  INDUSTRIAL,AL NAKHEEL,CENTER,√,√,√,√,√,√,√,√,−,−,014-3929090,014-3920807,نبع الصناعة,الغربة,مركز ابتسامة الجملة لطب اسنان (نبع الصناعة)
2818,9,HUSSAM OPTICS - YANBU,WESTERN,YANBU  INDUSTRIAL,YANBU,CENTER,√,√,√,√,√,√,√,√,√,−,014-3960510,012-6606675,نبع الصناعة,الغربة,حسام للنظارات -نبع الصناعة
2925,9,AL ANSARI OPTICAL-YANBU ALSINAIYAH,WESTERN,YANBU  INDUSTRIAL,ALJABRIA DISTRICT,CENTER,√,√,√,√,√,√,√,√,√,−,014-3926444,014-3921788,نبع الصناعة,الغربة,انصاري للبصرات -نبع الصناعة
4674,9,AL ANSARI OPTICAL-YANBU ALSINAIYAH 2,WESTERN,YANBU  INDUSTRIAL,YANBU ALSINAIYAH,CENTER,√,√,√,√,√,√,√,√,√,−,014-3571511,014-3910503,نبع الصناعة,الغربة,انصاري للبصرات -نبع الصناعة 2
2921,9,AL ANSARI OPTICAL-YANBU ALBAHAR,WESTERN,YANBU ALBAHR,AL BALAD DISTRICT,CENTER,√,√,√,√,√,√,√,√,√,−,014-3910708,014-3910708,نبع البحر,الغربة,انصاري للبصرات -نبع البحر
116,9,AL AMAL POLYCLINIC,WESTERN,YANBU ALBAHR,SHOLAA DISTRICT,CLINIC,√,√,√,√,√,√,√,√,√,−,014-3226833,014-3910691,نبع البحر,الغربة,مستوصف امل
4508,4,RABEGH GENERAL HOSPITAL,WESTERN,RABEG,AL SHIFA,HOSPITAL,√,√,√,√,−,−,−,−,−,−,012-4221776,012-4221620,رابغ,الغربة,مستشفى رابغ العام
5467,4,KING ABDULAZIZ UNIVERSITY MEDICAL SERVICES CENTER - RABIGH CAMPUS,WESTERN,RABEG,UNIVERSITY,CLINIC,√,√,√,√,−,−,−,−,−,−,012-6400000,,رابغ,الغربة,مركز الخدمات الطبة بجامعة الملك عبد العزز - فرع رابغ
1265,10,DR KHALID IDREES MEDICAL CENTER,WESTERN,RABEG,RABEGH,CLINIC,√,√,√,√,√,√,√,√,√,√,012-4222229,012-4233396,رابغ,الغربة,مركز الدكتور خالد ادرس
49,9,AL NAKHEEL NATIONAL POLYCLINIC,WESTERN,RABEG,AL SAMAD DISTRICT,CLINIC,√,√,√,√,√,√,√,√,√,−,012-4221200,012-4233375,رابغ,الغربة,مستوصف النخل اھلي
2819,9,HUSSAM OPTICS - MAIN STREET (RABEG),WESTERN,RABEG,RABIGH,CENTER,√,√,√,√,√,√,√,√,√,−,012-4221385,012-6606686,رابغ,الغربة,حسام للنظارات - الشارع العام (رابغ)
2923,9,AL ANSARI OPTICAL-RABEG,WESTERN,RABEG,GENERALSTREET,CENTER,√,√,√,√,√,√,√,√,√,−,012-4220320,012-4220320,رابغ,الغربة,انصاري للبصرات - رابغ
458,9,AL AMAL POLYCLINIC,WESTERN,RABEG,RABEG,CLINIC,√,√,√,√,√,√,√,√,√,−,012-4222916,012-4222009,رابغ,الغربة,مجمع أمل رابغ الطبي
5321,9,AL BISHRI MEDICAL COMPLEX - RABGH,WESTERN,RABEG,RABGH,CLINIC,√,√,√,√,√,√,√,√,√,−,012-2653113,012-2653344,رابغ,الغربة,مجمع عادات البشري الطبة  - رابغ
5031,4,UMMLUJ GENERAL HOSPITAL,WESTERN,UMMLUJ,AL SHIFA,HOSPITAL,√,√,√,√,−,−,−,−,−,−,014-3820700,014-3820092,املج,الغربة,مستشفى املج العام
2926,9,AL ANSARI OPTICAL - UMMLUJ,WESTERN,UMMLUJ,GENERALSTREET,CENTER,√,√,√,√,√,√,√,√,√,−,014-3824243,014-3824243,املج,الغربة,انصاري للبصرات - املج
1686,10,AL AMAL POLYCLINIC (UMMLUJ),WESTERN,UMMLUJ,UMMLUJ,CLINIC,√,√,√,√,√,√,√,√,√,√,014-3822140,014-3822680,املج,الغربة,مجمع عادات امل الطبة
1113,10,MAJID MOHAMMED ALHARBI MEDICAL COMPLEX (AL BISHRI THOUAL),WESTERN,THOUAL,THWAL,CLINIC,√,√,√,√,√,√,√,√,√,√,012-2390980,012-2135561,ثول,الغربة,مجمع ماجد محمد عاقل الحربي الطبي (البشري الطبة  - ثول)
5524,4,DR. SULIMAN FAKEEH MEDICAL C. KAUST,WESTERN,THOUAL,THOUAL,CLINIC,√,√,√,√,−,−,−,−,−,−,012-6655000,012-6655000,ثول,الغربة,مجمع الدكتور سلمان فقھ الطبي - ثول
5538,4,THUWAL PHCC (MOH),WESTERN,THOUAL,THOUAL,CLINIC,√,√,√,√,−,−,−,−,−,−,012-2900110,-,ثول,الغربة,مركز صحي ثول
4532,4,AL WAJH GENERAL HOSPITAL,WESTERN,AL WAJH,AL WAJH,HOSPITAL,√,√,√,√,−,−,−,−,−,−,014-4424070,014-4420181,الوجھ,الغربة,مستشفى محافظة الوجھ
3998,4,AL DAWAA MEDICAL SERVICES CO.,WESTERN,AL WAJH,QURTUBA,PHARMACY,√,√,√,√,−,−,−,−,−,−,013-8677776,013-8670201,الوجھ,الغربة,مجموعة صدلات الدواء
893,9,AL AMAL DISPENSARY,WESTERN,AL WAJH,AL KHALIDIYA,CLINIC,√,√,√,√,√,√,√,√,√,−,014-4420702,014-4422963,الوجھ,الغربة,مجمع عادات امل الطبة
5458,4,RANYAH GENERAL HOSPITAL - MOH,WESTERN,RANIA,KING FAISAL,HOSPITAL,√,√,√,√,−,−,−,−,−,−,012-8420084,012-8420084,رنة,الغربة,مستشفى رنة العام- وزارة الصحة
1749,9,YOUR HEALTHCARE MEDICAL POLYCLINIC (RANIA NATIONAL CLINIC PREV.),WESTERN,RANIA,RANIA,CLINIC,√,√,√,√,√,√,√,√,√,−,012-8424061,012-8420030,رنة,الغربة,مجمع العناة بصحتك ( رنة الطبي سابقا )
4644,4,ZALIM G. HOSPITAL,WESTERN,ZALIM,AL WAST,HOSPITAL,√,√,√,√,−,−,−,−,−,−,012-8530887,012-8530997,ظلم,الغربة,مستشفى ظلم العام
4509,4,ADHAM GENERAL HOSPITAL,WESTERN,ADHAM,ADHAM,HOSPITAL,√,√,√,√,−,−,−,−,−,−,-,017-7426092,اضم,الغربة,مستشفى اضم العام
4507,4,AL LAITH GENERAL HOSPTIAL,WESTERN,AL LAIS,CITY CENTER,HOSPITAL,√,√,√,√,−,−,−,−,−,−,017-7421958,017-7421025,اللث,الغربة,مستشفى اللث العام
5511,4,ALLAITH HEALTH CENTER,WESTERN,AL LAIS,ALLEETH,CLINIC,√,√,√,√,−,−,−,−,−,−,012-6831377,012-6831377,اللث,الغربة,مركز الرعاة الصحة بالث وزارة الصحة
2587,10,AL LAIS NATIONAL POLYCLINIC,WESTERN,AL LAIS,OLD MADINAH DISTRICT,CLINIC,√,√,√,√,√,√,√,√,√,√,017-7423446,017-7424031,اللث,الغربة,مجمع عادات اللث المتكامل الطبي
5465,1,PRINCE MOHAMMAD BIN ABDULAZIZ HOSPITAL NATIONAL GUARD,WESTERN,MADINA,ESKAN,HOSPITAL,√,−,−,−,−,−,−,−,−,−,011-8018787,011-2521752,المدنة,الغربة,مستشفى امر محمد بن عبدالعزز
712,2,SAUDI GERMAN HOSPITAL (MADINA),WESTERN,MADINA,ABYAR ALI DISTRICT,HOSPITAL,√,√,−,−,−,−,−,−,−,−,014-8406000,014-8407000,المدنة,الغربة,مستشفى السعودي الماني
4499,4,KING FAHAD HOSPITAL-MADINA,WESTERN,MADINA,UNIVERSITY ROAD,HOSPITAL,√,√,√,√,−,−,−,−,−,−,014-8463080,014-8461160,المدنة,الغربة,مستشفى الملك فھد بالمدنة المنورة
4497,4,OHOD GENERAL HOSPITAL-MADINA,WESTERN,MADINA,AOHD,HOSPITAL,√,√,√,√,−,−,−,−,−,−,014-8300868,014-8300016,المدنة,الغربة,مستشفى احد العام
4498,4,MATERNITY & CHILDREN HOSPITAL-MADINA,WESTERN,MADINA,MAHZUZ,HOSPITAL,√,√,√,√,−,−,−,−,−,−,014-8499500,014-8640951,المدنة,الغربة,مستشفى الودة واطفال
4496,4,MADINA CARDIAC CENTER,WESTERN,MADINA,UNIVERSITY,HOSPITAL,√,√,√,√,−,−,−,−,−,−,014-8550481,014-8551695,المدنة,الغربة,مركز امراض وجراحة القلب
5347,4,AL MEEQAT GENERAL HOSPITAL - MOH,WESTERN,MADINA,OMM KHALID,HOSPITAL,√,√,√,√,−,−,−,−,−,−,014-8401682,014-8404635,المدنة,الغربة,مستشفى المقات العام
128,6,MADINA NATIONAL HOSPITRAL,WESTERN,MADINA,ALHEZAM ALKHDAR,HOSPITAL,√,√,√,√,√,√,−,−,−,−,014-8444444,014-8442706,المدنة,الغربة,مستشفى  المدنة الوطني
566,4,AL MOUWASAT HOSPITAL (MADINA),WESTERN,MADINA,MADINA,HOSPITAL,√,√,√,√,−,−,−,−,−,−,014-8422211,014-8423420,المدنة,الغربة,مستشفى المواساة
964,6,AL HAYAH NATIONAL HOSPITAL (AL DAR PREV.),WESTERN,MADINA,MADINA,HOSPITAL,√,√,√,√,√,√,−,−,−,−,014-8677777,014-8677500,المدنة,الغربة,مستشفى الحاة الوطني الدار سابقا
5154,10,UNITED CLINICS MEDICAL COMPLEX,WESTERN,MADINA,AL MEHAN,CLINIC,√,√,√,√,√,√,√,√,√,√,920004360,014-8440894,المدنة,الغربة,مجمع العادات المتحدة الطبي العام
5176,10,ROOH AL SHIFA MEDICAL COMPLEX,WESTERN,MADINA,AL KHATAM,CLINIC,√,√,√,√,√,√,√,√,√,√,014-8690561,014-8690561,المدنة,الغربة,مجمع روح الشفاء الطبي العام
1807,6,ROUYA OPTICAL CENTER (SAYYID AL SHOUHADA),WESTERN,MADINA,AL MUSTRAH,CENTER,√,√,√,√,√,√,−,−,−,−,014-8372072,014-8306299,المدنة,الغربة,مركز رؤا للبصرات
2187,6,ROUYA OPTICAL CENTER (AL KHALEDIAH),WESTERN,MADINA,ALKHAIDEYH DISTRICT,CENTER,√,√,√,√,√,√,−,−,−,−,014-8648778,014-8303293,المدنة,الغربة,مركز رؤا للبصرات (الخالدة)
1266,8,DR HAMID AL AHMADI HOSPITAL,WESTERN,MADINA,MADINA,HOSPITAL,√,√,√,√,√,√,√,√,R,R,014-8363332,014-8362996,المدنة,الغربة,مستشفى  الدكتور حامد سلمان احمدي
552,8,AL ZAHRAA HOSPITAL (MADINA),WESTERN,MADINA,MADINA,HOSPITAL,√,√,√,√,√,√,√,√,R,R,014-8488808,014-8487995,المدنة,الغربة,مستشفى الزھراء
3564,6,BASMAT ALFARABI DENTAL CENTER,WESTERN,MADINA,ALDOIMA,CENTER,√,√,√,√,√,√,−,−,−,−,014-8666640,014-8666004,المدنة,الغربة,مجمع عادات بسمة الفارابي لطب اسنان -
2052,6,AL ANDALUS DENTAL CENTER (MADINA),WESTERN,MADINA,SULTANA AREA,CENTER,√,√,√,√,√,√,−,−,−,−,014-8151444,014-8283848,المدنة,الغربة,مستوصف اندلس لطب اسنان (المدنة المنورة)
3565,6,AL FARABI OPTICAL CENTER C,WESTERN,MADINA,ALMOSTARAAH,CENTER,√,√,√,√,√,√,−,−,−,−,014-48254900,014-8237400,المدنة,الغربة,مركز الفارابي للنظارات فئة (ج)
5145,10,DAMA MEDICAL CENTER,WESTERN,MADINA,AL HUHADA,CLINIC,√,√,√,√,√,√,√,√,√,√,014-8367000,014-8367333,المدنة,الغربة,مجمع داما الطبي العام
5516,8,TERYAQ ALHAYAH MEDICAL CENTER,WESTERN,MADINA,MADINA,CLINIC,√,√,√,√,√,√,√,√,−,−,014-8456810,014-8456810,المدنة,الغربة,مجمع تراق الحاة الطبي العام
2817,9,HUSSAM OPTICS - MADINA INTERNATIONAL MARKET,WESTERN,MADINA,AL MADINA SOUQ,CENTER,√,√,√,√,√,√,√,√,√,−,014-8228726,012-6606675,المدنة,الغربة,حسام للنظارات - سوق المدنة الدولي
2722,9,RAWAAT AL MAHA OPTICALS - AL MADINA,WESTERN,MADINA,AL RAYAH,CENTER,√,√,√,√,√,√,√,√,√,−,014-8221545,011-2374525,المدنة,الغربة,روعة المھا للبصرات -المدنة المنورة
2876,9,TELESCOPE OPTICAL-HAZAM BRANCH,WESTERN,MADINA,AL HEZAM,CENTER,√,√,√,√,√,√,√,√,√,−,014-8444477,014-8225577,المدنة,الغربة,تلسكوب للبصرات - فرع الحزام
2877,9,TELESCOPE OPTICAL-QURBAN BRANCH,WESTERN,MADINA,QURBAN,CENTER,√,√,√,√,√,√,√,√,√,−,014-8230000,014-8225577,المدنة,الغربة,تلسكوب للبصرات - فرع قربان
2875,9,TELESCOPE OPTICAL-SULTANA BRANCH,WESTERN,MADINA,SULTANA DISTRICT,CENTER,√,√,√,√,√,√,√,√,√,−,014-8470555,014-8225577,المدنة,الغربة,تلسكوب للبصرات - فرع سلطانة
2922,9,AL ANSARI OPTICAL-ALMADINAH,WESTERN,MADINA,SULTANA DISTRICT,CENTER,√,√,√,√,√,√,√,√,√,−,014-8452743,014-8454856,المدنة,الغربة,انصاري للبصرات - المدنة
4315,10,AQEEQ MEDICAL CENTER,WESTERN,MADINA,AL SHURAYBAT,CLINIC,√,√,√,√,√,√,√,√,√,√,014-8645511,014-8647711,المدنة,الغربة,مجمع العقق الطبي
5429,10,AQEEQ MEDICAL CENTER - 2,WESTERN,MADINA,MADINA,CLINIC,√,√,√,√,√,√,√,√,√,√,014-8444027,014-8481145,المدنة,الغربة,مجمع العقق الطبي - 2
628,10,BAKKARI POLYCLINIC,WESTERN,MADINA,AL HEJRAH,CLINIC,√,√,√,√,√,√,√,√,√,√,014-8390857,014-8390629,المدنة,الغربة,مجمع عادات البكاري الطبة
4565,10,DAR AL SALAM POLYCLINIC,WESTERN,MADINA,MADINA,CLINIC,√,√,√,√,√,√,√,√,√,√,014-8231848,014-8232180,المدنة,الغربة,مجمع دار السم الطبي العام
2028,9,AL ABEER MEDICAL COMPLEX (MADINA),WESTERN,MADINA,AL NASIR DISTRICT,CLINIC,√,√,√,√,√,√,√,√,√,−,014-8268664,012-6573001,المدنة,الغربة,مجمع عادات شركة العبر العالمة الطبة
2064,10,WAHAT AL SHIFA COMPLEX,WESTERN,MADINA,MADINA,CLINIC,√,√,√,√,√,√,√,√,√,√,014-8288202,014-8288089,المدنة,الغربة,مجمع عادات واحة الشفاء الطبي
5177,10,WAHAT AL SHIFA POLYCLINIC - 2,WESTERN,MADINA,AL NASR,CLINIC,√,√,√,√,√,√,√,√,√,√,014-8230888,014-8231888,المدنة,الغربة,مجمع واحة الشفاء الطبي العام - 2
5289,4,AL MAHD GENERAL HOSPITAL,WESTERN,MAHD ALZHAHAB,MAHD AL ZHAHB,HOSPITAL,√,√,√,√,−,−,−,−,−,−,014-8680506,014-8681727,مھد الذھب,الغربة,مستشفى المھد العام
4500,4,PRINCE ABDULMOHSIN HOSPITAL-OLA,WESTERN,OLAA,AL AZIZIYAH,HOSPITAL,√,√,√,√,−,−,−,−,−,−,014-8840182,014-8840182,الع,الغربة,مستشفى امر عبدالمحسن بالع
4686,6,ROUYA OPTICAL CENTER (AL OLAA),WESTERN,OLAA,AL OLAA,CENTER,√,√,√,√,√,√,−,−,−,−,014-8842255,014-8363996,الع,الغربة,مركز رؤا للبصرات - الع
5522,10,NAKAA MEDICAL POLYCLINIC,WESTERN,OLAA,AL OLAA,cliNIC,√,√,√,√,√,√,√,√,√,√,014-8840006,014-8840006,الع,الغربة,مجمع نقاء الطبي العام
1929,10,AL NOUR POLYCLINIC (BADER),WESTERN,BADR,BADR AL SHUHADA,CLINIC,√,√,√,√,√,√,√,√,√,√,014-3324541,014-3324401,بدر,الغربة,مجمع عادات النور الطبي (منطقة بدر)
2163,9,AL HANAKIA PRIVATE CLINIC,WESTERN,AL HANAKIA,ALHANAKEA,CLINIC,√,√,√,√,√,√,√,√,√,−,014-8620893,014-8621485,الحناكة,الغربة,مجمع عادات الحناكة الطبي
100,2,ABHA PRIVATE HOSPITAL,SOUTHERN,ABHA,ALKHAIDEYH DISTRICT,HOSPITAL,√,√,−,−,−,−,−,−,−,−,017-2292222,017-2241260,ابھا,الجنوبة,مستشفى ابھا الخاص
4641,4,ASEER CENTRAL HOSPITAL,SOUTHERN,ABHA,ABHA,HOSPITAL,√,√,√,√,−,−,−,−,−,−,017-2251155,017-2251155,ابھا,الجنوبة,مستشفى عسر المركزي
5284,4,ABHA MATERNITY AND CHILDREN HOSPITAL,SOUTHERN,ABHA,AL MAHALAH,HOSPITAL,√,√,√,√,R,R,R,R,R,R,017-2257575,017-2240726,ابھا,الجنوبة,مستشفى ابھا للودة واطفال
5433,4,PRINCE FAISAL BIN K. CARDIAC HOSPITAL,SOUTHERN,ABHA,ABHA,HOSPITAL,√,√,√,√,−,−,−,−,−,−,017-2281633,017-2281633,ابھا,الجنوبة,مركز امر فصل بن خالد لطب وجراحة القلب
299,6,GHASSAN NAJEEB PHAROAN HOSPITAL (ABHA),SOUTHERN,ABHA,KHAMIS MUSHAYT,HOSPITAL,√,√,√,√,√,√,R,R,R,R,017-2200002,017-2222739,ابھا,الجنوبة,مستشفى غسان نجب فرعون
5540,6,SHAMASAN MEDICAL WORKS COMPLEX,SOUTHERN,ABHA,ABHA,CLINIC,√,√,√,√,√,√,−,−,−,−,017-2296373,-,ابھا,الجنوبة,مجمع شمسان الطبي
2879,9,FARZA OPTICS - ABHA,SOUTHERN,ABHA,AL DABAB,CENTER,√,√,√,√,√,√,√,√,√,−,017-2243634,017-2250919,ابھا,الجنوبة,محل فرزة للنظارات -ابھا
2895,9,INT'L OPTICS HOUSE - ABHA,SOUTHERN,ABHA,SOUQ AL QUBA,CENTER,√,√,√,√,√,√,√,√,√,−,017-2260539,017-2250919,ابھا,الجنوبة,بت النظارات الدولي -ابھا
1011,10,AL THIMAL MEDICAL CENTRE (ABHA),SOUTHERN,ABHA,HIZAM DISTRICT,CLINIC,√,√,√,√,√,√,√,√,√,√,017-2316666,017-2291212,ابھا,الجنوبة,مجمع عادات الثمال الطبھ (أبھا)
1026,10,AL ARKAN POLYCLINIC,SOUTHERN,ABHA,ALNOMEIS DISTRICT,CLINIC,√,√,√,√,√,√,√,√,√,√,017-2282727,017-2245561,ابھا,الجنوبة,مجمع اركان الطبي
2206,10,AL NOMAIS POLYCLINIC,SOUTHERN,ABHA,ALMOWAZAFIN DISTRICT,CLINIC,√,√,√,√,√,√,√,√,√,√,017-2272192,017-2253355,ابھا,الجنوبة,مجمع النمص الطبي
5285,10,AL NOMAIS POLYCLINIC - ALBADIE,SOUTHERN,ABHA,AL BADIE,CLINIC,√,√,√,√,√,√,√,√,√,√,017-2253555,017-2278884,ابھا,الجنوبة,مجمع النمص الطبي  - حي البدع
5343,10,HAMZAH JEADAN AL AMRI POLYCLINIC,SOUTHERN,ABHA,AL MANSEK,CLINIC,√,√,√,√,√,√,√,√,√,√,017-2261600,017-2222247,ابھا,الجنوبة,مجمع حمزة جعدان العمري الطبي العام
4518,4,KHAMIS MUSHAIT HOSPITAL,SOUTHERN,KHAMIS M,ALSHIFA,HOSPITAL,√,√,√,√,−,−,−,−,−,−,017-2371919,017-2237021,خمس مشط,الجنوبة,مستشفى خمس مشط المدني
4519,4,MATERNITY & CHILDREN HOSPITAL-KHAMIS,SOUTHERN,KHAMIS M,AL SINAIYAH,HOSPITAL,√,√,√,√,−,−,−,−,−,−,017-2231107,017-2213018,خمس مشط,الجنوبة,مستشفى خمس مشط للودة واطفال
544,2,SAUDI GERMAN HOSPITAL (KHAMIS),SOUTHERN,KHAMIS M,HUSAM DISTRICT,HOSPITAL,√,√,−,−,−,−,−,−,−,−,017-2355000,017-2354431,خمس مشط,الجنوبة,مستشفى السعودي الماني
2286,6,AL SHIFA CLINIC,SOUTHERN,KHAMIS M,AL DUBAT,CLINIC,√,√,√,√,√,√,−,−,−,−,017-2233348,017-2237798,خمس مشط,الجنوبة,مجمع شفاء الجنوب الطبي الطبي
5366,6,BIN RUSHD OPHTHALMIC CENTER -4,SOUTHERN,KHAMIS M,KHAMIS M,CENTER,√,√,√,√,√,√,−,−,−,−,920000181,017-2331308,خمس مشط,الجنوبة,مركز بن رشد لطب العون وجراحة الوم الواحد
916,6,AL HAYAT NATIONAL HOSPITAL (ABHA),SOUTHERN,KHAMIS M,RIYADH ROAD,HOSPITAL,√,√,√,√,√,√,R,R,R,R,017-2334444,017-2351414,خمس مشط,الجنوبة,مستشفى الحاة اھلي
94,8,AL AHLY HOSPITAL (KHAMIS),SOUTHERN,KHAMIS M,HAMEELAH DISTRICT,HOSPITAL,√,√,√,√,√,√,√,√,R,R,017-2350000,017-2220460,خمس مشط,الجنوبة,مستشفى اھلي
4848,8,TADAWI MEDICAL CENTER,SOUTHERN,KHAMIS M,AL MOSA,CLINIC,√,√,√,√,√,√,√,√,−,−,017-2680000,017-2650000,خمس مشط,الجنوبة,مجمع تداوي التخصصي الطبي
3667,8,MUSTASHARAK HOSPITAL,SOUTHERN,KHAMIS M,KHAMIS M,HOSPITAL,√,√,√,√,√,√,√,√,R,R,017-2200006,017-2200004,خمس مشط,الجنوبة,مستشفى مستشارك
5332,8,KHALDIA KHAMIS MEDICAL CENTER,SOUTHERN,KHAMIS M,KHALIDIYAH,CLINIC,√,√,√,√,√,√,√,√,−,−,017-2351624,017-2351627,خمس مشط,الجنوبة,مجمع الخالدة الطبي - خمس مشط
5352,8,WASNI MEDICAL COMPLEX - KHAMIS MUSHAIT,SOUTHERN,KHAMIS M,AL RAQI,CLINIC,√,√,√,√,√,√,√,√,−,−,017-2741000,017-2202588,خمس مشط,الجنوبة,مجمع عادات واسني الطبي - خمس مشط
2724,9,RAWAAT AL MAHA OPTICALS - KHAMIS MUSHAIT 2,SOUTHERN,KHAMIS M,KING KHALID R,CENTER,√,√,√,√,√,√,√,√,√,−,017-2201342,011-2374525,خمس مشط,الجنوبة,روعة المھا للبصرات -خمس مشط 2
2893,9,FARZA OPTICS - KHMIS MUSHAYT,SOUTHERN,KHAMIS M,KHAMIS MUSHAIT,CENTER,√,√,√,√,√,√,√,√,√,−,017-2239780,017-2250919,خمس مشط,الجنوبة,محل فرزة للنظارات -خمس مشط
2905,9,CASTLE OPTICS - KHMIS MUSHAYT,SOUTHERN,KHAMIS M,SOUQ AL JAMIYAH,CENTER,√,√,√,√,√,√,√,√,√,−,017-2373564,017-2250919,خمس مشط,الجنوبة,قلعة البصرات للنظارات -خمس مشط
2906,9,FARZA OPTICS 2 -KHMIS MUSHAYT,SOUTHERN,KHAMIS M,KHAMIS MUSHAIT,CENTER,√,√,√,√,√,√,√,√,√,−,017-2373564,017-2250919,خمس مشط,الجنوبة,محل فرزة للنظارات 2 -خمس مشط
2912,9,INT'L OPTICS HOUSE 2 - KHAMIS MUSHAYT,SOUTHERN,KHAMIS M,KING KHALID R,CENTER,√,√,√,√,√,√,√,√,√,−,017-2570394,017-2250919,خمس مشط,الجنوبة,بت النظارات الدولي -خمس مشط
5350,8,WASNI MEDICAL COMPLEX - KHIBER ALJANOUP,SOUTHERN,KHAMIS M,KHAMIS M,CLINIC,√,√,√,√,√,√,√,√,−,−,017-2692212,017-2692111,خمس مشط,الجنوبة,مجمع عادات واسني الطبي - خبر الجنوب
5351,8,WASNI MEDICAL COMPLEX - WADI BIN HASHBAL,SOUTHERN,KHAMIS M,KHAMIS M,CLINIC,√,√,√,√,√,√,√,√,−,−,017-2214925,017-2214925,خمس مشط,الجنوبة,مجمع عادات واسني الطبي - وادي بن ھشبل
4316,10,SHIFA AL KHAMIS MEDICAL COMPLEX,SOUTHERN,KHAMIS M,ALKHAIDEYH DISTRICT,CLINIC,√,√,√,√,√,√,√,√,√,√,017-2374233,017-2373231,خمس مشط,الجنوبة,مجمع عادات شفاء الخمس
2153,10,MY CARE MEDICAL POLYCLINIC,SOUTHERN,KHAMIS M,AL KHALEDEYA DISTRICT,CLINIC,√,√,√,√,√,√,√,√,√,√,017-2212010,017-2207772,خمس مشط,الجنوبة,مجمع عادات رعاتي للخدمات الطبة
3127,10,AL THIMAL MEDICAL CENTRE (KHAMIS),SOUTHERN,KHAMIS M,HIZAM DISTRICT,CLINIC,√,√,√,√,√,√,√,√,√,√,017-2226666,017-2221425,خمس مشط,الجنوبة,مجمع عادات الثمال الطبة 2 (خمس مشط)
1976,10,AL HUSSAM POLYCLINIC,SOUTHERN,KHAMIS M,HAM,CLINIC,√,√,√,√,√,√,√,√,√,√,017-2507777,017-2507877,خمس مشط,الجنوبة,مجمع الحسام الطبي (خمس مشط)
659,9,AL SHAMIL FAMILY POLYCLINIC,SOUTHERN,KHAMIS M,OM ASRAR DISTRICT,CLINIC,√,√,√,√,√,√,√,√,√,−,017-2228800,017-2209966,خمس مشط,الجنوبة,مجمع عادات اسرة الشامل
5286,10,AL NOMAIS POLYCLINIC - KHAMIS.M,SOUTHERN,KHAMIS M,SHABAH,CLINIC,√,√,√,√,√,√,√,√,√,√,017-2231999,017-2234429,خمس مشط,الجنوبة,مجمع عادات النمص الطبي - خمس مشط
5287,10,AL NOMAIS POLYCLINIC - WADI BIN HASHBAL,SOUTHERN,KHAMIS M,ADI BIN HASHBAL,CLINIC,√,√,√,√,√,√,√,√,√,√,017-2641616,017-2641722,خمس مشط,الجنوبة,مجمع عادات النمص الطبي - وادي بن ھشبل
5406,4,RJAL ALMAA GENERAL HOSPITAL - MOH,SOUTHERN,RJAL ALMAA,RJAL ALMAA,HOSPITAL,√,√,√,√,−,−,−,−,−,−,017-2580019,017-2581151,رجال المع,الجنوبة,مستشفى رجال المع العام
1732,4,SARAT ABIADAH HOSPITAL (MOH),SOUTHERN,SARAT ABEDA,AL SHIFA,HOSPITAL,√,√,√,√,−,−,−,−,−,−,011-4050714,017-2296911,سراة عبده,الجنوبة,مستشفى سراة عبد (وزارة الصحة )
4560,9,DERYAG MEDICAL COMPLEX - SARAT ABEDA ( FUTURE VISIONS PREV.),SOUTHERN,SARAT ABEDA,SARAT ABEDAH,CLINIC,√,√,√,√,√,√,√,√,√,−,017-2591828,017-2594939,سراة عبده,الجنوبة,مجمع دراق الطبي- سراه عبدة ( روئ المستقبل سابقا)
5336,4,AHAD RUFAIDA GENERAL HOSPITAL,SOUTHERN,AHAD RUFAIDA,WAROD,HOSPITAL,√,√,√,√,−,−,−,−,−,−,017-2508969,017-2508473,احد رفدة,الجنوبة,مستشفى احد رفدة العام
301,10,AL HARAMAIN POLYCLINIC,SOUTHERN,AHAD RUFAIDA,AHAD RUFAIDA,CLINIC,√,√,√,√,√,√,√,√,√,√,017-2507877,017-2507033,احد رفدة,الجنوبة,مجمع  الحرمن الطبي
4328,9,SAEED AL WADEI MEDICAL COMPLEX,SOUTHERN,DHARAN AL JANOOB,DHARAN AL JANOOB,CLINIC,√,√,√,√,√,√,√,√,√,−,017-2551829,017-2551244,ظھران الجنوب,الجنوبة,مجمع عادات سعد الوادعي الطبي
5025,4,DHAHRAN AL JANOOB GENERAL HOSPITAL,SOUTHERN,DHARAN AL JANOOB,AL ISKAN,HOSPITAL,√,√,√,√,−,−,−,−,−,−,017-2553810,017-2550332,ظھران الجنوب,الجنوبة,مستشفى ظھران الجنوب العام
5024,4,AL NAMAS GENERAL HOSPITAL,SOUTHERN,AL NAMAS,AL NAMAS,HOSPITAL,√,√,√,√,−,−,−,−,−,−,017-2830441,017-2831402,النماص,الغربة,مستشفى النماص العام
4552,4,KING FAHAD CENTRAL HOSPITAL,SOUTHERN,JAZAN,KING FAHAD,HOSPITAL,√,√,√,√,−,−,−,−,−,−,017-3250717,017-3250318,جازان,الجنوبة,مستشفى الملك فھد المركزي
4554,4,PRINCE MOHAMMED BIN NASSER HOSPTIAL,SOUTHERN,JAZAN,AL SHWAJRAH,HOSPITAL,√,√,√,√,−,−,−,−,−,−,017-3238007,017-3312001,جازان,الجنوبة,مستشفى امر محمد بن ناصر
4553,4,FARASAN GENERAL HOSPITAL,SOUTHERN,JAZAN,MAIN ST.,HOSPITAL,√,√,√,√,−,−,−,−,−,−,017-3161101,017-3161101,جازان,الجنوبة,مستشفى فرسان العام
5404,4,DAMAD GENERAL HOSPITAL - MOH,SOUTHERN,JAZAN,JAZAN,HOSPITAL,√,√,√,√,−,−,−,−,−,−,017-3132519,017-3131136,جازان,الجنوبة,مستشفى ضمد العام
1632,6,SARH AL TAWFIQ POLYCLINIC,SOUTHERN,JAZAN,NORTH DISTRICT,CLINIC,√,√,√,√,√,√,−,−,−,−,017-3425014,017-3425015,جازان,الجنوبة,مجمع صرح التوفق الطبي
2222,6,AL HAYAT NATIONAL HOSPITAL (JAZAN),SOUTHERN,JAZAN,NORTH,HOSPITAL,√,√,√,√,√,√,−,−,−,−,017-2334444,017-2332222,جازان,الجنوبة,مستشفى الحاه (جازان)
3512,8,AL EMEIS HOSPITAL - JIZAN,SOUTHERN,JAZAN,SABYA,HOSPITAL,√,√,√,√,√,√,√,√,R,R,017-3226320,017-3237931,جازان,الجنوبة,مستشفى العمس - جازان
4691,8,AL HAYAT SPECIALIZED CLINIC - JAZAN,SOUTHERN,JAZAN,AL WASAT,CLINIC,√,√,√,√,√,√,√,√,−,−,017-3254100,017-3250112,جازان,الجنوبة,مركز طب الحاة التخصصي - جازان
5331,8,PASMAT ALZIAIN CLINICS,SOUTHERN,JAZAN,ALRAWABI,CLINIC,√,√,√,√,√,√,√,√,−,−,017-3212222,017-3212222,جازان,الجنوبة,مجمع بصمة الزن الطبي
5435,8,PROF. MEDICAL CARE COMPLEX,SOUTHERN,JAZAN,ABHA,CLINIC,√,√,√,√,√,√,√,√,−,−,017-3181111,017-3181101,جازان,الجنوبة,مجمع العناة المحترفة الطبي
2725,9,RAWAAT AL MAHA OPTICALS - JAZAN,SOUTHERN,JAZAN,CENTER,CENTER,√,√,√,√,√,√,√,√,√,−,017-9180223,011-2374525,جازان,الجنوبة,روعة المھا للبصرات -جازان
2880,9,FARZA OPTICS - SABIA,SOUTHERN,JAZAN,SABYA,CENTER,√,√,√,√,√,√,√,√,√,−,017-3267724,017-2250919,جازان,الجنوبة,محل فرزة للنظارات -صبا
2884,9,FARZA OPTICS - GIZAN,SOUTHERN,JAZAN,NORTH,CENTER,√,√,√,√,√,√,√,√,√,−,017-3224149,017-2250919,جازان,الجنوبة,محل فرزة للنظارات -جازان
927,9,AL KHAMAJ POLYCLINIC,SOUTHERN,JAZAN,AL WASAT,CLINIC,√,√,√,√,√,√,√,√,√,−,017-3220038,017-3220739,جازان,الجنوبة,مجمع الخمج الطبي
4317,10,SHIFA JAZAN POLYCLINIC,SOUTHERN,JAZAN,JAZAN,CLINIC,√,√,√,√,√,√,√,√,√,√,017-3232266,017-3232299,جازان,الجنوبة,مجمع عادات شفاء جازان
1672,10,AL HARAMAIN MEDICAL COMPLEX,SOUTHERN,JAZAN,ALRAWDAH DISTRICT,CLINIC,√,√,√,√,√,√,√,√,√,√,017-2506666,017-3222697,جازان,الجنوبة,مجمع الحرمن الطبة
1593,9,RAWAFED MEDICAL COMPLEX (NASIR DAIFALLAH AL ),SOUTHERN,JAZAN,AL RAWDAH,CLINIC,√,√,√,√,√,√,√,√,√,−,017-3173725,017-3221149,جازان,الجنوبة,مجمع روافد الطبي ( ناصر ضف اللھ)
5482,10,ALHAKAMI MEDICAL COMPLEX,SOUTHERN,JAZAN,ALNASEEM,CLINIC,√,√,√,√,√,√,√,√,√,√,017-3233333,017-3233333,جازان,الجنوبة,مجمع الحكمي الطبي
4663,4,SAMTAH GENERAL HOSPITAL,SOUTHERN,SAMTAH,SAMTAH,HOSPITAL,√,√,√,√,−,−,−,−,−,−,017-3321448,-,سامطھ,الجنوبة,مستشفى صامطة العام
2901,9,FARZA OPTICS - SAMTAH,SOUTHERN,SAMTAH,CENTER,CENTER,√,√,√,√,√,√,√,√,√,−,017-3322243,017-2250919,سامطھ,الجنوبة,محل فرزة للنظارات -سامطة
1741,4,SABIA GENERAL HOSPITAL (MOH),SOUTHERN,SABIA,SABYA,HOSPITAL,√,√,√,√,−,−,−,−,−,−,011-4050714,017-3172353,صباء,الجنوبة,مستشفى صبا العام ( وزارة الصحة )
3647,8,AL EMEIS HOSPITAL - SABIA,SOUTHERN,SABIA,SABYA,HOSPITAL,√,√,√,√,√,√,√,√,R,R,017-3266633,017-3261776,صباء,الجنوبة,مستشفى العمس - صبا
4070,10,AL MARIY EXPERTS MEDICAL POLYCLINIC,SOUTHERN,SABIA,AL SHARQ,CLINIC,√,√,√,√,√,√,√,√,√,√,017-3222407,017-3221149,صباء,الجنوبة,مجمع خبراء المرع الطبي
4557,4,ABU ARISH GENERAL HOSPTIAL,SOUTHERN,ABU ARISH,ABO ARISH,HOSPITAL,√,√,√,√,−,−,−,−,−,−,017-3250012,017-3250012,ابوعرش,الجنوبة,مستشفى ابو عرش العام
2910,9,FARZA OPTICS - ABU AREASH,SOUTHERN,ABU ARISH,JAZAN,CENTER,√,√,√,√,√,√,√,√,√,−,017-3246111,017-2250919,ابوعرش,الجنوبة,محل فرزة للنظارات -ابوعرش
5445,10,ALHAKAMI MEDICAL COMPLEX - ABU AREESH,SOUTHERN,ABU ARISH,KING FAHAD,CLINIC,√,√,√,√,√,√,√,√,√,√,017-3243333,017-3161000,ابوعرش,الجنوبة,مجمع الحكمي الطبي - ابو عرش
4555,4,BEESH GENERAL HOSPITAL,SOUTHERN,BEESH,AL SHEMALY,HOSPITAL,√,√,√,√,−,−,−,−,−,−,017-3420944,017-3421144,بش,الجنوبة,مستشفى بش العام
5036,10,NOKHBAT AL JANOB MEDICAL COMPLEX,SOUTHERN,BEESH,AL KHALIDIYA,CLINIC,√,√,√,√,√,√,√,√,√,√,017-3424077,017-3422207,بش,الجنوبة,مجمع نخبة الجنوب
4556,4,AL DARB GENERAL HOSPITAL,SOUTHERN,AL DARB,AL DARB,HOSPITAL,√,√,√,√,−,−,−,−,−,−,017-3461063,017-3460036,الدرب,الجنوبة,مستشفى الدرب العام
4253,9,SHIFA AL DARB MEDICAL COMPLEX,SOUTHERN,AL DARB,AL WASAT,CLINIC,√,√,√,√,√,√,√,√,√,−,017-3232266,017-3232299,الدرب,الجنوبة,مجمع عادات شفاء الدرب
5403,4,AHAD AL MASARHA GENERAL HOSPITAL - MOH,SOUTHERN,AHAD AL MASARHA,AHAD AL MASARHA,HOSPITAL,√,√,√,√,−,−,−,−,−,−,017-3190903,017-3191771,احد المسارحة,الجنوبة,مستشفى أحد المسارحة العام
5421,9,AL AMAL MEDICAL POLYCLINIC,SOUTHERN,AHAD AL MASARHA,AHAD ALMSARHA,CLINIC,√,√,√,√,√,√,√,√,√,−,017-3193333,017-3190081,احد المسارحة,الجنوبة,مجمع امل الطبي
5483,10,ALHAKAMI MEDICAL COMPLEX - AHAD ALMSARHA,SOUTHERN,AHAD AL MASARHA,ALMETLAA,CLINIC,√,√,√,√,√,√,√,√,√,√,017-3193200,017-3193200,احد المسارحة,الجنوبة,مجمع الحكمي الطبي - احد المسارحة
1738,4,KING FAHAD HOSPITAL (MOH) AL BAHA,SOUTHERN,AL BAHA,AL BAHA,HOSPITAL,√,√,√,√,−,−,−,−,−,−,011-4050714,017-2296911,الباحة,الجنوبة,مستشفى الملك فھد ( وزارة الصحة ) الباحة
2885,9,FARZA OPTICS - ALBAHA,SOUTHERN,AL BAHA,AL BAHA,CENTER,√,√,√,√,√,√,√,√,√,−,017-7271372,017-2250919,الباحة,الجنوبة,محل فرزة للنظارات -الباحة
5355,9,AL HASHBOOL MEDICAL COMPLEX,SOUTHERN,AL BAHA,AQEEQ,CLINIC,√,√,√,√,√,√,√,√,√,−,017-7290145,017-7290386,الباحة,الجنوبة,مجمع الھشول الطبي
5441,10,SALEM MEDICAL COMPLEX,SOUTHERN,AL BAHA,ALBAHA,CLINIC,√,√,√,√,√,√,√,√,√,√,920008991,-,الباحة,الجنوبة,مجمع سالم الطبي
4530,4,BALJURASHI GENERAL HOSPITAL,SOUTHERN,BALJURASHI,ALHELYAH,HOSPITAL,√,√,√,√,R,R,R,R,R,R,-,-,بلجرشي,الجنوبة,مستشفى بلجرشي العام
4849,6,AL SARAH POLYCLINIC (ALZOBYDI GROUP),SOUTHERN,BALJURASHI,BALJURASHI,CLINIC,√,√,√,√,√,√,−,−,−,−,017-7220540,017-7226415,بلجرشي,الجنوبة,مجمع السراة الطبي العام (مجموعة الزبدي)
4529,4,AL AQEEQ GENERAL HOSPITAL,SOUTHERN,AL AQEEQ,AL HAZM,HOSPITAL,√,√,√,√,−,−,−,−,−,−,017-7390382,017-7243534,العقق,الجنوبة,مستشفى العقق
4528,4,MAKHWAH GENERAL HOSPTIAL,SOUTHERN,AL MEKHWA,AL HDBAH,HOSPITAL,√,√,√,√,−,−,−,−,−,−,017-7280385,017-7280320,المخواة,الجنوبة,مستشفى المخواة العام
1674,9,SAEED ALI ( AL MEKHWAH NAIONAL CLINIC ),SOUTHERN,AL MEKHWA,BAHA,CLINIC,√,√,√,√,√,√,√,√,√,−,017-7280544,017-7281744,المخواة,الجنوبة,مجمع سعد علي الغامدي ( المخواة اھلي )
1735,4,KING ABDULLAH BIN ABDULAZIZ HOSPITAL (MOH),SOUTHERN,BISHA,AL NAKHEEL,HOSPITAL,√,√,√,√,−,−,−,−,−,−,011-4050714,017-6224050,بشة,الجنوبة,مستشفى للملك عبد اللھ بن عبد العزز (وزارة) (بشة)
5462,4,MATERNITY AND CHILDREN HOSPITAL BISHA,SOUTHERN,BISHA,KING ABDULLAH,HOSPITAL,√,√,√,√,−,−,−,−,−,−,017-6229300,017-6229300,بشة,الجنوبة,مستشفى الودة واطفال ببشة  - وزارة الصحة
5463,4,ALBASHAER GENERAL HOSPITAL,SOUTHERN,BISHA,ALBASHAER,HOSPITAL,√,√,√,√,−,−,−,−,−,−,017-6300230,017-6300230,بشة,الجنوبة,مستشفى البشائر العام-وزارة الصحة
2891,9,FARZA OPTICS - BISHA,SOUTHERN,BISHA,BISHA,CENTER,√,√,√,√,√,√,√,√,√,−,017-6223781,017-2250919,بشة,الجنوبة,محل فرزة للنظارات -بشة
2914,9,CASTLE OPTICS - BISHA,SOUTHERN,BISHA,AL RWSHAN,CENTER,√,√,√,√,√,√,√,√,√,−,017-6209923,017-2250919,بشة,الجنوبة,قلعة البصرات للنظارات -بشة
1662,10,MEDICAL CONSULTANTS DISPENSARY,SOUTHERN,BISHA,AL KHALIDIYA,CLINIC,√,√,√,√,√,√,√,√,√,√,017-6221111,017-6201133,بشة,الجنوبة,مجمع مستشاري الطبي
4522,4,TATHLEETH GENERAL HOSPITAL,SOUTHERN,TASLEETH,TATHLEETH,HOSPITAL,√,√,√,√,−,−,−,−,−,−,017-2670923,017-2671214,تثلث,الجنوبة,مستشفى تثلث العام
4645,4,TRUBAH G. HOSPITAL,SOUTHERN,TRUBAH,TRUBAH,HOSPITAL,√,√,√,√,−,−,−,−,−,−,012-8221555,012-8221682,تربة,الجنوبة,مستشفى تربة العام
4521,4,SABT AL ALAYA GENERAL HOSPITAL,SOUTHERN,SABT AL ALAYAA,SABT AL ALAYA,HOSPITAL,√,√,√,√,−,−,−,−,−,−,017-6301032,017-6314238,سبت العا,الجنوبة,مستشفى سبت العة العام
1040,9,AL AZHAR POLYCLINIC,SOUTHERN,SABT AL ALAYAA,MAIN DISTRICT,CLINIC,√,√,√,√,√,√,√,√,√,−,017-6300158,017-6304796,سبت العا,الجنوبة,مجمع ازھار الطبي العام
4550,4,QUNFUDA GENERAL HOSPITAL,SOUTHERN,AL QUNFAZAH,QUNFUDA,HOSPITAL,√,√,√,√,R,R,R,R,R,R,017-7321790,017-7325964,القنفذة,الجنوبة,مستشفى القنفذة العام
4551,4,SOUTH QUNFUDA HOSPITAL,SOUTHERN,AL QUNFAZAH,QUNFUDA,HOSPITAL,√,√,√,√,−,−,−,−,−,−,017-7328000,017-7328000,القنفذة,الجنوبة,مستشفى جنوب القنفذة
3649,9,AL AZHAR POLYCLINIC-ALQUNFAZAH,SOUTHERN,AL QUNFAZAH,AL KHALEDEYA DISTRICT,CLINIC,√,√,√,√,√,√,√,√,√,−,017-7333400,017-7325512,القنفذة,الجنوبة,مستوصف ازھار الطبي - القنفذة
2066,10,AL ASHERY PRAIVATE DISPENSARY -1,SOUTHERN,AL QUNFAZAH,HALY DISTRICT,CLINIC,√,√,√,√,√,√,√,√,√,√,017-7469799,017-7337839,القنفذة,الجنوبة,مجمع العشري الطبي رقم -1
4520,4,MUHAYL GENERAL HOSPITAL,SOUTHERN,MUHAYL  ASEER,MUHAYL,HOSPITAL,√,√,√,√,−,−,−,−,−,−,017-2952603,017-2850470,محال عسر,الجنوبة,مستشفى محال العام
1604,8,MUHAYL NATIONAL HOSPITAL,SOUTHERN,MUHAYL  ASEER,MUHAYL,HOSPITAL,√,√,√,√,√,√,√,√,R,R,017-2856666,017-2851265,محال عسر,الجنوبة,مستشفى محال اھلي
2898,9,AL BALLAA OPTICS - FARZA MOHAILASSER,SOUTHERN,MUHAYL  ASEER,CITY CENTER,CENTER,√,√,√,√,√,√,√,√,√,−,017-2855132,017-2250919,محال عسر,الجنوبة,نظارات البع - مؤسسة فرزة التجارة محال عسر
5422,10,EXPERTS MEDICAL CENTER,SOUTHERN,MUHAYL  ASEER,MUHAYL  ASEER,CLINIC,√,√,√,√,√,√,√,√,√,√,017-2851018,017-2851666,محال عسر,الجنوبة,مجمع مركز الخبراء التخصصي
5335,4,AL MAJARDA GENERAL HOSPITAL,SOUTHERN,AL MAJARDA,CITY CENTER,HOSPITAL,√,√,√,√,−,−,−,−,−,−,017-2812271,017-2812549,المجاردة,الجنوبة,مستشفى المجاردة العام
4322,9,DERYAG MEDICAL COMPLEX -  AL NAMAS ( FUTURE VISIONS PREV.),SOUTHERN,AL NAMAS,NOMAS,CLINIC,√,√,√,√,√,√,√,√,√,−,017-2820222,017-2831367,النماص,الجنوبة,مجمع دراق  الطبي - النماص ( روئ المستقبل سابقا)
1742,4,KING KHALID HOSPITAL (MOH) (NAJRAN),SOUTHERN,NAJRAN,AL KHALIDIYA,HOSPITAL,√,√,√,√,−,−,−,−,−,−,011-4050714,017-5238834,نجران,الجنوبة,مستشفى الملك خالد ( وزارة الصحة ) (نجران)
4539,4,NAJRAN GENERAL HOSPITAL,SOUTHERN,NAJRAN,SHORFA,HOSPITAL,√,√,√,√,−,−,−,−,−,−,-,-,نجران,الجنوبة,مستشفى نجران العام الجدد
1726,4,MATERNITY & CHILDREN HOSPITAL (MOH) (NAJRAN),SOUTHERN,NAJRAN,AL ATHAYBA,HOSPITAL,√,√,√,√,−,−,−,−,−,−,011-4050714,017-5238834,نجران,الجنوبة,مستشفى الودة واطفال ( وزارة الصحة ) (نجران)
4660,4,HABUNA GENERAL HOSPITAL,SOUTHERN,NAJRAN,HABUNA,HOSPITAL,√,√,√,√,−,−,−,−,−,−,017-5452412,-,نجران,الجنوبة,مستشفى حبونا العام
4661,4,KHBASH GENERAL HOSPITAL,SOUTHERN,NAJRAN,KHBASH,HOSPITAL,√,√,√,√,−,−,−,−,−,−,017-5441400,-,نجران,الجنوبة,مستشفى خباش العام
4850,6,ELIA MEDICAL COMPLEX,SOUTHERN,NAJRAN,AL KAPEL,CLINIC,√,√,√,√,√,√,−,−,−,−,017-5436000,017-5224848,نجران,الجنوبة,مجمع الاء الطبي
3897,6,AL QANNAS DENTAL CENTER,SOUTHERN,NAJRAN,AL DHYAFA,CENTER,√,√,√,√,√,√,−,−,−,−,017-5228899,017-5228866,نجران,الجنوبة,مجمع عادات الدكتور مرزوق القناص لطب اسنان
156,8,AL ZAFER HOSPITAL,SOUTHERN,NAJRAN,PRINCE FAWAZ DISTRICT,HOSPITAL,√,√,√,√,√,√,√,√,−,−,017-5429981,017-5429797,نجران,الجنوبة,مستشفى الظافر
4020,8,SHEFA SPECIALIZED HOSPITAL,SOUTHERN,NAJRAN,AL ATHAYBA,HOSPITAL,√,√,√,√,√,√,√,√,R,R,017-5426666,017-5445881,نجران,الجنوبة,مستشفى الشفاء الطبي
4326,8,SPECIALIZED NAJRAN HOSPITAL - AL QADI HOSPITAL PREV.,SOUTHERN,NAJRAN,PRINCE MUSHAL,HOSPITAL,√,√,√,√,√,√,√,√,R,R,017-5227888,017-5222161,نجران,الجنوبة,مستشفى تخصصي نجران - القاضي سابقا
5173,8,DAWAA ALSALAMA POLYCLINIC - MISHEAL,SOUTHERN,NAJRAN,MISHEAL,CLINIC,√,√,√,√,√,√,√,√,−,−,017-5295666,017-5290718,نجران,الجنوبة,مجمع دواء السمة الطبي - مشعل
5174,10,DAWAA ALSALAMA POLYCLINIC - ALKHALIDYA,SOUTHERN,NAJRAN,AL KHALIDIYA,CLINIC,√,√,√,√,√,√,√,√,√,√,017-5221080,017-5230530,نجران,الجنوبة,مجمع دواء السمة الطبي - الخالدة
2887,9,INT'L OPTICS HOUSE - NAJRAN,SOUTHERN,NAJRAN,NAJRAN,CENTER,√,√,√,√,√,√,√,√,√,−,017-5232944,017-2250919,نجران,الجنوبة,بت النظارات الدولي -نجران
2890,9,OYON FOR OPTICS - NAJRAN,SOUTHERN,NAJRAN,AL KHALIDIYA,CENTER,√,√,√,√,√,√,√,√,√,−,017-5235475,017-2250919,نجران,الجنوبة,عون للبصرات -نجران
4325,10,SHIFA NAJRAN MEDICAL CENTER,SOUTHERN,NAJRAN,AL KHALIDYA,CLINIC,√,√,√,√,√,√,√,√,√,√,017-5220888,017-5401111,نجران,الجنوبة,مجمع عادات شفاء نجران
4387,10,AL WAFA SPECIALIZED MEDICAL COMPLEX,SOUTHERN,NAJRAN,AL MASHALIA,CLINIC,√,√,√,√,√,√,√,√,√,√,017-5466866,017-5466866,نجران,الجنوبة,مجمع الوفاء التخصصي
1219,9,AL OKHDOUD CLINIC CENTER,SOUTHERN,NAJRAN,NAJRAN,CLINIC,√,√,√,√,√,√,√,√,√,−,017-5442000,017-5442228,نجران,الجنوبة,مجمع مركز اخدود الطبي
4692,10,AL HAYAT SPECIALIZED CLINIC - NAJRAN,SOUTHERN,NAJRAN,PRINCE MISHAL,CLINIC,√,√,√,√,√,√,√,√,√,√,017-5290888,017-5291951,نجران,الجنوبة,مجمع طب الحاة التخصصي
4323,10,AL QADI MEDICAL POLY CLINIC,SOUTHERN,NAJRAN,ALFAHAD DISTRICT,CLINIC,√,√,√,√,√,√,√,√,√,√,017-5231000,017-5231380,نجران,الجنوبة,مجمع القاضي الطبي
1312,10,AL QADI POLY CLINIC,SOUTHERN,NAJRAN,ABA AL SAUD,CLINIC,√,√,√,√,√,√,√,√,√,√,017-5231000,017-5231380,نجران,الجنوبة,مجمع القاضي النموذجي
4540,4,SHAROORA GENERAL HOSPITAL,SOUTHERN,SHAROORAH,SHARORA,HOSPITAL,√,√,√,√,−,−,−,−,−,−,017-5322912,017-5322912,شرورة,الجنوبة,مستشفى شرورة العام
2899,9,FARZA OPTICS - SHARORA,SOUTHERN,SHAROORAH,SHARORA,CENTER,√,√,√,√,√,√,√,√,√,−,017-5323222,017-2250919,شرورة,الجنوبة,محل فرزة للنظارات -شرورة
1477,9,AL JAZERAH MEDICAL CENTRE,SOUTHERN,SHAROORAH,ALFAISALIAH DISTRICT,CLINIC,√,√,√,√,√,√,√,√,√,−,017-5321966,017-5322808,شرورة,الجنوبة,مجمع الجزرة الطبي
5545,10,ADVANCED MEDICAL FAMILY COMPLEX,SOUTHERN,SHAROORAH,SHAROORAH,CLINIC,√,√,√,√,√,√,√,√,√,√,017-5326666,-,شرورة,الجنوبة,مجمع اسرة الطبة المتقدمة
